{
"type": "FeatureCollection",
"name": "output",
"crs": { "type": "name", "properties": { "name": "urn:ogc:def:crs:OGC:1.3:CRS84" } },
"features": [
{ "type": "Feature", "properties": { "cell_id": "722037_2079103", "DN": 3 }, "geometry": { "type": "Polygon", "coordinates": [ [ [ -96.893351379058174, 18.791774320166812 ], [ -96.893351266689436, 18.791783351913466 ], [ -96.893360749697834, 18.791783458934784 ], [ -96.893360862066089, 18.791774427188077 ], [ -96.893351379058174, 18.791774320166812 ] ] ] } },
{ "type": "Feature", "properties": { "cell_id": "722037_2079104", "DN": 3 }, "geometry": { "type": "Polygon", "coordinates": [ [ [ -96.893351266689436, 18.791783351913466 ], [ -96.893351154320612, 18.791792383660113 ], [ -96.893360637329522, 18.791792490681487 ], [ -96.893360749697834, 18.791783458934784 ], [ -96.893351266689436, 18.791783351913466 ] ] ] } },
{ "type": "Feature", "properties": { "cell_id": "722038_2079103", "DN": 3 }, "geometry": { "type": "Polygon", "coordinates": [ [ [ -96.893341896050345, 18.791774213145064 ], [ -96.89334178368108, 18.791783244891661 ], [ -96.893351266689436, 18.791783351913466 ], [ -96.893351379058174, 18.791774320166812 ], [ -96.893341896050345, 18.791774213145064 ] ] ] } },
{ "type": "Feature", "properties": { "cell_id": "722038_2079104", "DN": 3 }, "geometry": { "type": "Polygon", "coordinates": [ [ [ -96.89334178368108, 18.791783244891661 ], [ -96.893341671311759, 18.791792276638255 ], [ -96.893351154320612, 18.791792383660113 ], [ -96.893351266689436, 18.791783351913466 ], [ -96.89334178368108, 18.791783244891661 ] ] ] } },
{ "type": "Feature", "properties": { "cell_id": "722039_2079103", "DN": 3 }, "geometry": { "type": "Polygon", "coordinates": [ [ [ -96.893332413042558, 18.79177410612284 ], [ -96.893332300672796, 18.79178313786938 ], [ -96.89334178368108, 18.791783244891661 ], [ -96.893341896050345, 18.791774213145064 ], [ -96.893332413042558, 18.79177410612284 ] ] ] } },
{ "type": "Feature", "properties": { "cell_id": "722039_2079104", "DN": 3 }, "geometry": { "type": "Polygon", "coordinates": [ [ [ -96.893332300672796, 18.79178313786938 ], [ -96.893332188302963, 18.791792169615917 ], [ -96.893341671311759, 18.791792276638255 ], [ -96.89334178368108, 18.791783244891661 ], [ -96.893332300672796, 18.79178313786938 ] ] ] } },
{ "type": "Feature", "properties": { "cell_id": "722040_2079103", "DN": 3 }, "geometry": { "type": "Polygon", "coordinates": [ [ [ -96.893322930034842, 18.791773999100126 ], [ -96.893322817664583, 18.791783030846616 ], [ -96.893332300672796, 18.79178313786938 ], [ -96.893332413042558, 18.79177410612284 ], [ -96.893322930034842, 18.791773999100126 ] ] ] } },
{ "type": "Feature", "properties": { "cell_id": "722040_2079104", "DN": 3 }, "geometry": { "type": "Polygon", "coordinates": [ [ [ -96.893322817664583, 18.791783030846616 ], [ -96.893322705294239, 18.791792062593096 ], [ -96.893332188302963, 18.791792169615917 ], [ -96.893332300672796, 18.79178313786938 ], [ -96.893322817664583, 18.791783030846616 ] ] ] } },
{ "type": "Feature", "properties": { "cell_id": "722061_2079076", "DN": 3 }, "geometry": { "type": "Polygon", "coordinates": [ [ [ -96.893126821146851, 18.791527894384657 ], [ -96.89312670876771, 18.791536926130245 ], [ -96.893136191760959, 18.791537033161617 ], [ -96.893136304139588, 18.791528001415976 ], [ -96.893126821146851, 18.791527894384657 ] ] ] } },
{ "type": "Feature", "properties": { "cell_id": "722062_2079075", "DN": 3 }, "geometry": { "type": "Polygon", "coordinates": [ [ [ -96.893117450533765, 18.791518755607324 ], [ -96.893117338154184, 18.791527787352859 ], [ -96.893126821146851, 18.791527894384657 ], [ -96.89312693352592, 18.791518862639066 ], [ -96.893117450533765, 18.791518755607324 ] ] ] } },
{ "type": "Feature", "properties": { "cell_id": "722062_2079076", "DN": 3 }, "geometry": { "type": "Polygon", "coordinates": [ [ [ -96.893117338154184, 18.791527787352859 ], [ -96.893117225774532, 18.791536819098383 ], [ -96.89312670876771, 18.791536926130245 ], [ -96.893126821146851, 18.791527894384657 ], [ -96.893117338154184, 18.791527787352859 ] ] ] } },
{ "type": "Feature", "properties": { "cell_id": "722062_2079077", "DN": 3 }, "geometry": { "type": "Polygon", "coordinates": [ [ [ -96.893117225774532, 18.791536819098383 ], [ -96.893117113394823, 18.791545850843903 ], [ -96.893126596388512, 18.791545957875815 ], [ -96.89312670876771, 18.791536926130245 ], [ -96.893117225774532, 18.791536819098383 ] ] ] } },
{ "type": "Feature", "properties": { "cell_id": "722063_2079061", "DN": 3 }, "geometry": { "type": "Polygon", "coordinates": [ [ [ -96.893109540856116, 18.791392204137352 ], [ -96.893109428476933, 18.791401235882965 ], [ -96.89311891146248, 18.791401342914472 ], [ -96.893119023841152, 18.791392311168803 ], [ -96.893109540856116, 18.791392204137352 ] ] ] } },
{ "type": "Feature", "properties": { "cell_id": "722063_2079075", "DN": 3 }, "geometry": { "type": "Polygon", "coordinates": [ [ [ -96.893107967541653, 18.791518648575092 ], [ -96.893107855161574, 18.791527680320577 ], [ -96.893117338154184, 18.791527787352859 ], [ -96.893117450533765, 18.791518755607324 ], [ -96.893107967541653, 18.791518648575092 ] ] ] } },
{ "type": "Feature", "properties": { "cell_id": "722063_2079076", "DN": 3 }, "geometry": { "type": "Polygon", "coordinates": [ [ [ -96.893107855161574, 18.791527680320577 ], [ -96.893107742781424, 18.791536712066051 ], [ -96.893117225774532, 18.791536819098383 ], [ -96.893117338154184, 18.791527787352859 ], [ -96.893107855161574, 18.791527680320577 ] ] ] } },
{ "type": "Feature", "properties": { "cell_id": "722063_2079077", "DN": 3 }, "geometry": { "type": "Polygon", "coordinates": [ [ [ -96.893107742781424, 18.791536712066051 ], [ -96.893107630401218, 18.791545743811515 ], [ -96.893117113394823, 18.791545850843903 ], [ -96.893117225774532, 18.791536819098383 ], [ -96.893107742781424, 18.791536712066051 ] ] ] } },
{ "type": "Feature", "properties": { "cell_id": "722063_2079078", "DN": 3 }, "geometry": { "type": "Polygon", "coordinates": [ [ [ -96.893107630401218, 18.791545743811515 ], [ -96.89310751802094, 18.791554775556971 ], [ -96.893117001015057, 18.79155488258942 ], [ -96.893117113394823, 18.791545850843903 ], [ -96.893107630401218, 18.791545743811515 ] ] ] } },
{ "type": "Feature", "properties": { "cell_id": "722063_2079079", "DN": 3 }, "geometry": { "type": "Polygon", "coordinates": [ [ [ -96.89310751802094, 18.791554775556971 ], [ -96.893107405640592, 18.791563807302413 ], [ -96.89311688863522, 18.791563914334915 ], [ -96.893117001015057, 18.79155488258942 ], [ -96.89310751802094, 18.791554775556971 ] ] ] } },
{ "type": "Feature", "properties": { "cell_id": "722063_2079103", "DN": 3 }, "geometry": { "type": "Polygon", "coordinates": [ [ [ -96.893104820875081, 18.791771537445069 ], [ -96.893104708493198, 18.791780569190287 ], [ -96.893114191499947, 18.791780676224111 ], [ -96.893114303881319, 18.791771644478839 ], [ -96.893104820875081, 18.791771537445069 ] ] ] } },
{ "type": "Feature", "properties": { "cell_id": "722063_2079104", "DN": 3 }, "geometry": { "type": "Polygon", "coordinates": [ [ [ -96.893104708493198, 18.791780569190287 ], [ -96.893104596111257, 18.791789600935498 ], [ -96.893114079118519, 18.791789707969379 ], [ -96.893114191499947, 18.791780676224111 ], [ -96.893104708493198, 18.791780569190287 ] ] ] } },
{ "type": "Feature", "properties": { "cell_id": "722064_2079060", "DN": 3 }, "geometry": { "type": "Polygon", "coordinates": [ [ [ -96.893100170250776, 18.791383065359852 ], [ -96.893100057871138, 18.791392097105415 ], [ -96.893109540856116, 18.791392204137352 ], [ -96.893109653235243, 18.791383172391726 ], [ -96.893100170250776, 18.791383065359852 ] ] ] } },
{ "type": "Feature", "properties": { "cell_id": "722064_2079061", "DN": 3 }, "geometry": { "type": "Polygon", "coordinates": [ [ [ -96.893100057871138, 18.791392097105415 ], [ -96.893099945491443, 18.791401128850975 ], [ -96.893109428476933, 18.791401235882965 ], [ -96.893109540856116, 18.791392204137352 ], [ -96.893100057871138, 18.791392097105415 ] ] ] } },
{ "type": "Feature", "properties": { "cell_id": "722064_2079076", "DN": 3 }, "geometry": { "type": "Polygon", "coordinates": [ [ [ -96.893098372169035, 18.791527573287816 ], [ -96.893098259788374, 18.791536605033233 ], [ -96.893107742781424, 18.791536712066051 ], [ -96.893107855161574, 18.791527680320577 ], [ -96.893098372169035, 18.791527573287816 ] ] ] } },
{ "type": "Feature", "properties": { "cell_id": "722064_2079078", "DN": 3 }, "geometry": { "type": "Polygon", "coordinates": [ [ [ -96.893098147407656, 18.79154563677864 ], [ -96.893098035026881, 18.791554668524043 ], [ -96.89310751802094, 18.791554775556971 ], [ -96.893107630401218, 18.791545743811515 ], [ -96.893098147407656, 18.79154563677864 ] ] ] } },
{ "type": "Feature", "properties": { "cell_id": "722064_2079079", "DN": 3 }, "geometry": { "type": "Polygon", "coordinates": [ [ [ -96.893098035026881, 18.791554668524043 ], [ -96.893097922646021, 18.791563700269435 ], [ -96.893107405640592, 18.791563807302413 ], [ -96.89310751802094, 18.791554775556971 ], [ -96.893098035026881, 18.791554668524043 ] ] ] } },
{ "type": "Feature", "properties": { "cell_id": "722064_2079080", "DN": 3 }, "geometry": { "type": "Polygon", "coordinates": [ [ [ -96.893097922646021, 18.791563700269435 ], [ -96.893097810265118, 18.791572732014814 ], [ -96.893107293260201, 18.791572839047856 ], [ -96.893107405640592, 18.791563807302413 ], [ -96.893097922646021, 18.791563700269435 ] ] ] } },
{ "type": "Feature", "properties": { "cell_id": "722064_2079102", "DN": 3 }, "geometry": { "type": "Polygon", "coordinates": [ [ [ -96.893095450251224, 18.791762398665639 ], [ -96.8930953378689, 18.791771430410815 ], [ -96.893104820875081, 18.791771537445069 ], [ -96.893104933256893, 18.791762505699833 ], [ -96.893095450251224, 18.791762398665639 ] ] ] } },
{ "type": "Feature", "properties": { "cell_id": "722064_2079103", "DN": 3 }, "geometry": { "type": "Polygon", "coordinates": [ [ [ -96.8930953378689, 18.791771430410815 ], [ -96.893095225486519, 18.791780462155977 ], [ -96.893104708493198, 18.791780569190287 ], [ -96.893104820875081, 18.791771537445069 ], [ -96.8930953378689, 18.791771430410815 ] ] ] } },
{ "type": "Feature", "properties": { "cell_id": "722064_2079104", "DN": 3 }, "geometry": { "type": "Polygon", "coordinates": [ [ [ -96.893095225486519, 18.791780462155977 ], [ -96.893095113104081, 18.791789493901135 ], [ -96.893104596111257, 18.791789600935498 ], [ -96.893104708493198, 18.791780569190287 ], [ -96.893095225486519, 18.791780462155977 ] ] ] } },
{ "type": "Feature", "properties": { "cell_id": "722065_2079078", "DN": 3 }, "geometry": { "type": "Polygon", "coordinates": [ [ [ -96.893088664414165, 18.791545529745289 ], [ -96.893088552032879, 18.791554561490635 ], [ -96.893098035026881, 18.791554668524043 ], [ -96.893098147407656, 18.79154563677864 ], [ -96.893088664414165, 18.791545529745289 ] ] ] } },
{ "type": "Feature", "properties": { "cell_id": "722065_2079079", "DN": 3 }, "geometry": { "type": "Polygon", "coordinates": [ [ [ -96.893088552032879, 18.791554561490635 ], [ -96.893088439651521, 18.791563593235974 ], [ -96.893097922646021, 18.791563700269435 ], [ -96.893098035026881, 18.791554668524043 ], [ -96.893088552032879, 18.791554561490635 ] ] ] } },
{ "type": "Feature", "properties": { "cell_id": "722065_2079080", "DN": 3 }, "geometry": { "type": "Polygon", "coordinates": [ [ [ -96.893088439651521, 18.791563593235974 ], [ -96.893088327270107, 18.791572624981296 ], [ -96.893097810265118, 18.791572732014814 ], [ -96.893097922646021, 18.791563700269435 ], [ -96.893088439651521, 18.791563593235974 ] ] ] } },
{ "type": "Feature", "properties": { "cell_id": "722065_2079102", "DN": 3 }, "geometry": { "type": "Polygon", "coordinates": [ [ [ -96.893085967245611, 18.79176229163096 ], [ -96.89308585486279, 18.791771323376079 ], [ -96.8930953378689, 18.791771430410815 ], [ -96.893095450251224, 18.791762398665639 ], [ -96.893085967245611, 18.79176229163096 ] ] ] } },
{ "type": "Feature", "properties": { "cell_id": "722065_2079103", "DN": 3 }, "geometry": { "type": "Polygon", "coordinates": [ [ [ -96.89308585486279, 18.791771323376079 ], [ -96.893085742479897, 18.791780355121194 ], [ -96.893095225486519, 18.791780462155977 ], [ -96.8930953378689, 18.791771430410815 ], [ -96.89308585486279, 18.791771323376079 ] ] ] } },
{ "type": "Feature", "properties": { "cell_id": "722066_2079102", "DN": 3 }, "geometry": { "type": "Polygon", "coordinates": [ [ [ -96.893076484240069, 18.791762184595804 ], [ -96.893076371856736, 18.791771216340866 ], [ -96.89308585486279, 18.791771323376079 ], [ -96.893085967245611, 18.79176229163096 ], [ -96.893076484240069, 18.791762184595804 ] ] ] } },
{ "type": "Feature", "properties": { "cell_id": "722066_2079103", "DN": 3 }, "geometry": { "type": "Polygon", "coordinates": [ [ [ -96.893076371856736, 18.791771216340866 ], [ -96.893076259473347, 18.791780248085917 ], [ -96.893085742479897, 18.791780355121194 ], [ -96.89308585486279, 18.791771323376079 ], [ -96.893076371856736, 18.791771216340866 ] ] ] } },
{ "type": "Feature", "properties": { "cell_id": "722067_2079102", "DN": 3 }, "geometry": { "type": "Polygon", "coordinates": [ [ [ -96.893067001234584, 18.791762077560161 ], [ -96.893066888850754, 18.791771109305174 ], [ -96.893076371856736, 18.791771216340866 ], [ -96.893076484240069, 18.791762184595804 ], [ -96.893067001234584, 18.791762077560161 ] ] ] } },
{ "type": "Feature", "properties": { "cell_id": "722067_2079103", "DN": 3 }, "geometry": { "type": "Polygon", "coordinates": [ [ [ -96.893066888850754, 18.791771109305174 ], [ -96.893066776466853, 18.791780141050172 ], [ -96.893076259473347, 18.791780248085917 ], [ -96.893076371856736, 18.791771216340866 ], [ -96.893066888850754, 18.791771109305174 ] ] ] } },
{ "type": "Feature", "properties": { "cell_id": "722070_2079054", "DN": 3 }, "geometry": { "type": "Polygon", "coordinates": [ [ [ -96.893043946639921, 18.791328232686858 ], [ -96.893043834257654, 18.791337264432148 ], [ -96.893053317239207, 18.791337371466636 ], [ -96.893053429620963, 18.791328339721289 ], [ -96.893043946639921, 18.791328232686858 ] ] ] } },
{ "type": "Feature", "properties": { "cell_id": "722070_2079055", "DN": 3 }, "geometry": { "type": "Polygon", "coordinates": [ [ [ -96.893043834257654, 18.791337264432148 ], [ -96.893043721875301, 18.791346296177437 ], [ -96.893053204857381, 18.791346403211978 ], [ -96.893053317239207, 18.791337371466636 ], [ -96.893043834257654, 18.791337264432148 ] ] ] } },
{ "type": "Feature", "properties": { "cell_id": "722071_2079053", "DN": 3 }, "geometry": { "type": "Polygon", "coordinates": [ [ [ -96.893034576041643, 18.791319093906694 ], [ -96.893034463658935, 18.791328125651944 ], [ -96.893043946639921, 18.791328232686858 ], [ -96.893044059022131, 18.791319200941555 ], [ -96.893034576041643, 18.791319093906694 ] ] ] } },
{ "type": "Feature", "properties": { "cell_id": "722071_2079054", "DN": 3 }, "geometry": { "type": "Polygon", "coordinates": [ [ [ -96.893034463658935, 18.791328125651944 ], [ -96.893034351276143, 18.79133715739718 ], [ -96.893043834257654, 18.791337264432148 ], [ -96.893043946639921, 18.791328232686858 ], [ -96.893034463658935, 18.791328125651944 ] ] ] } },
{ "type": "Feature", "properties": { "cell_id": "722071_2079055", "DN": 3 }, "geometry": { "type": "Polygon", "coordinates": [ [ [ -96.893034351276143, 18.79133715739718 ], [ -96.893034238893307, 18.791346189142413 ], [ -96.893043721875301, 18.791346296177437 ], [ -96.893043834257654, 18.791337264432148 ], [ -96.893034351276143, 18.79133715739718 ] ] ] } },
{ "type": "Feature", "properties": { "cell_id": "722072_2079052", "DN": 3 }, "geometry": { "type": "Polygon", "coordinates": [ [ [ -96.893025205444388, 18.791309955126152 ], [ -96.893025093061226, 18.791318986871357 ], [ -96.893034576041643, 18.791319093906694 ], [ -96.893034688424294, 18.791310062161443 ], [ -96.893025205444388, 18.791309955126152 ] ] ] } },
{ "type": "Feature", "properties": { "cell_id": "722072_2079053", "DN": 3 }, "geometry": { "type": "Polygon", "coordinates": [ [ [ -96.893025093061226, 18.791318986871357 ], [ -96.893024980678007, 18.791328018616547 ], [ -96.893034463658935, 18.791328125651944 ], [ -96.893034576041643, 18.791319093906694 ], [ -96.893025093061226, 18.791318986871357 ] ] ] } },
{ "type": "Feature", "properties": { "cell_id": "722072_2079054", "DN": 3 }, "geometry": { "type": "Polygon", "coordinates": [ [ [ -96.893024980678007, 18.791328018616547 ], [ -96.893024868294731, 18.791337050361733 ], [ -96.893034351276143, 18.79133715739718 ], [ -96.893034463658935, 18.791328125651944 ], [ -96.893024980678007, 18.791328018616547 ] ] ] } },
{ "type": "Feature", "properties": { "cell_id": "722073_2079052", "DN": 3 }, "geometry": { "type": "Polygon", "coordinates": [ [ [ -96.893015722464526, 18.791309848090389 ], [ -96.89301561008088, 18.791318879835533 ], [ -96.893025093061226, 18.791318986871357 ], [ -96.893025205444388, 18.791309955126152 ], [ -96.893015722464526, 18.791309848090389 ] ] ] } },
{ "type": "Feature", "properties": { "cell_id": "722073_2079053", "DN": 3 }, "geometry": { "type": "Polygon", "coordinates": [ [ [ -96.89301561008088, 18.791318879835533 ], [ -96.893015497697149, 18.79132791158067 ], [ -96.893024980678007, 18.791328018616547 ], [ -96.893025093061226, 18.791318986871357 ], [ -96.89301561008088, 18.791318879835533 ] ] ] } },
{ "type": "Feature", "properties": { "cell_id": "722076_2079107", "DN": 3 }, "geometry": { "type": "Polygon", "coordinates": [ [ [ -96.892981092245606, 18.791806272940221 ], [ -96.892980979856915, 18.79181530468469 ], [ -96.892990462864844, 18.79181541172499 ], [ -96.892990575253037, 18.791806379980468 ], [ -96.892981092245606, 18.791806272940221 ] ] ] } },
{ "type": "Feature", "properties": { "cell_id": "722079_2079043", "DN": 3 }, "geometry": { "type": "Polygon", "coordinates": [ [ [ -96.892959836064094, 18.79122792016193 ], [ -96.892959723677976, 18.791236951906832 ], [ -96.892969206653405, 18.79123705894504 ], [ -96.892969319039025, 18.791228027200088 ], [ -96.892959836064094, 18.79122792016193 ] ] ] } },
{ "type": "Feature", "properties": { "cell_id": "722080_2079043", "DN": 3 }, "geometry": { "type": "Polygon", "coordinates": [ [ [ -96.892950353089248, 18.791227813123296 ], [ -96.892950240702618, 18.791236844868141 ], [ -96.892959723677976, 18.791236951906832 ], [ -96.892959836064094, 18.79122792016193 ], [ -96.892950353089248, 18.791227813123296 ] ] ] } },
{ "type": "Feature", "properties": { "cell_id": "722083_2079098", "DN": 3 }, "geometry": { "type": "Polygon", "coordinates": [ [ [ -96.892915722722606, 18.791724237947914 ], [ -96.892915610330959, 18.791733269692081 ], [ -96.892925093333901, 18.791733376735252 ], [ -96.892925205725049, 18.791724344991032 ], [ -96.892915722722606, 18.791724237947914 ] ] ] } },
{ "type": "Feature", "properties": { "cell_id": "722083_2079099", "DN": 3 }, "geometry": { "type": "Polygon", "coordinates": [ [ [ -96.892915610330959, 18.791733269692081 ], [ -96.892915497939228, 18.791742301436233 ], [ -96.892924980942681, 18.791742408479454 ], [ -96.892925093333901, 18.791733376735252 ], [ -96.892915610330959, 18.791733269692081 ] ] ] } },
{ "type": "Feature", "properties": { "cell_id": "722084_2079098", "DN": 3 }, "geometry": { "type": "Polygon", "coordinates": [ [ [ -96.892906239720247, 18.791724130904321 ], [ -96.892906127328075, 18.791733162648431 ], [ -96.892915610330959, 18.791733269692081 ], [ -96.892915722722606, 18.791724237947914 ], [ -96.892906239720247, 18.791724130904321 ] ] ] } },
{ "type": "Feature", "properties": { "cell_id": "722084_2079099", "DN": 3 }, "geometry": { "type": "Polygon", "coordinates": [ [ [ -96.892906127328075, 18.791733162648431 ], [ -96.892906014935846, 18.79174219439253 ], [ -96.892915497939228, 18.791742301436233 ], [ -96.892915610330959, 18.791733269692081 ], [ -96.892906127328075, 18.791733162648431 ] ] ] } },
{ "type": "Feature", "properties": { "cell_id": "722085_2079098", "DN": 3 }, "geometry": { "type": "Polygon", "coordinates": [ [ [ -96.892896756717931, 18.791724023860247 ], [ -96.892896644325276, 18.791733055604293 ], [ -96.892906127328075, 18.791733162648431 ], [ -96.892906239720247, 18.791724130904321 ], [ -96.892896756717931, 18.791724023860247 ] ] ] } },
{ "type": "Feature", "properties": { "cell_id": "722085_2079098", "DN": 1 }, "geometry": { "type": "Polygon", "coordinates": [ [ [ -96.892896756717931, 18.791724023860247 ], [ -96.892896644325276, 18.791733055604293 ], [ -96.892906127328075, 18.791733162648431 ], [ -96.892906239720247, 18.791724130904321 ], [ -96.892896756717931, 18.791724023860247 ] ] ] } },
{ "type": "Feature", "properties": { "cell_id": "722085_2079099", "DN": 3 }, "geometry": { "type": "Polygon", "coordinates": [ [ [ -96.892896644325276, 18.791733055604293 ], [ -96.892896531932536, 18.791742087348336 ], [ -96.892906014935846, 18.79174219439253 ], [ -96.892906127328075, 18.791733162648431 ], [ -96.892896644325276, 18.791733055604293 ] ] ] } },
{ "type": "Feature", "properties": { "cell_id": "722086_2079043", "DN": 3 }, "geometry": { "type": "Polygon", "coordinates": [ [ [ -96.892893455241435, 18.791227170881378 ], [ -96.892893342851778, 18.791236202625893 ], [ -96.892902825826766, 18.791236309667468 ], [ -96.892902938215897, 18.7912272779229 ], [ -96.892893455241435, 18.791227170881378 ] ] ] } },
{ "type": "Feature", "properties": { "cell_id": "722086_2079098", "DN": 3 }, "geometry": { "type": "Polygon", "coordinates": [ [ [ -96.892887273715687, 18.791723916815684 ], [ -96.89288716132252, 18.791732948559687 ], [ -96.892896644325276, 18.791733055604293 ], [ -96.892896756717931, 18.791724023860247 ], [ -96.892887273715687, 18.791723916815684 ] ] ] } },
{ "type": "Feature", "properties": { "cell_id": "722086_2079098", "DN": 1 }, "geometry": { "type": "Polygon", "coordinates": [ [ [ -96.892887273715687, 18.791723916815684 ], [ -96.89288716132252, 18.791732948559687 ], [ -96.892896644325276, 18.791733055604293 ], [ -96.892896756717931, 18.791724023860247 ], [ -96.892887273715687, 18.791723916815684 ] ] ] } },
{ "type": "Feature", "properties": { "cell_id": "722086_2079099", "DN": 3 }, "geometry": { "type": "Polygon", "coordinates": [ [ [ -96.89288716132252, 18.791732948559687 ], [ -96.892887048929296, 18.791741980303673 ], [ -96.892896531932536, 18.791742087348336 ], [ -96.892896644325276, 18.791733055604293 ], [ -96.89288716132252, 18.791732948559687 ] ] ] } },
{ "type": "Feature", "properties": { "cell_id": "722087_2079043", "DN": 3 }, "geometry": { "type": "Polygon", "coordinates": [ [ [ -96.892883972267015, 18.791227063839379 ], [ -96.892883859876861, 18.791236095583834 ], [ -96.892893342851778, 18.791236202625893 ], [ -96.892893455241435, 18.791227170881378 ], [ -96.892883972267015, 18.791227063839379 ] ] ] } },
{ "type": "Feature", "properties": { "cell_id": "722087_2079076", "DN": 1 }, "geometry": { "type": "Polygon", "coordinates": [ [ [ -96.892880263358165, 18.79152511140154 ], [ -96.892880150965894, 18.791534143145689 ], [ -96.892889633957481, 18.791534250189571 ], [ -96.89288974634924, 18.791525218445365 ], [ -96.892880263358165, 18.79152511140154 ] ] ] } },
{ "type": "Feature", "properties": { "cell_id": "722087_2079077", "DN": 1 }, "geometry": { "type": "Polygon", "coordinates": [ [ [ -96.892880150965894, 18.791534143145689 ], [ -96.892880038573566, 18.791543174889831 ], [ -96.89288952156565, 18.791543281933762 ], [ -96.892889633957481, 18.791534250189571 ], [ -96.892880150965894, 18.791534143145689 ] ] ] } },
{ "type": "Feature", "properties": { "cell_id": "722087_2079078", "DN": 1 }, "geometry": { "type": "Polygon", "coordinates": [ [ [ -96.892880038573566, 18.791543174889831 ], [ -96.89287992618118, 18.791552206633963 ], [ -96.892889409173762, 18.791552313677951 ], [ -96.89288952156565, 18.791543281933762 ], [ -96.892880038573566, 18.791543174889831 ] ] ] } },
{ "type": "Feature", "properties": { "cell_id": "722088_2079075", "DN": 1 }, "geometry": { "type": "Polygon", "coordinates": [ [ [ -96.892870892759873, 18.79151597261313 ], [ -96.892870780367161, 18.791525004357233 ], [ -96.892880263358165, 18.79152511140154 ], [ -96.892880375750366, 18.791516079657381 ], [ -96.892870892759873, 18.79151597261313 ] ] ] } },
{ "type": "Feature", "properties": { "cell_id": "722088_2079076", "DN": 1 }, "geometry": { "type": "Polygon", "coordinates": [ [ [ -96.892870780367161, 18.791525004357233 ], [ -96.892870667974378, 18.791534036101332 ], [ -96.892880150965894, 18.791534143145689 ], [ -96.892880263358165, 18.79152511140154 ], [ -96.892870780367161, 18.791525004357233 ] ] ] } },
{ "type": "Feature", "properties": { "cell_id": "722088_2079077", "DN": 1 }, "geometry": { "type": "Polygon", "coordinates": [ [ [ -96.892870667974378, 18.791534036101332 ], [ -96.892870555581553, 18.791543067845414 ], [ -96.892880038573566, 18.791543174889831 ], [ -96.892880150965894, 18.791534143145689 ], [ -96.892870667974378, 18.791534036101332 ] ] ] } },
{ "type": "Feature", "properties": { "cell_id": "722088_2079078", "DN": 1 }, "geometry": { "type": "Polygon", "coordinates": [ [ [ -96.892870555581553, 18.791543067845414 ], [ -96.892870443188642, 18.791552099589488 ], [ -96.89287992618118, 18.791552206633963 ], [ -96.892880038573566, 18.791543174889831 ], [ -96.892870555581553, 18.791543067845414 ] ] ] } },
{ "type": "Feature", "properties": { "cell_id": "722088_2079082", "DN": 1 }, "geometry": { "type": "Polygon", "coordinates": [ [ [ -96.892870106009568, 18.791579194821658 ], [ -96.892869993616415, 18.791588226565693 ], [ -96.892879476610958, 18.791588333610388 ], [ -96.892879589003599, 18.791579301866292 ], [ -96.892870106009568, 18.791579194821658 ] ] ] } },
{ "type": "Feature", "properties": { "cell_id": "722089_2079079", "DN": 1 }, "geometry": { "type": "Polygon", "coordinates": [ [ [ -96.892860960196188, 18.791551992544537 ], [ -96.892860847802723, 18.791561024288548 ], [ -96.892870330795688, 18.791561131333555 ], [ -96.892870443188642, 18.791552099589488 ], [ -96.892860960196188, 18.791551992544537 ] ] ] } },
{ "type": "Feature", "properties": { "cell_id": "722089_2079080", "DN": 1 }, "geometry": { "type": "Polygon", "coordinates": [ [ [ -96.892860847802723, 18.791561024288548 ], [ -96.892860735409187, 18.791570056032551 ], [ -96.892870218402663, 18.791570163077612 ], [ -96.892870330795688, 18.791561131333555 ], [ -96.892860847802723, 18.791561024288548 ] ] ] } },
{ "type": "Feature", "properties": { "cell_id": "722090_2079086", "DN": 1 }, "geometry": { "type": "Polygon", "coordinates": [ [ [ -96.892850690444646, 18.79161510770659 ], [ -96.892850578050215, 18.79162413945048 ], [ -96.892860061046648, 18.791624246496355 ], [ -96.892860173440567, 18.791615214752412 ], [ -96.892850690444646, 18.79161510770659 ] ] ] } },
{ "type": "Feature", "properties": { "cell_id": "722090_2079087", "DN": 1 }, "geometry": { "type": "Polygon", "coordinates": [ [ [ -96.892850578050215, 18.79162413945048 ], [ -96.892850465655741, 18.791633171194363 ], [ -96.892859948652671, 18.79163327824029 ], [ -96.892860061046648, 18.791624246496355 ], [ -96.892850578050215, 18.79162413945048 ] ] ] } },
{ "type": "Feature", "properties": { "cell_id": "722090_2079125", "DN": 3 }, "geometry": { "type": "Polygon", "coordinates": [ [ [ -96.892846307014736, 18.791967345711331 ], [ -96.892846194617817, 18.791976377454862 ], [ -96.892855677633932, 18.791976484502886 ], [ -96.892855790030353, 18.791967452759305 ], [ -96.892846307014736, 18.791967345711331 ] ] ] } },
{ "type": "Feature", "properties": { "cell_id": "722091_2079086", "DN": 1 }, "geometry": { "type": "Polygon", "coordinates": [ [ [ -96.892841207448782, 18.791615000660286 ], [ -96.892841095053839, 18.79162403240413 ], [ -96.892850578050215, 18.79162413945048 ], [ -96.892850690444646, 18.79161510770659 ], [ -96.892841207448782, 18.791615000660286 ] ] ] } },
{ "type": "Feature", "properties": { "cell_id": "722091_2079087", "DN": 1 }, "geometry": { "type": "Polygon", "coordinates": [ [ [ -96.892841095053839, 18.79162403240413 ], [ -96.892840982658853, 18.791633064147952 ], [ -96.892850465655741, 18.791633171194363 ], [ -96.892850578050215, 18.79162413945048 ], [ -96.892841095053839, 18.79162403240413 ] ] ] } },
{ "type": "Feature", "properties": { "cell_id": "722094_2079026", "DN": 3 }, "geometry": { "type": "Polygon", "coordinates": [ [ [ -96.89281950213082, 18.791072774881236 ], [ -96.892819389738222, 18.791081806625474 ], [ -96.892828872704101, 18.791081913669956 ], [ -96.892828985096202, 18.791072881925672 ], [ -96.89281950213082, 18.791072774881236 ] ] ] } },
{ "type": "Feature", "properties": { "cell_id": "722098_2079021", "DN": 3 }, "geometry": { "type": "Polygon", "coordinates": [ [ [ -96.892782132242061, 18.791027187978514 ], [ -96.892782019847772, 18.791036219722571 ], [ -96.892791502810866, 18.791036326768705 ], [ -96.892791615204658, 18.791027295024595 ], [ -96.892782132242061, 18.791027187978514 ] ] ] } },
{ "type": "Feature", "properties": { "cell_id": "722098_2079022", "DN": 3 }, "geometry": { "type": "Polygon", "coordinates": [ [ [ -96.892782019847772, 18.791036219722571 ], [ -96.892781907453411, 18.79104525146662 ], [ -96.892791390417017, 18.791045358512811 ], [ -96.892791502810866, 18.791036326768705 ], [ -96.892782019847772, 18.791036219722571 ] ] ] } },
{ "type": "Feature", "properties": { "cell_id": "722098_2079023", "DN": 3 }, "geometry": { "type": "Polygon", "coordinates": [ [ [ -96.892781907453411, 18.79104525146662 ], [ -96.89278179505898, 18.791054283210656 ], [ -96.892791278023097, 18.791054390256903 ], [ -96.892791390417017, 18.791045358512811 ], [ -96.892781907453411, 18.79104525146662 ] ] ] } },
{ "type": "Feature", "properties": { "cell_id": "722099_2079021", "DN": 3 }, "geometry": { "type": "Polygon", "coordinates": [ [ [ -96.892772649279536, 18.791027080931958 ], [ -96.892772536884721, 18.791036112675954 ], [ -96.892782019847772, 18.791036219722571 ], [ -96.892782132242061, 18.791027187978514 ], [ -96.892772649279536, 18.791027080931958 ] ] ] } },
{ "type": "Feature", "properties": { "cell_id": "722099_2079022", "DN": 3 }, "geometry": { "type": "Polygon", "coordinates": [ [ [ -96.892772536884721, 18.791036112675954 ], [ -96.892772424489863, 18.79104514441995 ], [ -96.892781907453411, 18.79104525146662 ], [ -96.892782019847772, 18.791036219722571 ], [ -96.892772536884721, 18.791036112675954 ] ] ] } },
{ "type": "Feature", "properties": { "cell_id": "722099_2079023", "DN": 3 }, "geometry": { "type": "Polygon", "coordinates": [ [ [ -96.892772424489863, 18.79104514441995 ], [ -96.892772312094934, 18.791054176163929 ], [ -96.89278179505898, 18.791054283210656 ], [ -96.892781907453411, 18.79104525146662 ], [ -96.892772424489863, 18.79104514441995 ] ] ] } },
{ "type": "Feature", "properties": { "cell_id": "722109_2079092", "DN": 3 }, "geometry": { "type": "Polygon", "coordinates": [ [ [ -96.892669839109118, 18.791667264201557 ], [ -96.89266972670471, 18.791676295944338 ], [ -96.892679209702962, 18.791676402999677 ], [ -96.892679322106858, 18.791667371256843 ], [ -96.892669839109118, 18.791667264201557 ] ] ] } },
{ "type": "Feature", "properties": { "cell_id": "722109_2079094", "DN": 1 }, "geometry": { "type": "Polygon", "coordinates": [ [ [ -96.89266961430026, 18.791685327687116 ], [ -96.892669501895725, 18.791694359429886 ], [ -96.892678984894985, 18.791694466485335 ], [ -96.892679097299009, 18.791685434742512 ], [ -96.89266961430026, 18.791685327687116 ] ] ] } },
{ "type": "Feature", "properties": { "cell_id": "722109_2079095", "DN": 1 }, "geometry": { "type": "Polygon", "coordinates": [ [ [ -96.892669501895725, 18.791694359429886 ], [ -96.892669389491132, 18.791703391172639 ], [ -96.89267887249089, 18.791703498228152 ], [ -96.892678984894985, 18.791694466485335 ], [ -96.892669501895725, 18.791694359429886 ] ] ] } },
{ "type": "Feature", "properties": { "cell_id": "722111_2079019", "DN": 3 }, "geometry": { "type": "Polygon", "coordinates": [ [ [ -96.892659078535658, 18.791007732849021 ], [ -96.892658966134917, 18.791016764592381 ], [ -96.892668449096178, 18.791016871644654 ], [ -96.892668561496407, 18.791007839901244 ], [ -96.892659078535658, 18.791007732849021 ] ] ] } },
{ "type": "Feature", "properties": { "cell_id": "722111_2079020", "DN": 3 }, "geometry": { "type": "Polygon", "coordinates": [ [ [ -96.892658966134917, 18.791016764592381 ], [ -96.892658853734119, 18.791025796335727 ], [ -96.892668336695891, 18.791025903388057 ], [ -96.892668449096178, 18.791016871644654 ], [ -96.892658966134917, 18.791016764592381 ] ] ] } },
{ "type": "Feature", "properties": { "cell_id": "722112_2079019", "DN": 3 }, "geometry": { "type": "Polygon", "coordinates": [ [ [ -96.892649595574966, 18.791007625796318 ], [ -96.892649483173713, 18.791016657539625 ], [ -96.892658966134917, 18.791016764592381 ], [ -96.892659078535658, 18.791007732849021 ], [ -96.892649595574966, 18.791007625796318 ] ] ] } },
{ "type": "Feature", "properties": { "cell_id": "722112_2079020", "DN": 3 }, "geometry": { "type": "Polygon", "coordinates": [ [ [ -96.892649483173713, 18.791016657539625 ], [ -96.892649370772418, 18.791025689282915 ], [ -96.892658853734119, 18.791025796335727 ], [ -96.892658966134917, 18.791016764592381 ], [ -96.892649483173713, 18.791016657539625 ] ] ] } },
{ "type": "Feature", "properties": { "cell_id": "722113_2079019", "DN": 3 }, "geometry": { "type": "Polygon", "coordinates": [ [ [ -96.89264011261433, 18.79100751874314 ], [ -96.89264000021258, 18.791016550486386 ], [ -96.892649483173713, 18.791016657539625 ], [ -96.892649595574966, 18.791007625796318 ], [ -96.89264011261433, 18.79100751874314 ] ] ] } },
{ "type": "Feature", "properties": { "cell_id": "722113_2079020", "DN": 3 }, "geometry": { "type": "Polygon", "coordinates": [ [ [ -96.89264000021258, 18.791016550486386 ], [ -96.892639887810773, 18.791025582229622 ], [ -96.892649370772418, 18.791025689282915 ], [ -96.892649483173713, 18.791016657539625 ], [ -96.89264000021258, 18.791016550486386 ] ] ] } },
{ "type": "Feature", "properties": { "cell_id": "722114_2079019", "DN": 3 }, "geometry": { "type": "Polygon", "coordinates": [ [ [ -96.892630629653766, 18.791007411689474 ], [ -96.892630517251519, 18.791016443432667 ], [ -96.89264000021258, 18.791016550486386 ], [ -96.89264011261433, 18.79100751874314 ], [ -96.892630629653766, 18.791007411689474 ] ] ] } },
{ "type": "Feature", "properties": { "cell_id": "722114_2079020", "DN": 3 }, "geometry": { "type": "Polygon", "coordinates": [ [ [ -96.892630517251519, 18.791016443432667 ], [ -96.892630404849214, 18.79102547517585 ], [ -96.892639887810773, 18.791025582229622 ], [ -96.89264000021258, 18.791016550486386 ], [ -96.892630517251519, 18.791016443432667 ] ] ] } },
{ "type": "Feature", "properties": { "cell_id": "722117_2079103", "DN": 1 }, "geometry": { "type": "Polygon", "coordinates": [ [ [ -96.892592738633141, 18.791765756907193 ], [ -96.892592626224001, 18.79177478864943 ], [ -96.892602109227283, 18.791774895709239 ], [ -96.892602221635926, 18.791765863966933 ], [ -96.892592738633141, 18.791765756907193 ] ] ] } },
{ "type": "Feature", "properties": { "cell_id": "722117_2079103", "DN": 3 }, "geometry": { "type": "Polygon", "coordinates": [ [ [ -96.892592738633141, 18.791765756907193 ], [ -96.892592626224001, 18.79177478864943 ], [ -96.892602109227283, 18.791774895709239 ], [ -96.892602221635926, 18.791765863966933 ], [ -96.892592738633141, 18.791765756907193 ] ] ] } },
{ "type": "Feature", "properties": { "cell_id": "722117_2079104", "DN": 3 }, "geometry": { "type": "Polygon", "coordinates": [ [ [ -96.892592626224001, 18.79177478864943 ], [ -96.89259251381479, 18.791783820391665 ], [ -96.892601996818584, 18.791783927451519 ], [ -96.892602109227283, 18.791774895709239 ], [ -96.892592626224001, 18.79177478864943 ] ] ] } },
{ "type": "Feature", "properties": { "cell_id": "722117_2079105", "DN": 3 }, "geometry": { "type": "Polygon", "coordinates": [ [ [ -96.89259251381479, 18.791783820391665 ], [ -96.892592401405508, 18.791792852133884 ], [ -96.892601884409814, 18.791792959193792 ], [ -96.892601996818584, 18.791783927451519 ], [ -96.89259251381479, 18.791783820391665 ] ] ] } },
{ "type": "Feature", "properties": { "cell_id": "722117_2079106", "DN": 3 }, "geometry": { "type": "Polygon", "coordinates": [ [ [ -96.892592401405508, 18.791792852133884 ], [ -96.892592288996184, 18.791801883876097 ], [ -96.892601772000987, 18.791801990936058 ], [ -96.892601884409814, 18.791792959193792 ], [ -96.892592401405508, 18.791792852133884 ] ] ] } },
{ "type": "Feature", "properties": { "cell_id": "722118_2079103", "DN": 1 }, "geometry": { "type": "Polygon", "coordinates": [ [ [ -96.892583255630427, 18.791765649846969 ], [ -96.892583143220776, 18.79177468158915 ], [ -96.892592626224001, 18.79177478864943 ], [ -96.892592738633141, 18.791765756907193 ], [ -96.892583255630427, 18.791765649846969 ] ] ] } },
{ "type": "Feature", "properties": { "cell_id": "722118_2079103", "DN": 3 }, "geometry": { "type": "Polygon", "coordinates": [ [ [ -96.892583255630427, 18.791765649846969 ], [ -96.892583143220776, 18.79177468158915 ], [ -96.892592626224001, 18.79177478864943 ], [ -96.892592738633141, 18.791765756907193 ], [ -96.892583255630427, 18.791765649846969 ] ] ] } },
{ "type": "Feature", "properties": { "cell_id": "722118_2079104", "DN": 3 }, "geometry": { "type": "Polygon", "coordinates": [ [ [ -96.892583143220776, 18.79177468158915 ], [ -96.892583030811068, 18.791783713331323 ], [ -96.89259251381479, 18.791783820391665 ], [ -96.892592626224001, 18.79177478864943 ], [ -96.892583143220776, 18.79177468158915 ] ] ] } },
{ "type": "Feature", "properties": { "cell_id": "722118_2079105", "DN": 3 }, "geometry": { "type": "Polygon", "coordinates": [ [ [ -96.892583030811068, 18.791783713331323 ], [ -96.892582918401288, 18.791792745073497 ], [ -96.892592401405508, 18.791792852133884 ], [ -96.89259251381479, 18.791783820391665 ], [ -96.892583030811068, 18.791783713331323 ] ] ] } },
{ "type": "Feature", "properties": { "cell_id": "722118_2079106", "DN": 3 }, "geometry": { "type": "Polygon", "coordinates": [ [ [ -96.892582918401288, 18.791792745073497 ], [ -96.892582805991438, 18.791801776815653 ], [ -96.892592288996184, 18.791801883876097 ], [ -96.892592401405508, 18.791792852133884 ], [ -96.892582918401288, 18.791792745073497 ] ] ] } },
{ "type": "Feature", "properties": { "cell_id": "722119_2079106", "DN": 3 }, "geometry": { "type": "Polygon", "coordinates": [ [ [ -96.892573435397125, 18.791792638012627 ], [ -96.892573322986777, 18.791801669754722 ], [ -96.892582805991438, 18.791801776815653 ], [ -96.892582918401288, 18.791792745073497 ], [ -96.892573435397125, 18.791792638012627 ] ] ] } },
{ "type": "Feature", "properties": { "cell_id": "722120_2079106", "DN": 3 }, "geometry": { "type": "Polygon", "coordinates": [ [ [ -96.892563952393019, 18.791792530951273 ], [ -96.892563839982159, 18.791801562693315 ], [ -96.892573322986777, 18.791801669754722 ], [ -96.892573435397125, 18.791792638012627 ], [ -96.892563952393019, 18.791792530951273 ] ] ] } },
{ "type": "Feature", "properties": { "cell_id": "722120_2079107", "DN": 3 }, "geometry": { "type": "Polygon", "coordinates": [ [ [ -96.892563839982159, 18.791801562693315 ], [ -96.892563727571243, 18.791810594435351 ], [ -96.892573210576359, 18.791810701496814 ], [ -96.892573322986777, 18.791801669754722 ], [ -96.892563839982159, 18.791801562693315 ] ] ] } },
{ "type": "Feature", "properties": { "cell_id": "722120_2079108", "DN": 3 }, "geometry": { "type": "Polygon", "coordinates": [ [ [ -96.892563727571243, 18.791810594435351 ], [ -96.89256361516027, 18.791819626177382 ], [ -96.892573098165883, 18.791819733238899 ], [ -96.892573210576359, 18.791810701496814 ], [ -96.892563727571243, 18.791810594435351 ] ] ] } },
{ "type": "Feature", "properties": { "cell_id": "722120_2079109", "DN": 3 }, "geometry": { "type": "Polygon", "coordinates": [ [ [ -96.89256361516027, 18.791819626177382 ], [ -96.89256350274924, 18.7918286579194 ], [ -96.892572985755351, 18.791828764980973 ], [ -96.892573098165883, 18.791819733238899 ], [ -96.89256361516027, 18.791819626177382 ] ] ] } },
{ "type": "Feature", "properties": { "cell_id": "722121_2079017", "DN": 1 }, "geometry": { "type": "Polygon", "coordinates": [ [ [ -96.892564473742979, 18.790988598814724 ], [ -96.892564361337335, 18.790997630557552 ], [ -96.892573844296948, 18.790997737614525 ], [ -96.892573956702094, 18.790988705871641 ], [ -96.892564473742979, 18.790988598814724 ] ] ] } },
{ "type": "Feature", "properties": { "cell_id": "722121_2079106", "DN": 3 }, "geometry": { "type": "Polygon", "coordinates": [ [ [ -96.892554469388969, 18.79179242388944 ], [ -96.892554356977627, 18.791801455631433 ], [ -96.892563839982159, 18.791801562693315 ], [ -96.892563952393019, 18.791792530951273 ], [ -96.892554469388969, 18.79179242388944 ] ] ] } },
{ "type": "Feature", "properties": { "cell_id": "722121_2079107", "DN": 3 }, "geometry": { "type": "Polygon", "coordinates": [ [ [ -96.892554356977627, 18.791801455631433 ], [ -96.892554244566199, 18.791810487373411 ], [ -96.892563727571243, 18.791810594435351 ], [ -96.892563839982159, 18.791801562693315 ], [ -96.892554356977627, 18.791801455631433 ] ] ] } },
{ "type": "Feature", "properties": { "cell_id": "722121_2079108", "DN": 3 }, "geometry": { "type": "Polygon", "coordinates": [ [ [ -96.892554244566199, 18.791810487373411 ], [ -96.892554132154714, 18.791819519115379 ], [ -96.89256361516027, 18.791819626177382 ], [ -96.892563727571243, 18.791810594435351 ], [ -96.892554244566199, 18.791810487373411 ] ] ] } },
{ "type": "Feature", "properties": { "cell_id": "722126_2079120", "DN": 3 }, "geometry": { "type": "Polygon", "coordinates": [ [ [ -96.892505480569582, 18.791918332956222 ], [ -96.892505368154815, 18.791927364697802 ], [ -96.892514851166098, 18.791927471762868 ], [ -96.892514963580368, 18.791918440021227 ], [ -96.892505480569582, 18.791918332956222 ] ] ] } },
{ "type": "Feature", "properties": { "cell_id": "722126_2079121", "DN": 3 }, "geometry": { "type": "Polygon", "coordinates": [ [ [ -96.892505368154815, 18.791927364697802 ], [ -96.892505255739962, 18.791936396439375 ], [ -96.892514738751771, 18.791936503504498 ], [ -96.892514851166098, 18.791927471762868 ], [ -96.892505368154815, 18.791927364697802 ] ] ] } },
{ "type": "Feature", "properties": { "cell_id": "722127_2078989", "DN": 3 }, "geometry": { "type": "Polygon", "coordinates": [ [ [ -96.892510723406815, 18.790735067669477 ], [ -96.892510610999921, 18.790744099412233 ], [ -96.892520093945009, 18.790744206470542 ], [ -96.892520206351392, 18.790735174727732 ], [ -96.892510723406815, 18.790735067669477 ] ] ] } },
{ "type": "Feature", "properties": { "cell_id": "722127_2079120", "DN": 3 }, "geometry": { "type": "Polygon", "coordinates": [ [ [ -96.892495997558868, 18.791918225890726 ], [ -96.892495885143575, 18.791927257632253 ], [ -96.892505368154815, 18.791927364697802 ], [ -96.892505480569582, 18.791918332956222 ], [ -96.892495997558868, 18.791918225890726 ] ] ] } },
{ "type": "Feature", "properties": { "cell_id": "722127_2079121", "DN": 3 }, "geometry": { "type": "Polygon", "coordinates": [ [ [ -96.892495885143575, 18.791927257632253 ], [ -96.892495772728239, 18.791936289373773 ], [ -96.892505255739962, 18.791936396439375 ], [ -96.892505368154815, 18.791927364697802 ], [ -96.892495885143575, 18.791927257632253 ] ] ] } },
{ "type": "Feature", "properties": { "cell_id": "722128_2079095", "DN": 3 }, "geometry": { "type": "Polygon", "coordinates": [ [ [ -96.892489324922025, 18.791692325284885 ], [ -96.89248921250784, 18.791701357026589 ], [ -96.89249869550639, 18.791701464091236 ], [ -96.892498807920063, 18.791692432349478 ], [ -96.892489324922025, 18.791692325284885 ] ] ] } },
{ "type": "Feature", "properties": { "cell_id": "722128_2079096", "DN": 3 }, "geometry": { "type": "Polygon", "coordinates": [ [ [ -96.89248921250784, 18.791701357026589 ], [ -96.892489100093599, 18.791710388768287 ], [ -96.892498583092646, 18.791710495832991 ], [ -96.89249869550639, 18.791701464091236 ], [ -96.89248921250784, 18.791701357026589 ] ] ] } },
{ "type": "Feature", "properties": { "cell_id": "722128_2079097", "DN": 3 }, "geometry": { "type": "Polygon", "coordinates": [ [ [ -96.892489100093599, 18.791710388768287 ], [ -96.892488987679286, 18.791719420509974 ], [ -96.892498470678831, 18.791719527574731 ], [ -96.892498583092646, 18.791710495832991 ], [ -96.892489100093599, 18.791710388768287 ] ] ] } },
{ "type": "Feature", "properties": { "cell_id": "722129_2078986", "DN": 1 }, "geometry": { "type": "Polygon", "coordinates": [ [ [ -96.892492094741144, 18.790707758323521 ], [ -96.892491982333439, 18.790716790066195 ], [ -96.892501465276894, 18.790716897125304 ], [ -96.892501577684087, 18.790707865382579 ], [ -96.892492094741144, 18.790707758323521 ] ] ] } },
{ "type": "Feature", "properties": { "cell_id": "722129_2078987", "DN": 1 }, "geometry": { "type": "Polygon", "coordinates": [ [ [ -96.892491982333439, 18.790716790066195 ], [ -96.892491869925664, 18.790725821808859 ], [ -96.892501352869616, 18.790725928868024 ], [ -96.892501465276894, 18.790716897125304 ], [ -96.892491982333439, 18.790716790066195 ] ] ] } },
{ "type": "Feature", "properties": { "cell_id": "722129_2079095", "DN": 3 }, "geometry": { "type": "Polygon", "coordinates": [ [ [ -96.892479841924057, 18.791692218219808 ], [ -96.892479729509361, 18.791701249961463 ], [ -96.89248921250784, 18.791701357026589 ], [ -96.892489324922025, 18.791692325284885 ], [ -96.892479841924057, 18.791692218219808 ] ] ] } },
{ "type": "Feature", "properties": { "cell_id": "722129_2079096", "DN": 3 }, "geometry": { "type": "Polygon", "coordinates": [ [ [ -96.892479729509361, 18.791701249961463 ], [ -96.892479617094608, 18.791710281703104 ], [ -96.892489100093599, 18.791710388768287 ], [ -96.89248921250784, 18.791701357026589 ], [ -96.892479729509361, 18.791701249961463 ] ] ] } },
{ "type": "Feature", "properties": { "cell_id": "722130_2078987", "DN": 1 }, "geometry": { "type": "Polygon", "coordinates": [ [ [ -96.892482499390056, 18.790716683006604 ], [ -96.892482386981769, 18.790725714749215 ], [ -96.892491869925664, 18.790725821808859 ], [ -96.892491982333439, 18.790716790066195 ], [ -96.892482499390056, 18.790716683006604 ] ] ] } },
{ "type": "Feature", "properties": { "cell_id": "722131_2079037", "DN": 3 }, "geometry": { "type": "Polygon", "coordinates": [ [ [ -96.892467395929245, 18.791168163062757 ], [ -96.892467283517249, 18.791177194804838 ], [ -96.892476766486325, 18.79117730186773 ], [ -96.892476878897796, 18.791168270125592 ], [ -96.892467395929245, 18.791168163062757 ] ] ] } },
{ "type": "Feature", "properties": { "cell_id": "722131_2079038", "DN": 3 }, "geometry": { "type": "Polygon", "coordinates": [ [ [ -96.892467283517249, 18.791177194804838 ], [ -96.89246717110521, 18.79118622654692 ], [ -96.892476654074784, 18.791186333609858 ], [ -96.892476766486325, 18.79117730186773 ], [ -96.892467283517249, 18.791177194804838 ] ] ] } },
{ "type": "Feature", "properties": { "cell_id": "722132_2079037", "DN": 3 }, "geometry": { "type": "Polygon", "coordinates": [ [ [ -96.892457912960737, 18.791168055999442 ], [ -96.892457800548257, 18.791177087741474 ], [ -96.892467283517249, 18.791177194804838 ], [ -96.892467395929245, 18.791168163062757 ], [ -96.892457912960737, 18.791168055999442 ] ] ] } },
{ "type": "Feature", "properties": { "cell_id": "722132_2079038", "DN": 3 }, "geometry": { "type": "Polygon", "coordinates": [ [ [ -96.892457800548257, 18.791177087741474 ], [ -96.892457688135707, 18.791186119483491 ], [ -96.89246717110521, 18.79118622654692 ], [ -96.892467283517249, 18.791177194804838 ], [ -96.892457800548257, 18.791177087741474 ] ] ] } },
{ "type": "Feature", "properties": { "cell_id": "722132_2079039", "DN": 3 }, "geometry": { "type": "Polygon", "coordinates": [ [ [ -96.892457688135707, 18.791186119483491 ], [ -96.892457575723085, 18.791195151225505 ], [ -96.8924670586931, 18.791195258288983 ], [ -96.89246717110521, 18.79118622654692 ], [ -96.892457688135707, 18.791186119483491 ] ] ] } },
{ "type": "Feature", "properties": { "cell_id": "722132_2079040", "DN": 3 }, "geometry": { "type": "Polygon", "coordinates": [ [ [ -96.892457575723085, 18.791195151225505 ], [ -96.892457463310407, 18.791204182967505 ], [ -96.892466946280933, 18.791204290031043 ], [ -96.8924670586931, 18.791195258288983 ], [ -96.892457575723085, 18.791195151225505 ] ] ] } },
{ "type": "Feature", "properties": { "cell_id": "722133_2079038", "DN": 3 }, "geometry": { "type": "Polygon", "coordinates": [ [ [ -96.892448317579309, 18.791176980677623 ], [ -96.892448205166261, 18.79118601241959 ], [ -96.892457688135707, 18.791186119483491 ], [ -96.892457800548257, 18.791177087741474 ], [ -96.892448317579309, 18.791176980677623 ] ] ] } },
{ "type": "Feature", "properties": { "cell_id": "722133_2079039", "DN": 3 }, "geometry": { "type": "Polygon", "coordinates": [ [ [ -96.892448205166261, 18.79118601241959 ], [ -96.892448092753128, 18.791195044161547 ], [ -96.892457575723085, 18.791195151225505 ], [ -96.892457688135707, 18.791186119483491 ], [ -96.892448205166261, 18.79118601241959 ] ] ] } },
{ "type": "Feature", "properties": { "cell_id": "722137_2078977", "DN": 3 }, "geometry": { "type": "Polygon", "coordinates": [ [ [ -96.892417242902752, 18.790625616153253 ], [ -96.89241713049158, 18.790634647895569 ], [ -96.892426613429961, 18.790634754958027 ], [ -96.892426725840636, 18.790625723215658 ], [ -96.892417242902752, 18.790625616153253 ] ] ] } },
{ "type": "Feature", "properties": { "cell_id": "722137_2078978", "DN": 3 }, "geometry": { "type": "Polygon", "coordinates": [ [ [ -96.89241713049158, 18.790634647895569 ], [ -96.892417018080337, 18.790643679637874 ], [ -96.89242650101923, 18.790643786700393 ], [ -96.892426613429961, 18.790634754958027 ], [ -96.89241713049158, 18.790634647895569 ] ] ] } },
{ "type": "Feature", "properties": { "cell_id": "722137_2078979", "DN": 3 }, "geometry": { "type": "Polygon", "coordinates": [ [ [ -96.892417018080337, 18.790643679637874 ], [ -96.892416905669037, 18.790652711380172 ], [ -96.892426388608442, 18.790652818442741 ], [ -96.89242650101923, 18.790643786700393 ], [ -96.892417018080337, 18.790643679637874 ] ] ] } },
{ "type": "Feature", "properties": { "cell_id": "722138_2078977", "DN": 3 }, "geometry": { "type": "Polygon", "coordinates": [ [ [ -96.892407759964925, 18.790625509090361 ], [ -96.892407647553256, 18.790634540832624 ], [ -96.89241713049158, 18.790634647895569 ], [ -96.892417242902752, 18.790625616153253 ], [ -96.892407759964925, 18.790625509090361 ] ] ] } },
{ "type": "Feature", "properties": { "cell_id": "722138_2078978", "DN": 3 }, "geometry": { "type": "Polygon", "coordinates": [ [ [ -96.892407647553256, 18.790634540832624 ], [ -96.892407535141515, 18.790643572574876 ], [ -96.892417018080337, 18.790643679637874 ], [ -96.89241713049158, 18.790634647895569 ], [ -96.892407647553256, 18.790634540832624 ] ] ] } },
{ "type": "Feature", "properties": { "cell_id": "722138_2078979", "DN": 3 }, "geometry": { "type": "Polygon", "coordinates": [ [ [ -96.892407535141515, 18.790643572574876 ], [ -96.892407422729704, 18.79065260431712 ], [ -96.892416905669037, 18.790652711380172 ], [ -96.892417018080337, 18.790643679637874 ], [ -96.892407535141515, 18.790643572574876 ] ] ] } },
{ "type": "Feature", "properties": { "cell_id": "722138_2078987", "DN": 3 }, "geometry": { "type": "Polygon", "coordinates": [ [ [ -96.89240663584529, 18.790715826512557 ], [ -96.892406523432996, 18.790724858254727 ], [ -96.892416006376365, 18.790724965318219 ], [ -96.892416118788177, 18.790715933575996 ], [ -96.89240663584529, 18.790715826512557 ] ] ] } },
{ "type": "Feature", "properties": { "cell_id": "722138_2078988", "DN": 3 }, "geometry": { "type": "Polygon", "coordinates": [ [ [ -96.892406523432996, 18.790724858254727 ], [ -96.892406411020616, 18.790733889996883 ], [ -96.892415893964497, 18.790733997060432 ], [ -96.892416006376365, 18.790724965318219 ], [ -96.892406523432996, 18.790724858254727 ] ] ] } },
{ "type": "Feature", "properties": { "cell_id": "722138_2078989", "DN": 3 }, "geometry": { "type": "Polygon", "coordinates": [ [ [ -96.892406411020616, 18.790733889996883 ], [ -96.892406298608165, 18.790742921739035 ], [ -96.892415781552543, 18.790743028802634 ], [ -96.892415893964497, 18.790733997060432 ], [ -96.892406411020616, 18.790733889996883 ] ] ] } },
{ "type": "Feature", "properties": { "cell_id": "722139_2078987", "DN": 3 }, "geometry": { "type": "Polygon", "coordinates": [ [ [ -96.892397152902504, 18.790715719448638 ], [ -96.892397040489669, 18.790724751190751 ], [ -96.892406523432996, 18.790724858254727 ], [ -96.89240663584529, 18.790715826512557 ], [ -96.892397152902504, 18.790715719448638 ] ] ] } },
{ "type": "Feature", "properties": { "cell_id": "722139_2078988", "DN": 3 }, "geometry": { "type": "Polygon", "coordinates": [ [ [ -96.892397040489669, 18.790724751190751 ], [ -96.892396928076792, 18.790733782932854 ], [ -96.892406411020616, 18.790733889996883 ], [ -96.892406523432996, 18.790724858254727 ], [ -96.892397040489669, 18.790724751190751 ] ] ] } },
{ "type": "Feature", "properties": { "cell_id": "722139_2078989", "DN": 3 }, "geometry": { "type": "Polygon", "coordinates": [ [ [ -96.892396928076792, 18.790733782932854 ], [ -96.892396815663844, 18.790742814674946 ], [ -96.892406298608165, 18.790742921739035 ], [ -96.892406411020616, 18.790733889996883 ], [ -96.892396928076792, 18.790733782932854 ] ] ] } },
{ "type": "Feature", "properties": { "cell_id": "722141_2079084", "DN": 3 }, "geometry": { "type": "Polygon", "coordinates": [ [ [ -96.892367282577354, 18.791591584249918 ], [ -96.892367170157314, 18.791600615991012 ], [ -96.892376653149469, 18.7916007230613 ], [ -96.892376765569011, 18.791591691320154 ], [ -96.892367282577354, 18.791591584249918 ] ] ] } },
{ "type": "Feature", "properties": { "cell_id": "722141_2079085", "DN": 3 }, "geometry": { "type": "Polygon", "coordinates": [ [ [ -96.892367170157314, 18.791600615991012 ], [ -96.892367057737204, 18.791609647732091 ], [ -96.89237654072987, 18.791609754802437 ], [ -96.892376653149469, 18.7916007230613 ], [ -96.892367170157314, 18.791600615991012 ] ] ] } },
{ "type": "Feature", "properties": { "cell_id": "722142_2078991", "DN": 3 }, "geometry": { "type": "Polygon", "coordinates": [ [ [ -96.892368254416752, 18.790751525221726 ], [ -96.892368142002155, 18.790760556963633 ], [ -96.892377624947287, 18.790760664029275 ], [ -96.892377737361372, 18.790751632287307 ], [ -96.892368254416752, 18.790751525221726 ] ] ] } },
{ "type": "Feature", "properties": { "cell_id": "722142_2078992", "DN": 3 }, "geometry": { "type": "Polygon", "coordinates": [ [ [ -96.892368142002155, 18.790760556963633 ], [ -96.892368029587502, 18.790769588705533 ], [ -96.892377512533145, 18.790769695771225 ], [ -96.892377624947287, 18.790760664029275 ], [ -96.892368142002155, 18.790760556963633 ] ] ] } },
{ "type": "Feature", "properties": { "cell_id": "722142_2078993", "DN": 3 }, "geometry": { "type": "Polygon", "coordinates": [ [ [ -96.892368029587502, 18.790769588705533 ], [ -96.892367917172777, 18.790778620447426 ], [ -96.892377400118932, 18.790778727513171 ], [ -96.892377512533145, 18.790769695771225 ], [ -96.892368029587502, 18.790769588705533 ] ] ] } },
{ "type": "Feature", "properties": { "cell_id": "722142_2078994", "DN": 3 }, "geometry": { "type": "Polygon", "coordinates": [ [ [ -96.892367917172777, 18.790778620447426 ], [ -96.89236780475801, 18.790787652189305 ], [ -96.892377287704647, 18.790787759255107 ], [ -96.892377400118932, 18.790778727513171 ], [ -96.892367917172777, 18.790778620447426 ] ] ] } },
{ "type": "Feature", "properties": { "cell_id": "722142_2078995", "DN": 3 }, "geometry": { "type": "Polygon", "coordinates": [ [ [ -96.89236780475801, 18.790787652189305 ], [ -96.892367692343157, 18.790796683931177 ], [ -96.892377175290306, 18.790796790997035 ], [ -96.892377287704647, 18.790787759255107 ], [ -96.89236780475801, 18.790787652189305 ] ] ] } },
{ "type": "Feature", "properties": { "cell_id": "722142_2079084", "DN": 3 }, "geometry": { "type": "Polygon", "coordinates": [ [ [ -96.892357799585767, 18.791591477179203 ], [ -96.89235768716523, 18.791600508920236 ], [ -96.892367170157314, 18.791600615991012 ], [ -96.892367282577354, 18.791591584249918 ], [ -96.892357799585767, 18.791591477179203 ] ] ] } },
{ "type": "Feature", "properties": { "cell_id": "722143_2078991", "DN": 3 }, "geometry": { "type": "Polygon", "coordinates": [ [ [ -96.892358771472175, 18.790751418155661 ], [ -96.892358659057081, 18.790760449897515 ], [ -96.892368142002155, 18.790760556963633 ], [ -96.892368254416752, 18.790751525221726 ], [ -96.892358771472175, 18.790751418155661 ] ] ] } },
{ "type": "Feature", "properties": { "cell_id": "722143_2078992", "DN": 3 }, "geometry": { "type": "Polygon", "coordinates": [ [ [ -96.892358659057081, 18.790760449897515 ], [ -96.892358546641915, 18.790769481639362 ], [ -96.892368029587502, 18.790769588705533 ], [ -96.892368142002155, 18.790760556963633 ], [ -96.892358659057081, 18.790760449897515 ] ] ] } },
{ "type": "Feature", "properties": { "cell_id": "722143_2078993", "DN": 3 }, "geometry": { "type": "Polygon", "coordinates": [ [ [ -96.892358546641915, 18.790769481639362 ], [ -96.892358434226693, 18.790778513381191 ], [ -96.892367917172777, 18.790778620447426 ], [ -96.892368029587502, 18.790769588705533 ], [ -96.892358546641915, 18.790769481639362 ] ] ] } },
{ "type": "Feature", "properties": { "cell_id": "722143_2078994", "DN": 3 }, "geometry": { "type": "Polygon", "coordinates": [ [ [ -96.892358434226693, 18.790778513381191 ], [ -96.892358321811415, 18.79078754512302 ], [ -96.89236780475801, 18.790787652189305 ], [ -96.892367917172777, 18.790778620447426 ], [ -96.892358434226693, 18.790778513381191 ] ] ] } },
{ "type": "Feature", "properties": { "cell_id": "722143_2078995", "DN": 3 }, "geometry": { "type": "Polygon", "coordinates": [ [ [ -96.892358321811415, 18.79078754512302 ], [ -96.89235820939605, 18.790796576864835 ], [ -96.892367692343157, 18.790796683931177 ], [ -96.89236780475801, 18.790787652189305 ], [ -96.892358321811415, 18.79078754512302 ] ] ] } },
{ "type": "Feature", "properties": { "cell_id": "722143_2079084", "DN": 3 }, "geometry": { "type": "Polygon", "coordinates": [ [ [ -96.892348316594251, 18.791591370108002 ], [ -96.892348204173189, 18.791600401848985 ], [ -96.89235768716523, 18.791600508920236 ], [ -96.892357799585767, 18.791591477179203 ], [ -96.892348316594251, 18.791591370108002 ] ] ] } },
{ "type": "Feature", "properties": { "cell_id": "722144_2079030", "DN": 3 }, "geometry": { "type": "Polygon", "coordinates": [ [ [ -96.892344904271795, 18.79110354901233 ], [ -96.892344791853702, 18.791112580753765 ], [ -96.892354274818402, 18.791112687822512 ], [ -96.892354387235997, 18.791103656081024 ], [ -96.892344904271795, 18.79110354901233 ] ] ] } },
{ "type": "Feature", "properties": { "cell_id": "722148_2078979", "DN": 3 }, "geometry": { "type": "Polygon", "coordinates": [ [ [ -96.892312705756723, 18.790642501918455 ], [ -96.892312593339881, 18.790651533660142 ], [ -96.892322076278575, 18.790651640728008 ], [ -96.892322188694919, 18.790642608986261 ], [ -96.892312705756723, 18.790642501918455 ] ] ] } },
{ "type": "Feature", "properties": { "cell_id": "722148_2078980", "DN": 3 }, "geometry": { "type": "Polygon", "coordinates": [ [ [ -96.892312593339881, 18.790651533660142 ], [ -96.892312480922953, 18.790660565401826 ], [ -96.892321963862159, 18.790660672469741 ], [ -96.892322076278575, 18.790651640728008 ], [ -96.892312593339881, 18.790651533660142 ] ] ] } },
{ "type": "Feature", "properties": { "cell_id": "722148_2078981", "DN": 3 }, "geometry": { "type": "Polygon", "coordinates": [ [ [ -96.892312480922953, 18.790660565401826 ], [ -96.892312368505983, 18.790669597143495 ], [ -96.892321851445686, 18.790669704211471 ], [ -96.892321963862159, 18.790660672469741 ], [ -96.892312480922953, 18.790660565401826 ] ] ] } },
{ "type": "Feature", "properties": { "cell_id": "722148_2078982", "DN": 3 }, "geometry": { "type": "Polygon", "coordinates": [ [ [ -96.892312368505983, 18.790669597143495 ], [ -96.892312256088942, 18.790678628885157 ], [ -96.892321739029157, 18.79067873595319 ], [ -96.892321851445686, 18.790669704211471 ], [ -96.892312368505983, 18.790669597143495 ] ] ] } },
{ "type": "Feature", "properties": { "cell_id": "722148_2078983", "DN": 3 }, "geometry": { "type": "Polygon", "coordinates": [ [ [ -96.892312256088942, 18.790678628885157 ], [ -96.89231214367183, 18.790687660626812 ], [ -96.892321626612542, 18.790687767694894 ], [ -96.892321739029157, 18.79067873595319 ], [ -96.892312256088942, 18.790678628885157 ] ] ] } },
{ "type": "Feature", "properties": { "cell_id": "722149_2078980", "DN": 3 }, "geometry": { "type": "Polygon", "coordinates": [ [ [ -96.892303110401244, 18.790651426591801 ], [ -96.892302997983819, 18.790660458333427 ], [ -96.892312480922953, 18.790660565401826 ], [ -96.892312593339881, 18.790651533660142 ], [ -96.892303110401244, 18.790651426591801 ] ] ] } },
{ "type": "Feature", "properties": { "cell_id": "722149_2078981", "DN": 3 }, "geometry": { "type": "Polygon", "coordinates": [ [ [ -96.892302997983819, 18.790660458333427 ], [ -96.892302885566338, 18.79066949007504 ], [ -96.892312368505983, 18.790669597143495 ], [ -96.892312480922953, 18.790660565401826 ], [ -96.892302997983819, 18.790660458333427 ] ] ] } },
{ "type": "Feature", "properties": { "cell_id": "722151_2078983", "DN": 3 }, "geometry": { "type": "Polygon", "coordinates": [ [ [ -96.892283807268697, 18.790678307678192 ], [ -96.892283694850079, 18.79068733941968 ], [ -96.892293177790606, 18.790687446489208 ], [ -96.892293290208713, 18.79067841474766 ], [ -96.892283807268697, 18.790678307678192 ] ] ] } },
{ "type": "Feature", "properties": { "cell_id": "722152_2078983", "DN": 3 }, "geometry": { "type": "Polygon", "coordinates": [ [ [ -96.892274324328739, 18.790678200608241 ], [ -96.892274211909609, 18.790687232349676 ], [ -96.892283694850079, 18.79068733941968 ], [ -96.892283807268697, 18.790678307678192 ], [ -96.892274324328739, 18.790678200608241 ] ] ] } },
{ "type": "Feature", "properties": { "cell_id": "722152_2078999", "DN": 1 }, "geometry": { "type": "Polygon", "coordinates": [ [ [ -96.892272525615027, 18.790822708470031 ], [ -96.892272413194888, 18.790831740211321 ], [ -96.892281896143416, 18.79083184728221 ], [ -96.892282008563072, 18.790822815540867 ], [ -96.892272525615027, 18.790822708470031 ] ] ] } },
{ "type": "Feature", "properties": { "cell_id": "722152_2079000", "DN": 1 }, "geometry": { "type": "Polygon", "coordinates": [ [ [ -96.892272413194888, 18.790831740211321 ], [ -96.892272300774664, 18.790840771952595 ], [ -96.892281783723703, 18.790840879023538 ], [ -96.892281896143416, 18.79083184728221 ], [ -96.892272413194888, 18.790831740211321 ] ] ] } },
{ "type": "Feature", "properties": { "cell_id": "722153_2078983", "DN": 3 }, "geometry": { "type": "Polygon", "coordinates": [ [ [ -96.892264841388851, 18.79067809353781 ], [ -96.892264728969224, 18.790687125279184 ], [ -96.892274211909609, 18.790687232349676 ], [ -96.892274324328739, 18.790678200608241 ], [ -96.892264841388851, 18.79067809353781 ] ] ] } },
{ "type": "Feature", "properties": { "cell_id": "722153_2078999", "DN": 1 }, "geometry": { "type": "Polygon", "coordinates": [ [ [ -96.892263042667054, 18.790822601398716 ], [ -96.892262930246417, 18.790831633139948 ], [ -96.892272413194888, 18.790831740211321 ], [ -96.892272525615027, 18.790822708470031 ], [ -96.892263042667054, 18.790822601398716 ] ] ] } },
{ "type": "Feature", "properties": { "cell_id": "722153_2079000", "DN": 1 }, "geometry": { "type": "Polygon", "coordinates": [ [ [ -96.892262930246417, 18.790831633139948 ], [ -96.892262817825682, 18.790840664881166 ], [ -96.892272300774664, 18.790840771952595 ], [ -96.892272413194888, 18.790831740211321 ], [ -96.892262930246417, 18.790831633139948 ] ] ] } },
{ "type": "Feature", "properties": { "cell_id": "722154_2078983", "DN": 3 }, "geometry": { "type": "Polygon", "coordinates": [ [ [ -96.89225535844902, 18.790677986466893 ], [ -96.892255246028895, 18.790687018208221 ], [ -96.892264728969224, 18.790687125279184 ], [ -96.892264841388851, 18.79067809353781 ], [ -96.89225535844902, 18.790677986466893 ] ] ] } },
{ "type": "Feature", "properties": { "cell_id": "722155_2078983", "DN": 3 }, "geometry": { "type": "Polygon", "coordinates": [ [ [ -96.892245875509261, 18.790677879395503 ], [ -96.892245763088624, 18.79068691113677 ], [ -96.892255246028895, 18.790687018208221 ], [ -96.89225535844902, 18.790677986466893 ], [ -96.892245875509261, 18.790677879395503 ] ] ] } },
{ "type": "Feature", "properties": { "cell_id": "722156_2078966", "DN": 3 }, "geometry": { "type": "Polygon", "coordinates": [ [ [ -96.892238303719239, 18.790524232721598 ], [ -96.892238191299185, 18.790533264462972 ], [ -96.892247674230802, 18.790533371533964 ], [ -96.892247786650358, 18.79052433979254 ], [ -96.892238303719239, 18.790524232721598 ] ] ] } },
{ "type": "Feature", "properties": { "cell_id": "722156_2078967", "DN": 1 }, "geometry": { "type": "Polygon", "coordinates": [ [ [ -96.892238191299185, 18.790533264462972 ], [ -96.89223807887906, 18.790542296204332 ], [ -96.892247561811189, 18.790542403275378 ], [ -96.892247674230802, 18.790533371533964 ], [ -96.892238191299185, 18.790533264462972 ] ] ] } },
{ "type": "Feature", "properties": { "cell_id": "722156_2078968", "DN": 1 }, "geometry": { "type": "Polygon", "coordinates": [ [ [ -96.89223807887906, 18.790542296204332 ], [ -96.892237966458893, 18.790551327945686 ], [ -96.892247449391519, 18.790551435016784 ], [ -96.892247561811189, 18.790542403275378 ], [ -96.89223807887906, 18.790542296204332 ] ] ] } },
{ "type": "Feature", "properties": { "cell_id": "722156_2078983", "DN": 3 }, "geometry": { "type": "Polygon", "coordinates": [ [ [ -96.892236392569572, 18.79067777232363 ], [ -96.892236280148424, 18.790686804064837 ], [ -96.892245763088624, 18.79068691113677 ], [ -96.892245875509261, 18.790677879395503 ], [ -96.892236392569572, 18.79067777232363 ] ] ] } },
{ "type": "Feature", "properties": { "cell_id": "722157_2078965", "DN": 3 }, "geometry": { "type": "Polygon", "coordinates": [ [ [ -96.892228933208699, 18.790515093908859 ], [ -96.892228820788205, 18.79052412565018 ], [ -96.892238303719239, 18.790524232721598 ], [ -96.89223841613925, 18.790515200980213 ], [ -96.892228933208699, 18.790515093908859 ] ] ] } },
{ "type": "Feature", "properties": { "cell_id": "722157_2078966", "DN": 3 }, "geometry": { "type": "Polygon", "coordinates": [ [ [ -96.892228820788205, 18.79052412565018 ], [ -96.892228708367639, 18.790533157391497 ], [ -96.892238191299185, 18.790533264462972 ], [ -96.892238303719239, 18.790524232721598 ], [ -96.892228820788205, 18.79052412565018 ] ] ] } },
{ "type": "Feature", "properties": { "cell_id": "722157_2078967", "DN": 1 }, "geometry": { "type": "Polygon", "coordinates": [ [ [ -96.892228708367639, 18.790533157391497 ], [ -96.892228595947017, 18.790542189132807 ], [ -96.89223807887906, 18.790542296204332 ], [ -96.892238191299185, 18.790533264462972 ], [ -96.892228708367639, 18.790533157391497 ] ] ] } },
{ "type": "Feature", "properties": { "cell_id": "722157_2078967", "DN": 3 }, "geometry": { "type": "Polygon", "coordinates": [ [ [ -96.892228708367639, 18.790533157391497 ], [ -96.892228595947017, 18.790542189132807 ], [ -96.89223807887906, 18.790542296204332 ], [ -96.892238191299185, 18.790533264462972 ], [ -96.892228708367639, 18.790533157391497 ] ] ] } },
{ "type": "Feature", "properties": { "cell_id": "722157_2078968", "DN": 1 }, "geometry": { "type": "Polygon", "coordinates": [ [ [ -96.892228595947017, 18.790542189132807 ], [ -96.89222848352631, 18.7905512208741 ], [ -96.892237966458893, 18.790551327945686 ], [ -96.89223807887906, 18.790542296204332 ], [ -96.892228595947017, 18.790542189132807 ] ] ] } },
{ "type": "Feature", "properties": { "cell_id": "722160_2079009", "DN": 3 }, "geometry": { "type": "Polygon", "coordinates": [ [ [ -96.892195537788297, 18.790912169294032 ], [ -96.892195425363468, 18.79092120103477 ], [ -96.892204908316543, 18.790921308110065 ], [ -96.89220502074086, 18.790912276369266 ], [ -96.892195537788297, 18.790912169294032 ] ] ] } },
{ "type": "Feature", "properties": { "cell_id": "722160_2079010", "DN": 3 }, "geometry": { "type": "Polygon", "coordinates": [ [ [ -96.892195425363468, 18.79092120103477 ], [ -96.892195312938568, 18.790930232775512 ], [ -96.892204795892141, 18.790930339850856 ], [ -96.892204908316543, 18.790921308110065 ], [ -96.892195425363468, 18.79092120103477 ] ] ] } },
{ "type": "Feature", "properties": { "cell_id": "722167_2079021", "DN": 3 }, "geometry": { "type": "Polygon", "coordinates": [ [ [ -96.892127807977502, 18.791019800637638 ], [ -96.892127695548368, 18.791028832377883 ], [ -96.892137178507042, 18.791028939457203 ], [ -96.892137290935679, 18.791019907716898 ], [ -96.892127807977502, 18.791019800637638 ] ] ] } },
{ "type": "Feature", "properties": { "cell_id": "722168_2079021", "DN": 3 }, "geometry": { "type": "Polygon", "coordinates": [ [ [ -96.892118325019382, 18.791019693557889 ], [ -96.89211821258975, 18.791028725298084 ], [ -96.892127695548368, 18.791028832377883 ], [ -96.892127807977502, 18.791019800637638 ], [ -96.892118325019382, 18.791019693557889 ] ] ] } },
{ "type": "Feature", "properties": { "cell_id": "722173_2078953", "DN": 3 }, "geometry": { "type": "Polygon", "coordinates": [ [ [ -96.892078555466583, 18.790404999815635 ], [ -96.892078443038784, 18.790414031556185 ], [ -96.892087925962755, 18.790414138634635 ], [ -96.892088038390042, 18.790405106894028 ], [ -96.892078555466583, 18.790404999815635 ] ] ] } },
{ "type": "Feature", "properties": { "cell_id": "722173_2078954", "DN": 3 }, "geometry": { "type": "Polygon", "coordinates": [ [ [ -96.892078443038784, 18.790414031556185 ], [ -96.892078330610914, 18.790423063296728 ], [ -96.892087813535397, 18.790423170375231 ], [ -96.892087925962755, 18.790414138634635 ], [ -96.892078443038784, 18.790414031556185 ] ] ] } },
{ "type": "Feature", "properties": { "cell_id": "722173_2078960", "DN": 3 }, "geometry": { "type": "Polygon", "coordinates": [ [ [ -96.8920777684706, 18.790468221999312 ], [ -96.892077656042346, 18.790477253739802 ], [ -96.892087138969842, 18.790477360818635 ], [ -96.892087251397598, 18.790468329078092 ], [ -96.8920777684706, 18.790468221999312 ] ] ] } },
{ "type": "Feature", "properties": { "cell_id": "722173_2078961", "DN": 3 }, "geometry": { "type": "Polygon", "coordinates": [ [ [ -96.892077656042346, 18.790477253739802 ], [ -96.892077543614036, 18.790486285480277 ], [ -96.892087026542029, 18.790486392559167 ], [ -96.892087138969842, 18.790477360818635 ], [ -96.892077656042346, 18.790477253739802 ] ] ] } },
{ "type": "Feature", "properties": { "cell_id": "722174_2078953", "DN": 3 }, "geometry": { "type": "Polygon", "coordinates": [ [ [ -96.892069072543194, 18.790404892736756 ], [ -96.892068960114884, 18.790413924477257 ], [ -96.892078443038784, 18.790414031556185 ], [ -96.892078555466583, 18.790404999815635 ], [ -96.892069072543194, 18.790404892736756 ] ] ] } },
{ "type": "Feature", "properties": { "cell_id": "722174_2078954", "DN": 3 }, "geometry": { "type": "Polygon", "coordinates": [ [ [ -96.892068960114884, 18.790413924477257 ], [ -96.892068847686517, 18.790422956217746 ], [ -96.892078330610914, 18.790423063296728 ], [ -96.892078443038784, 18.790414031556185 ], [ -96.892068960114884, 18.790413924477257 ] ] ] } },
{ "type": "Feature", "properties": { "cell_id": "722174_2078955", "DN": 3 }, "geometry": { "type": "Polygon", "coordinates": [ [ [ -96.892068847686517, 18.790422956217746 ], [ -96.892068735258064, 18.790431987958225 ], [ -96.892078218182988, 18.790432095037264 ], [ -96.892078330610914, 18.790423063296728 ], [ -96.892068847686517, 18.790422956217746 ] ] ] } },
{ "type": "Feature", "properties": { "cell_id": "722174_2078960", "DN": 3 }, "geometry": { "type": "Polygon", "coordinates": [ [ [ -96.892068285543672, 18.790468114920049 ], [ -96.892068173114907, 18.790477146660482 ], [ -96.892077656042346, 18.790477253739802 ], [ -96.8920777684706, 18.790468221999312 ], [ -96.892068285543672, 18.790468114920049 ] ] ] } },
{ "type": "Feature", "properties": { "cell_id": "722175_2079002", "DN": 3 }, "geometry": { "type": "Polygon", "coordinates": [ [ [ -96.892054080532503, 18.790847340928117 ], [ -96.892053968100541, 18.790856372668099 ], [ -96.89206345104914, 18.790856479750218 ], [ -96.89206356348059, 18.790847448010176 ], [ -96.892054080532503, 18.790847340928117 ] ] ] } },
{ "type": "Feature", "properties": { "cell_id": "722175_2079003", "DN": 3 }, "geometry": { "type": "Polygon", "coordinates": [ [ [ -96.892053968100541, 18.790856372668099 ], [ -96.892053855668536, 18.790865404408073 ], [ -96.892063338617604, 18.790865511490246 ], [ -96.89206345104914, 18.790856479750218 ], [ -96.892053968100541, 18.790856372668099 ] ] ] } },
{ "type": "Feature", "properties": { "cell_id": "722175_2079004", "DN": 3 }, "geometry": { "type": "Polygon", "coordinates": [ [ [ -96.892053855668536, 18.790865404408073 ], [ -96.892053743236445, 18.790874436148041 ], [ -96.892063226186025, 18.79087454323027 ], [ -96.892063338617604, 18.790865511490246 ], [ -96.892053855668536, 18.790865404408073 ] ] ] } },
{ "type": "Feature", "properties": { "cell_id": "722177_2078952", "DN": 3 }, "geometry": { "type": "Polygon", "coordinates": [ [ [ -96.892040736203143, 18.790395539756901 ], [ -96.892040623773397, 18.790404571497245 ], [ -96.892050106696601, 18.790404678577566 ], [ -96.892050219125849, 18.790395646837162 ], [ -96.892040736203143, 18.790395539756901 ] ] ] } },
{ "type": "Feature", "properties": { "cell_id": "722180_2078947", "DN": 1 }, "geometry": { "type": "Polygon", "coordinates": [ [ [ -96.892012849590856, 18.790350059812202 ], [ -96.892012737159902, 18.790359091552425 ], [ -96.892022220080392, 18.790359198633912 ], [ -96.892022332510834, 18.790350166893635 ], [ -96.892012849590856, 18.790350059812202 ] ] ] } },
{ "type": "Feature", "properties": { "cell_id": "722189_2078899", "DN": 2 }, "geometry": { "type": "Polygon", "coordinates": [ [ [ -96.891932900142521, 18.789915572539787 ], [ -96.891932787710104, 18.789924604279964 ], [ -96.891942270605782, 18.789924711363124 ], [ -96.891942383037701, 18.789915679622897 ], [ -96.891932900142521, 18.789915572539787 ] ] ] } },
{ "type": "Feature", "properties": { "cell_id": "722190_2078899", "DN": 2 }, "geometry": { "type": "Polygon", "coordinates": [ [ [ -96.891923417247412, 18.789915465456197 ], [ -96.891923304814483, 18.789924497196324 ], [ -96.891932787710104, 18.789924604279964 ], [ -96.891932900142521, 18.789915572539787 ], [ -96.891923417247412, 18.789915465456197 ] ] ] } },
{ "type": "Feature", "properties": { "cell_id": "722196_2078905", "DN": 3 }, "geometry": { "type": "Polygon", "coordinates": [ [ [ -96.891865845261393, 18.789969013383178 ], [ -96.891865732825039, 18.789978045122911 ], [ -96.891875215723303, 18.789978152209766 ], [ -96.891875328159131, 18.78996912046998 ], [ -96.891865845261393, 18.789969013383178 ] ] ] } },
{ "type": "Feature", "properties": { "cell_id": "722197_2078905", "DN": 3 }, "geometry": { "type": "Polygon", "coordinates": [ [ [ -96.891856362363697, 18.789968906295893 ], [ -96.89185624992686, 18.78997793803557 ], [ -96.891865732825039, 18.789978045122911 ], [ -96.891865845261393, 18.789969013383178 ], [ -96.891856362363697, 18.789968906295893 ] ] ] } },
{ "type": "Feature", "properties": { "cell_id": "722197_2078906", "DN": 3 }, "geometry": { "type": "Polygon", "coordinates": [ [ [ -96.89185624992686, 18.78997793803557 ], [ -96.891856137489938, 18.789986969775242 ], [ -96.891865620388643, 18.789987076862637 ], [ -96.891865732825039, 18.789978045122911 ], [ -96.89185624992686, 18.78997793803557 ] ] ] } },
{ "type": "Feature", "properties": { "cell_id": "722197_2078907", "DN": 3 }, "geometry": { "type": "Polygon", "coordinates": [ [ [ -96.891856137489938, 18.789986969775242 ], [ -96.891856025052959, 18.789996001514897 ], [ -96.891865507952161, 18.789996108602349 ], [ -96.891865620388643, 18.789987076862637 ], [ -96.891856137489938, 18.789986969775242 ] ] ] } },
{ "type": "Feature", "properties": { "cell_id": "722198_2078906", "DN": 3 }, "geometry": { "type": "Polygon", "coordinates": [ [ [ -96.891846767028724, 18.789977830947745 ], [ -96.891846654591305, 18.789986862687361 ], [ -96.891856137489938, 18.789986969775242 ], [ -96.89185624992686, 18.78997793803557 ], [ -96.891846767028724, 18.789977830947745 ] ] ] } },
{ "type": "Feature", "properties": { "cell_id": "722198_2078907", "DN": 3 }, "geometry": { "type": "Polygon", "coordinates": [ [ [ -96.891846654591305, 18.789986862687361 ], [ -96.891846542153829, 18.789995894426966 ], [ -96.891856025052959, 18.789996001514897 ], [ -96.891856137489938, 18.789986969775242 ], [ -96.891846654591305, 18.789986862687361 ] ] ] } },
{ "type": "Feature", "properties": { "cell_id": "722199_2078906", "DN": 3 }, "geometry": { "type": "Polygon", "coordinates": [ [ [ -96.891837284130659, 18.789977723859447 ], [ -96.891837171692728, 18.789986755599003 ], [ -96.891846654591305, 18.789986862687361 ], [ -96.891846767028724, 18.789977830947745 ], [ -96.891837284130659, 18.789977723859447 ] ] ] } },
{ "type": "Feature", "properties": { "cell_id": "722199_2078907", "DN": 3 }, "geometry": { "type": "Polygon", "coordinates": [ [ [ -96.891837171692728, 18.789986755599003 ], [ -96.89183705925474, 18.789995787338555 ], [ -96.891846542153829, 18.789995894426966 ], [ -96.891846654591305, 18.789986862687361 ], [ -96.891837171692728, 18.789986755599003 ] ] ] } },
{ "type": "Feature", "properties": { "cell_id": "722201_2078912", "DN": 1 }, "geometry": { "type": "Polygon", "coordinates": [ [ [ -96.891817643700165, 18.79003170011795 ], [ -96.891817531260841, 18.790040731857342 ], [ -96.891827014162331, 18.790040838946993 ], [ -96.891827126601129, 18.790031807207544 ], [ -96.891817643700165, 18.79003170011795 ] ] ] } },
{ "type": "Feature", "properties": { "cell_id": "722202_2078915", "DN": 1 }, "geometry": { "type": "Polygon", "coordinates": [ [ [ -96.891807823479596, 18.790058688245857 ], [ -96.89180771103959, 18.790067719985164 ], [ -96.891817193942515, 18.790067827075461 ], [ -96.891817306382023, 18.790058795336098 ], [ -96.891807823479596, 18.790058688245857 ] ] ] } },
{ "type": "Feature", "properties": { "cell_id": "722202_2078915", "DN": 3 }, "geometry": { "type": "Polygon", "coordinates": [ [ [ -96.891807823479596, 18.790058688245857 ], [ -96.89180771103959, 18.790067719985164 ], [ -96.891817193942515, 18.790067827075461 ], [ -96.891817306382023, 18.790058795336098 ], [ -96.891807823479596, 18.790058688245857 ] ] ] } },
{ "type": "Feature", "properties": { "cell_id": "722202_2078916", "DN": 1 }, "geometry": { "type": "Polygon", "coordinates": [ [ [ -96.89180771103959, 18.790067719985164 ], [ -96.891807598599513, 18.790076751724463 ], [ -96.89181708150295, 18.790076858814817 ], [ -96.891817193942515, 18.790067827075461 ], [ -96.89180771103959, 18.790067719985164 ] ] ] } },
{ "type": "Feature", "properties": { "cell_id": "722202_2078916", "DN": 3 }, "geometry": { "type": "Polygon", "coordinates": [ [ [ -96.89180771103959, 18.790067719985164 ], [ -96.891807598599513, 18.790076751724463 ], [ -96.89181708150295, 18.790076858814817 ], [ -96.891817193942515, 18.790067827075461 ], [ -96.89180771103959, 18.790067719985164 ] ] ] } }
]
}
