{
"type": "FeatureCollection",
"name": "MATOLOGIA_Orthomosaico_EPSG3857",
"crs": { "type": "name", "properties": { "name": "urn:ogc:def:crs:EPSG::3857" } },
"features": [
{ "type": "Feature", "properties": { "DN": 1, "AREA": 1.0000000000000001e-05, "ID": 1 }, "geometry": { "type": "Polygon", "coordinates": [ [ [ -10786033.870514458045363, 2130435.884556084405631 ], [ -10786033.876771125942469, 2130435.353546425700188 ], [ -10786033.982335431501269, 2130435.35480531770736 ], [ -10786033.979832764714956, 2130435.567209179513156 ], [ -10786034.085397073999047, 2130435.568468071054667 ], [ -10786034.084145737811923, 2130435.674670002888888 ], [ -10786034.189710048958659, 2130435.675928893499076 ], [ -10786034.187207382172346, 2130435.888332759495825 ], [ -10786033.870514458045363, 2130435.884556084405631 ] ] ] } },
{ "type": "Feature", "properties": { "DN": 1, "AREA": 2.5000000001164157e-05, "ID": 2 }, "geometry": { "type": "Polygon", "coordinates": [ [ [ -10786033.660637173801661, 2130435.775836366228759 ], [ -10786033.663139846175909, 2130435.563432502560318 ], [ -10786033.557575538754463, 2130435.562173608224839 ], [ -10786033.556324202567339, 2130435.668375540524721 ], [ -10786033.345195587724447, 2130435.665857751388103 ], [ -10786033.346446925774217, 2130435.559655819553882 ], [ -10786033.240882620215416, 2130435.558396924287081 ], [ -10786033.244636630639434, 2130435.239791134372354 ], [ -10786033.139072326943278, 2130435.238532237708569 ], [ -10786033.141575003042817, 2130435.026128380093724 ], [ -10786033.352703608572483, 2130435.028646170627326 ], [ -10786033.351452272385359, 2130435.134848099201918 ], [ -10786033.668145185336471, 2130435.138624781742692 ], [ -10786033.665642514824867, 2130435.351028640754521 ], [ -10786033.771206820383668, 2130435.352287533693016 ], [ -10786033.766201483085752, 2130435.777095259167254 ], [ -10786033.660637173801661, 2130435.775836366228759 ] ] ] } },
{ "type": "Feature", "properties": { "DN": 1, "AREA": 4.9999999988358468e-06, "ID": 3 }, "geometry": { "type": "Polygon", "coordinates": [ [ [ -10786042.741214044392109, 2130426.749475616030395 ], [ -10786042.744967889040709, 2130426.43086994625628 ], [ -10786042.850532153621316, 2130426.432128785643727 ], [ -10786042.849280871450901, 2130426.538330674637109 ], [ -10786042.954845136031508, 2130426.539589514024556 ], [ -10786042.952342577278614, 2130426.751993292942643 ], [ -10786042.741214044392109, 2130426.749475616030395 ] ] ] } },
{ "type": "Feature", "properties": { "DN": 1, "AREA": 4.5481081782723775e-05, "ID": 4 }, "geometry": { "type": "Polygon", "coordinates": [ [ [ -10786062.574319772422314, 2130419.125929310452193 ], [ -10786062.575570944696665, 2130419.019727448467165 ], [ -10786062.470006706193089, 2130419.018468719907105 ], [ -10786062.475011393427849, 2130418.593661276157945 ], [ -10786062.39313068985939, 2130418.592684945557266 ], [ -10786062.500608239322901, 2130418.062882602214813 ], [ -10786062.797959940508008, 2130418.066428166348487 ], [ -10786062.796708771958947, 2130418.172630023211241 ], [ -10786063.007837235927582, 2130418.175147475209087 ], [ -10786063.006586069241166, 2130418.281349333003163 ], [ -10786063.112150302156806, 2130418.282608058303595 ], [ -10786063.107145631685853, 2130418.70741549693048 ], [ -10786063.001581395044923, 2130418.706156771164387 ], [ -10786063.000330228358507, 2130418.812358632683754 ], [ -10786062.789201756939292, 2130418.809841179754585 ], [ -10786062.78669941611588, 2130419.022244903724641 ], [ -10786062.68113517947495, 2130419.020986176095903 ], [ -10786062.679884009063244, 2130419.127188038546592 ], [ -10786062.574319772422314, 2130419.125929310452193 ] ] ] } },
{ "type": "Feature", "properties": { "DN": 1, "AREA": 4.3026014017193416e-07, "ID": 5 }, "geometry": { "type": "Polygon", "coordinates": [ [ [ -10786065.07236198335886, 2130413.207576386630535 ], [ -10786065.070924285799265, 2130413.329612631816417 ], [ -10786064.993308506906033, 2130413.206633778754622 ], [ -10786065.07236198335886, 2130413.207576386630535 ] ] ] } },
{ "type": "Feature", "properties": { "DN": 1, "AREA": 2.9000000000465665e-05, "ID": 6 }, "geometry": { "type": "Polygon", "coordinates": [ [ [ -10786064.251620326191187, 2130411.179671962745488 ], [ -10786064.252871483564377, 2130411.073470141272992 ], [ -10786064.147307289764285, 2130411.07221142668277 ], [ -10786064.1523119173944, 2130410.647404146380723 ], [ -10786064.680132884532213, 2130410.65369771188125 ], [ -10786064.678881730884314, 2130410.759899531956762 ], [ -10786064.890010118484497, 2130410.762416954617947 ], [ -10786064.888758964836597, 2130410.868618775159121 ], [ -10786064.783194771036506, 2130410.867360063828528 ], [ -10786064.779441308230162, 2130411.185965527780354 ], [ -10786064.251620326191187, 2130411.179671962745488 ] ] ] } },
{ "type": "Feature", "properties": { "DN": 1, "AREA": 8.1999999999068685e-05, "ID": 7 }, "geometry": { "type": "Polygon", "coordinates": [ [ [ -10786065.96066583506763, 2130409.500582223758101 ], [ -10786065.964419275522232, 2130409.181976784951985 ], [ -10786065.858855089172721, 2130409.180718080606312 ], [ -10786065.861357383430004, 2130408.968314457684755 ], [ -10786065.755793198943138, 2130408.967055752873421 ], [ -10786065.760797791182995, 2130408.542248513083905 ], [ -10786065.866361971944571, 2130408.543507216963917 ], [ -10786065.867613120004535, 2130408.437305408529937 ], [ -10786066.078741483390331, 2130408.439822814892977 ], [ -10786066.07999262958765, 2130408.333621006458998 ], [ -10786066.185556812211871, 2130408.334879709407687 ], [ -10786066.186807956546545, 2130408.228677902370691 ], [ -10786066.292372139170766, 2130408.229936604388058 ], [ -10786066.291120994836092, 2130408.336138411425054 ], [ -10786066.502249358221889, 2130408.338655814062804 ], [ -10786066.50099821574986, 2130408.444857622496784 ], [ -10786066.606562398374081, 2130408.446116321720183 ], [ -10786066.605311254039407, 2130408.552318131551147 ], [ -10786066.816439623013139, 2130408.55483553186059 ], [ -10786066.811435056850314, 2130408.979642773978412 ], [ -10786066.705870868638158, 2130408.978384074755013 ], [ -10786066.704619728028774, 2130409.08458588598296 ], [ -10786066.599055539816618, 2130409.083327185828239 ], [ -10786066.597804395481944, 2130409.18952899845317 ], [ -10786066.492240209132433, 2130409.188270298298448 ], [ -10786066.488486776128411, 2130409.506875738501549 ], [ -10786065.96066583506763, 2130409.500582223758101 ] ] ] } },
{ "type": "Feature", "properties": { "DN": 1, "AREA": 1.1999999999068677e-05, "ID": 8 }, "geometry": { "type": "Polygon", "coordinates": [ [ [ -10786065.668996229767799, 2130407.372769944835454 ], [ -10786065.671498524025083, 2130407.160366340540349 ], [ -10786065.882626876235008, 2130407.162883748300374 ], [ -10786065.883878022432327, 2130407.056681946851313 ], [ -10786066.200570547953248, 2130407.060458053369075 ], [ -10786066.198068261146545, 2130407.272861657198519 ], [ -10786066.09250408411026, 2130407.27160295471549 ], [ -10786066.091252937912941, 2130407.377804758492857 ], [ -10786065.668996229767799, 2130407.372769944835454 ] ] ] } },
{ "type": "Feature", "properties": { "DN": 1, "AREA": 3.700000000372529e-05, "ID": 9 }, "geometry": { "type": "Polygon", "coordinates": [ [ [ -10786065.568436644971371, 2130406.946704034227878 ], [ -10786065.570938941091299, 2130406.734300435055047 ], [ -10786065.465374765917659, 2130406.733041730243713 ], [ -10786065.470379358157516, 2130406.308234537951648 ], [ -10786065.575943529605865, 2130406.309493242762983 ], [ -10786065.579696970060468, 2130405.990887854248285 ], [ -10786065.685261141508818, 2130405.992146558593959 ], [ -10786065.687763432040811, 2130405.779742967803031 ], [ -10786065.79332759976387, 2130405.781001672148705 ], [ -10786065.789574163034558, 2130406.099607056938112 ], [ -10786065.895138334482908, 2130406.100865760352463 ], [ -10786065.892636043950915, 2130406.313269353006035 ], [ -10786065.99820021353662, 2130406.314528055489063 ], [ -10786065.991944490000606, 2130406.845537048764527 ], [ -10786065.886380314826965, 2130406.844278345815837 ], [ -10786065.885129168629646, 2130406.950480145867914 ], [ -10786065.568436644971371, 2130406.946704034227878 ] ] ] } },
{ "type": "Feature", "properties": { "DN": 1, "AREA": 4.9999999988358468e-06, "ID": 10 }, "geometry": { "type": "Polygon", "coordinates": [ [ [ -10786031.356214189901948, 2130344.61450095847249 ], [ -10786031.362470649182796, 2130344.083493710495532 ], [ -10786031.468034472316504, 2130344.084752560127527 ], [ -10786031.4617780148983, 2130344.615759807638824 ], [ -10786031.356214189901948, 2130344.61450095847249 ] ] ] } },
{ "type": "Feature", "properties": { "DN": 1, "AREA": 1.9999999998835846e-05, "ID": 11 }, "geometry": { "type": "Polygon", "coordinates": [ [ [ -10785998.327625254169106, 2130325.207888388540596 ], [ -10785998.330128164961934, 2130324.995485733263195 ], [ -10785998.224564466625452, 2130324.99422671739012 ], [ -10785998.228318836539984, 2130324.675622737966478 ], [ -10785998.54500992782414, 2130324.679399782791734 ], [ -10785998.543758474290371, 2130324.785601109266281 ], [ -10785998.649322172626853, 2130324.786860121879727 ], [ -10785998.648070717230439, 2130324.893061448819935 ], [ -10785998.753634417429566, 2130324.894320462364703 ], [ -10785998.74988005310297, 2130325.212924445513636 ], [ -10785998.327625254169106, 2130325.207888388540596 ] ] ] } },
{ "type": "Feature", "properties": { "DN": 1, "AREA": 1.6000000000698493e-05, "ID": 12 }, "geometry": { "type": "Polygon", "coordinates": [ [ [ -10786022.866754500195384, 2130312.435944657307118 ], [ -10786022.86925713531673, 2130312.223542105872184 ], [ -10786022.763693487271667, 2130312.222283230163157 ], [ -10786022.766196126118302, 2130312.009880680590868 ], [ -10786022.87175976857543, 2130312.011139556765556 ], [ -10786022.873011087998748, 2130311.904938282910734 ], [ -10786023.189702020958066, 2130311.908714907709509 ], [ -10786023.184696758165956, 2130312.333520006388426 ], [ -10786023.079133111983538, 2130312.332261131610721 ], [ -10786023.077881794422865, 2130312.438462408725172 ], [ -10786022.866754500195384, 2130312.435944657307118 ] ] ] } },
{ "type": "Feature", "properties": { "DN": 1, "AREA": 1.0999999993713574e-05, "ID": 13 }, "geometry": { "type": "Polygon", "coordinates": [ [ [ -10786022.875513721257448, 2130311.692535736598074 ], [ -10786022.878016356378794, 2130311.480133193545043 ], [ -10786022.983579998835921, 2130311.481392068788409 ], [ -10786022.984831316396594, 2130311.375190798193216 ], [ -10786023.301522240042686, 2130311.378967419266701 ], [ -10786023.297768296673894, 2130311.697571235243231 ], [ -10786022.875513721257448, 2130311.692535736598074 ] ] ] } },
{ "type": "Feature", "properties": { "DN": 1, "AREA": 1.2872039344394396e-06, "ID": 14 }, "geometry": { "type": "Polygon", "coordinates": [ [ [ -10786023.405834570527077, 2130311.486427563242614 ], [ -10786023.407085884362459, 2130311.38022629218176 ], [ -10786023.301522240042686, 2130311.378967419266701 ], [ -10786023.302980924025178, 2130311.25516659906134 ], [ -10786023.523241311311722, 2130311.487827667500824 ], [ -10786023.405834570527077, 2130311.486427563242614 ] ] ] } },
{ "type": "Feature", "properties": { "DN": 1, "AREA": 5.7000000001396998e-05, "ID": 15 }, "geometry": { "type": "Polygon", "coordinates": [ [ [ -10785994.712919540703297, 2130291.494253226090223 ], [ -10785994.71417099609971, 2130291.388052077032626 ], [ -10785994.50304395891726, 2130291.385534048546106 ], [ -10785994.501792503520846, 2130291.49173519667238 ], [ -10785994.290665464475751, 2130291.48921716446057 ], [ -10785994.295671293511987, 2130291.06441257474944 ], [ -10785994.401234811171889, 2130291.065671591088176 ], [ -10785994.402486268430948, 2130290.959470445290208 ], [ -10785994.508049782365561, 2130290.96072946023196 ], [ -10785994.51430706307292, 2130290.429723740089685 ], [ -10785994.830997603014112, 2130290.433500780258328 ], [ -10785994.828494695946574, 2130290.645903068128973 ], [ -10785994.934058211743832, 2130290.647162080276757 ], [ -10785994.931555302813649, 2130290.859564370475709 ], [ -10785995.248245850205421, 2130290.86334140598774 ], [ -10785995.243240043520927, 2130291.288145992904902 ], [ -10785995.032113006338477, 2130291.285627969074994 ], [ -10785995.030861552804708, 2130291.391829116735607 ], [ -10785994.925298035144806, 2130291.390570104587823 ], [ -10785994.924046579748392, 2130291.496771253179759 ], [ -10785994.712919540703297, 2130291.494253226090223 ] ], [ [ -10785994.930303849279881, 2130290.965765516273677 ], [ -10785994.824740333482623, 2130290.964506502728909 ], [ -10785994.823488879948854, 2130291.0707076494582 ], [ -10785994.929052395746112, 2130291.071966663002968 ], [ -10785994.930303849279881, 2130290.965765516273677 ] ] ] } },
{ "type": "Feature", "properties": { "DN": 1, "AREA": 9.0000000027939672e-06, "ID": 16 }, "geometry": { "type": "Polygon", "coordinates": [ [ [ -10785969.950941583141685, 2130269.424630747176707 ], [ -10785969.954696305096149, 2130269.106027697678655 ], [ -10785970.271386459469795, 2130269.109805095009506 ], [ -10785970.267631744965911, 2130269.428408144507557 ], [ -10785969.950941583141685, 2130269.424630747176707 ] ] ] } },
{ "type": "Feature", "properties": { "DN": 1, "AREA": 8.0000000009313225e-06, "ID": 17 }, "geometry": { "type": "Polygon", "coordinates": [ [ [ -10785946.699026472866535, 2130235.689283047802746 ], [ -10785946.704033181071281, 2130235.264479751698673 ], [ -10785946.915159566327929, 2130235.266998224426061 ], [ -10785946.910152861848474, 2130235.691801521461457 ], [ -10785946.699026472866535, 2130235.689283047802746 ] ] ] } },
{ "type": "Feature", "properties": { "DN": 1, "AREA": 2.9999999997671694e-06, "ID": 18 }, "geometry": { "type": "Polygon", "coordinates": [ [ [ -10785948.226977908983827, 2130231.458879720885307 ], [ -10785948.228229574859142, 2130231.352678916882724 ], [ -10785948.333792749792337, 2130231.3539381432347 ], [ -10785948.335044413805008, 2130231.247737340629101 ], [ -10785948.440607585012913, 2130231.248996566515416 ], [ -10785948.438104253262281, 2130231.461398173123598 ], [ -10785948.226977908983827, 2130231.458879720885307 ] ] ] } },
{ "type": "Feature", "properties": { "DN": 2, "AREA": 8.0000000020954761e-06, "ID": 19 }, "geometry": { "type": "Polygon", "coordinates": [ [ [ -10785960.525696074590087, 2130218.116188440471888 ], [ -10785960.529450852423906, 2130217.797586219385266 ], [ -10785960.740577068179846, 2130217.800104523077607 ], [ -10785960.739325476810336, 2130217.906305262818933 ], [ -10785960.844888584688306, 2130217.90756441373378 ], [ -10785960.842385403811932, 2130218.119965895079076 ], [ -10785960.525696074590087, 2130218.116188440471888 ] ] ] } },
{ "type": "Feature", "properties": { "DN": 3, "AREA": 2.2999999999767168e-05, "ID": 20 }, "geometry": { "type": "Polygon", "coordinates": [ [ [ -10786062.625440718606114, 2130459.595173290465027 ], [ -10786062.632947890087962, 2130458.957960846368223 ], [ -10786062.844076786190271, 2130458.960478350054473 ], [ -10786062.845327980816364, 2130458.854276277124882 ], [ -10786063.162021324038506, 2130458.858052527997643 ], [ -10786063.159518940374255, 2130459.070456673856825 ], [ -10786063.053954489529133, 2130459.069197923876345 ], [ -10786063.05270329862833, 2130459.17539999820292 ], [ -10786062.947138847783208, 2130459.174141247756779 ], [ -10786062.943385267630219, 2130459.492747471202165 ], [ -10786062.837820816785097, 2130459.491488720290363 ], [ -10786062.836569622159004, 2130459.59769079554826 ], [ -10786062.625440718606114, 2130459.595173290465027 ] ] ] } },
{ "type": "Feature", "properties": { "DN": 3, "AREA": 3.2999999996274711e-05, "ID": 21 }, "geometry": { "type": "Polygon", "coordinates": [ [ [ -10786024.154487751424313, 2130454.037993142846972 ], [ -10786024.159493338316679, 2130453.613185056485236 ], [ -10786024.370622131973505, 2130453.615702966693789 ], [ -10786024.371873527765274, 2130453.509500945918262 ], [ -10786024.688566714525223, 2130453.513277805410326 ], [ -10786024.689818110316992, 2130453.407075786497444 ], [ -10786025.006511297076941, 2130453.410852640867233 ], [ -10786025.004008512943983, 2130453.623256682418287 ], [ -10786024.792879719287157, 2130453.62073877826333 ], [ -10786024.787874145433307, 2130454.045546867419034 ], [ -10786024.154487751424313, 2130454.037993142846972 ] ] ] } },
{ "type": "Feature", "properties": { "DN": 3, "AREA": 8.0000000009313225e-06, "ID": 22 }, "geometry": { "type": "Polygon", "coordinates": [ [ [ -10786031.052012758329511, 2130442.117739613167942 ], [ -10786031.054515464231372, 2130441.905335685238242 ], [ -10786031.160079803317785, 2130441.906594596337527 ], [ -10786031.161331154406071, 2130441.800392632838339 ], [ -10786031.372459830716252, 2130441.802910453174263 ], [ -10786031.368705777451396, 2130442.121516344603151 ], [ -10786031.052012758329511, 2130442.117739613167942 ] ] ] } },
{ "type": "Feature", "properties": { "DN": 3, "AREA": 4.0000000004656613e-06, "ID": 23 }, "geometry": { "type": "Polygon", "coordinates": [ [ [ -10786077.733977744355798, 2130440.762487369589508 ], [ -10786077.736479952931404, 2130440.55008339881897 ], [ -10786077.947608672082424, 2130440.552600718103349 ], [ -10786077.945106467232108, 2130440.765004689339548 ], [ -10786077.733977744355798, 2130440.762487369589508 ] ] ] } },
{ "type": "Feature", "properties": { "DN": 3, "AREA": 9.9999999837018553e-07, "ID": 24 }, "geometry": { "type": "Polygon", "coordinates": [ [ [ -10786078.051921930164099, 2130440.660061361268163 ], [ -10786078.053173031657934, 2130440.553859376348555 ], [ -10786078.158737393096089, 2130440.555118035059422 ], [ -10786078.157486291602254, 2130440.66132001997903 ], [ -10786078.051921930164099, 2130440.660061361268163 ] ] ] } },
{ "type": "Feature", "properties": { "DN": 3, "AREA": 9.4999999998835843e-05, "ID": 25 }, "geometry": { "type": "Polygon", "coordinates": [ [ [ -10786030.858403028920293, 2130440.628394345287234 ], [ -10786030.859654381871223, 2130440.522192390169948 ], [ -10786030.754090052098036, 2130440.52093347767368 ], [ -10786030.755341405048966, 2130440.414731522090733 ], [ -10786030.649777077138424, 2130440.413472610525787 ], [ -10786030.651028428226709, 2130440.30727065494284 ], [ -10786030.545464098453522, 2130440.306011742446572 ], [ -10786030.549218162894249, 2130439.98740588221699 ], [ -10786030.443653834983706, 2130439.986146968789399 ], [ -10786030.444905189797282, 2130439.87994501600042 ], [ -10786030.33934086188674, 2130439.878686102572829 ], [ -10786030.340592218562961, 2130439.772484150715172 ], [ -10786030.235027890652418, 2130439.771225235890597 ], [ -10786030.238781958818436, 2130439.452619384974241 ], [ -10786030.344346283003688, 2130439.453878298867494 ], [ -10786030.345597637817264, 2130439.347676348872483 ], [ -10786030.451161963865161, 2130439.348935262300074 ], [ -10786030.456167381256819, 2130438.924127469304949 ], [ -10786030.245038736611605, 2130438.921609643381089 ], [ -10786030.251295512542129, 2130438.390599915292114 ], [ -10786030.567988470196724, 2130438.394376653246582 ], [ -10786030.565485762432218, 2130438.606780542060733 ], [ -10786030.67105008661747, 2130438.608039454557002 ], [ -10786030.669798731803894, 2130438.714241399429739 ], [ -10786030.775363054126501, 2130438.715500310994685 ], [ -10786030.767854936420918, 2130439.352711998391896 ], [ -10786030.873419262468815, 2130439.353970909956843 ], [ -10786030.870916556566954, 2130439.566374809015542 ], [ -10786030.976480882614851, 2130439.56763372104615 ], [ -10786030.975229531526566, 2130439.673835671041161 ], [ -10786031.080793857574463, 2130439.675094581209123 ], [ -10786031.069531692191958, 2130440.630912166554481 ], [ -10786030.858403028920293, 2130440.628394345287234 ] ] ] } },
{ "type": "Feature", "properties": { "DN": 3, "AREA": 5.0000000034924596e-06, "ID": 26 }, "geometry": { "type": "Polygon", "coordinates": [ [ [ -10786031.833508966490626, 2130438.515685497783124 ], [ -10786031.837263004854321, 2130438.197079662699252 ], [ -10786032.0483916439116, 2130438.199597470462322 ], [ -10786032.0458889529109, 2130438.41200136160478 ], [ -10786031.940324634313583, 2130438.410742457024753 ], [ -10786031.939073286950588, 2130438.516944402828813 ], [ -10786031.833508966490626, 2130438.515685497783124 ] ] ] } },
{ "type": "Feature", "properties": { "DN": 3, "AREA": 4.9999999996507536e-05, "ID": 27 }, "geometry": { "type": "Polygon", "coordinates": [ [ [ -10786034.046605719253421, 2130438.860728222411126 ], [ -10786034.0478570535779, 2130438.754526273347437 ], [ -10786033.731164082884789, 2130438.750749590806663 ], [ -10786033.734918093308806, 2130438.432143749203533 ], [ -10786033.629353772848845, 2130438.430884853936732 ], [ -10786033.631856445223093, 2130438.218480961862952 ], [ -10786033.526292124763131, 2130438.21722206659615 ], [ -10786033.531297473236918, 2130437.792414289433509 ], [ -10786033.847990429028869, 2130437.796190973371267 ], [ -10786033.84673909470439, 2130437.902392917312682 ], [ -10786033.952303413301706, 2130437.903651810716838 ], [ -10786033.949800744652748, 2130438.11605569999665 ], [ -10786034.160929383710027, 2130438.118573485407978 ], [ -10786034.158426715061069, 2130438.330977376550436 ], [ -10786034.369555359706283, 2130438.333495160099119 ], [ -10786034.363298691809177, 2130438.864504899829626 ], [ -10786034.046605719253421, 2130438.860728222411126 ] ] ] } },
{ "type": "Feature", "properties": { "DN": 3, "AREA": 0.00027599999999487773, "ID": 28 }, "geometry": { "type": "Polygon", "coordinates": [ [ [ -10786118.523105654865503, 2130437.743621919304132 ], [ -10786118.525607421994209, 2130437.531217929907143 ], [ -10786118.208914315328002, 2130437.527442608494312 ], [ -10786118.210165202617645, 2130437.421240615658462 ], [ -10786117.999036466702819, 2130437.418723732698709 ], [ -10786118.000287353992462, 2130437.312521740328521 ], [ -10786117.894722985103726, 2130437.311263296753168 ], [ -10786117.89597387239337, 2130437.205061305779964 ], [ -10786117.790409505367279, 2130437.20380286173895 ], [ -10786117.786656841635704, 2130437.522408840246499 ], [ -10786117.575528105720878, 2130437.519891952164471 ], [ -10786117.576778994873166, 2130437.413689959328622 ], [ -10786117.260085891932249, 2130437.409914623014629 ], [ -10786117.257584109902382, 2130437.622318609151989 ], [ -10786116.94089100509882, 2130437.618543268181384 ], [ -10786116.944643680006266, 2130437.299937290605158 ], [ -10786116.416821848601103, 2130437.293645045720041 ], [ -10786116.415570951998234, 2130437.399847037158906 ], [ -10786115.993313485756516, 2130437.394813229795545 ], [ -10786115.997066177427769, 2130437.076207256875932 ], [ -10786115.891501814126968, 2130437.074948803987354 ], [ -10786115.89650540240109, 2130436.650140848010778 ], [ -10786116.107634127140045, 2130436.652657752856612 ], [ -10786116.110135920345783, 2130436.440253778360784 ], [ -10786116.215700281783938, 2130436.44151223031804 ], [ -10786116.220703862607479, 2130436.016704286914319 ], [ -10786116.431832581758499, 2130436.01922118710354 ], [ -10786116.43058168888092, 2130436.125423172488809 ], [ -10786116.53614604845643, 2130436.126681622117758 ], [ -10786116.537396943196654, 2130436.020479636732489 ], [ -10786116.85409002378583, 2130436.024254981428385 ], [ -10786116.852839130908251, 2130436.130456966813654 ], [ -10786117.275096572935581, 2130436.135490752290934 ], [ -10786117.271343903616071, 2130436.454096713103354 ], [ -10786117.376908265054226, 2130436.45535515807569 ], [ -10786117.371904706582427, 2130436.880163112655282 ], [ -10786117.477469073608518, 2130436.881421557161957 ], [ -10786117.478719960898161, 2130436.775219568517059 ], [ -10786117.584284326061606, 2130436.776478012558073 ], [ -10786117.588036991655827, 2130436.457872046157718 ], [ -10786117.799165716394782, 2130436.460388932842761 ], [ -10786117.797914829105139, 2130436.566590921021998 ], [ -10786117.903479194268584, 2130436.567849362734705 ], [ -10786117.900977419689298, 2130436.780253341887146 ], [ -10786118.32323488034308, 2130436.785287105944008 ], [ -10786118.325736647471786, 2130436.572883127257228 ], [ -10786118.642429737374187, 2130436.576658444013447 ], [ -10786118.639927973970771, 2130436.789062423631549 ], [ -10786118.956621067598462, 2130436.792837735731155 ], [ -10786118.951617544516921, 2130437.21764570241794 ], [ -10786119.057181911543012, 2130437.218904139474034 ], [ -10786119.052178390324116, 2130437.6437121136114 ], [ -10786118.94661401771009, 2130437.64245367795229 ], [ -10786118.945363136008382, 2130437.748655672650784 ], [ -10786118.523105654865503, 2130437.743621919304132 ] ] ] } },
{ "type": "Feature", "properties": { "DN": 3, "AREA": 4.0000000003492462e-05, "ID": 29 }, "geometry": { "type": "Polygon", "coordinates": [ [ [ -10786033.759944807738066, 2130436.308104929979891 ], [ -10786033.76119614392519, 2130436.201902994420379 ], [ -10786033.655631832778454, 2130436.200644101481885 ], [ -10786033.663139846175909, 2130435.563432502560318 ], [ -10786033.557575538754463, 2130435.562173608224839 ], [ -10786033.558826873078942, 2130435.455971677787602 ], [ -10786033.664391180500388, 2130435.457230571191758 ], [ -10786033.665642514824867, 2130435.351028640754521 ], [ -10786033.982335431501269, 2130435.35480531770736 ], [ -10786033.979832764714956, 2130435.567209179513156 ], [ -10786034.085397073999047, 2130435.568468071054667 ], [ -10786034.084145737811923, 2130435.674670002888888 ], [ -10786034.189710048958659, 2130435.675928893499076 ], [ -10786034.18220205232501, 2130436.313140498008579 ], [ -10786033.759944807738066, 2130436.308104929979891 ] ] ] } },
{ "type": "Feature", "properties": { "DN": 3, "AREA": 1.199999999674037e-05, "ID": 30 }, "geometry": { "type": "Polygon", "coordinates": [ [ [ -10786087.500945471227169, 2130436.20539457956329 ], [ -10786087.507200710475445, 2130435.674384747166187 ], [ -10786087.718329390510917, 2130435.676901955157518 ], [ -10786087.717078346759081, 2130435.783103921450675 ], [ -10786087.822642687708139, 2130435.78436252521351 ], [ -10786087.820140592753887, 2130435.996766457334161 ], [ -10786087.714576249942183, 2130435.995507853571326 ], [ -10786087.712074154987931, 2130436.207911788951606 ], [ -10786087.500945471227169, 2130436.20539457956329 ] ] ] } },
{ "type": "Feature", "properties": { "DN": 3, "AREA": 2.0000000013969838e-06, "ID": 31 }, "geometry": { "type": "Polygon", "coordinates": [ [ [ -10786033.560078211128712, 2130435.349769746884704 ], [ -10786033.562580881640315, 2130435.137365888338536 ], [ -10786033.668145185336471, 2130435.138624781742692 ], [ -10786033.665642514824867, 2130435.351028640754521 ], [ -10786033.560078211128712, 2130435.349769746884704 ] ] ] } },
{ "type": "Feature", "properties": { "DN": 3, "AREA": 0.00018900000000279406, "ID": 32 }, "geometry": { "type": "Polygon", "coordinates": [ [ [ -10786090.553554218262434, 2130436.985307691153139 ], [ -10786090.554805250838399, 2130436.879105716943741 ], [ -10786090.44924090243876, 2130436.877847128082067 ], [ -10786090.451742969453335, 2130436.665443182457238 ], [ -10786090.557307317852974, 2130436.666701771784574 ], [ -10786090.559809381142259, 2130436.454297827556729 ], [ -10786090.665373727679253, 2130436.455556416418403 ], [ -10786090.666624760255218, 2130436.349354445468634 ], [ -10786090.561060413718224, 2130436.34809585660696 ], [ -10786090.562311444431543, 2130436.241893887054175 ], [ -10786090.351182755082846, 2130436.239376708399504 ], [ -10786090.349931722506881, 2130436.345578678417951 ], [ -10786089.716545650735497, 2130436.338027129415423 ], [ -10786089.715294614434242, 2130436.44422909989953 ], [ -10786089.504165923222899, 2130436.441711911931634 ], [ -10786089.5054169613868, 2130436.335509942378849 ], [ -10786089.399852614849806, 2130436.334251347929239 ], [ -10786089.401103656738997, 2130436.228049377445132 ], [ -10786088.978846279904246, 2130436.223014994058758 ], [ -10786088.985101480036974, 2130435.692005156539381 ], [ -10786089.090665820986032, 2130435.693263753317297 ], [ -10786089.093167899176478, 2130435.480859821662307 ], [ -10786088.882039221003652, 2130435.478342628572136 ], [ -10786088.885792342945933, 2130435.159736735746264 ], [ -10786089.096921019256115, 2130435.162253928836435 ], [ -10786089.095669979229569, 2130435.268455892335624 ], [ -10786089.201234318315983, 2130435.269714488647878 ], [ -10786089.198732240125537, 2130435.4821184175089 ], [ -10786089.304296581074595, 2130435.48337701195851 ], [ -10786089.305547619238496, 2130435.37717504799366 ], [ -10786089.622240638360381, 2130435.380950829479843 ], [ -10786089.620989603921771, 2130435.487152793910354 ], [ -10786089.937682624906301, 2130435.490928571205586 ], [ -10786089.938933657482266, 2130435.384726605843753 ], [ -10786090.255626678466797, 2130435.38850237801671 ], [ -10786090.253124613314867, 2130435.6009063096717 ], [ -10786090.358688954263926, 2130435.602164899464697 ], [ -10786090.357437919825315, 2130435.708366866223514 ], [ -10786090.463002262637019, 2130435.709625454619527 ], [ -10786090.464253295212984, 2130435.603423488326371 ], [ -10786090.780946319922805, 2130435.607199252117425 ], [ -10786090.77844426035881, 2130435.819603187032044 ], [ -10786090.989572945982218, 2130435.822120359633118 ], [ -10786090.988321917131543, 2130435.92832232825458 ], [ -10786091.093886258080602, 2130435.929580914787948 ], [ -10786091.092635229229927, 2130436.035782883409411 ], [ -10786091.198199573904276, 2130436.037041468545794 ], [ -10786091.196948545053601, 2130436.143243437632918 ], [ -10786091.30251288972795, 2130436.144502022769302 ], [ -10786091.298759805038571, 2130436.463107935152948 ], [ -10786091.087631111964583, 2130436.460590763948858 ], [ -10786091.08262699469924, 2130436.885398654732853 ], [ -10786090.977062646299601, 2130436.884140069130808 ], [ -10786090.975811615586281, 2130436.990342042874545 ], [ -10786090.553554218262434, 2130436.985307691153139 ] ] ] } },
{ "type": "Feature", "properties": { "DN": 3, "AREA": 4.3000000004423777e-05, "ID": 33 }, "geometry": { "type": "Polygon", "coordinates": [ [ [ -10786088.03252032212913, 2130435.893081695772707 ], [ -10786088.033771367743611, 2130435.78687972901389 ], [ -10786087.928207028657198, 2130435.7856211271137 ], [ -10786087.929458072409034, 2130435.679419161286205 ], [ -10786087.718329390510917, 2130435.676901955157518 ], [ -10786087.719580437988043, 2130435.570699990727007 ], [ -10786087.508451759815216, 2130435.568182783201337 ], [ -10786087.51220490410924, 2130435.249576891306788 ], [ -10786088.040026593953371, 2130435.255869905930012 ], [ -10786088.037524502724409, 2130435.468273832928389 ], [ -10786088.354217521846294, 2130435.472049635834992 ], [ -10786088.352966478094459, 2130435.578251601196826 ], [ -10786088.775223840028048, 2130435.583285996224731 ], [ -10786088.771470716223121, 2130435.9018918951042 ], [ -10786088.03252032212913, 2130435.893081695772707 ] ] ] } },
{ "type": "Feature", "properties": { "DN": 3, "AREA": 0.0002230000000102446, "ID": 34 }, "geometry": { "type": "Polygon", "coordinates": [ [ [ -10786068.966663477942348, 2130432.16060131508857 ], [ -10786068.967914622277021, 2130432.05439937999472 ], [ -10786068.862350311130285, 2130432.053140677977353 ], [ -10786068.861099166795611, 2130432.159342613071203 ], [ -10786068.649970546364784, 2130432.156825206708163 ], [ -10786068.651221694424748, 2130432.050623272545636 ], [ -10786068.123400148004293, 2130432.04432974755764 ], [ -10786068.124651297926903, 2130431.938127813395113 ], [ -10786067.913522679358721, 2130431.935610399581492 ], [ -10786067.919778430834413, 2130431.404600739944726 ], [ -10786067.814214125275612, 2130431.403342032805085 ], [ -10786067.81796757504344, 2130431.084736242890358 ], [ -10786067.923531878739595, 2130431.085994951426983 ], [ -10786067.924783028662205, 2130430.979793021921068 ], [ -10786068.135911636054516, 2130430.982310434337705 ], [ -10786068.133409338071942, 2130431.194714292883873 ], [ -10786068.238973645493388, 2130431.19597299862653 ], [ -10786068.237722495570779, 2130431.302174928598106 ], [ -10786068.554415410384536, 2130431.305951041635126 ], [ -10786068.5556665584445, 2130431.199749112129211 ], [ -10786068.661230862140656, 2130431.20100781461224 ], [ -10786068.66248201020062, 2130431.094805884640664 ], [ -10786068.979174921289086, 2130431.098581990227103 ], [ -10786068.977923776954412, 2130431.20478392066434 ], [ -10786069.189052388072014, 2130431.20730132330209 ], [ -10786069.190303530544043, 2130431.101099391933531 ], [ -10786069.5069964453578, 2130431.104875490069389 ], [ -10786069.505745302885771, 2130431.211077420040965 ], [ -10786069.611309608444571, 2130431.212336118333042 ], [ -10786069.610058467835188, 2130431.31853804923594 ], [ -10786069.821187080815434, 2130431.321055444423109 ], [ -10786069.822438219562173, 2130431.21485351305455 ], [ -10786070.033566832542419, 2130431.217370905447751 ], [ -10786070.031064555048943, 2130431.429774768650532 ], [ -10786070.136628862470388, 2130431.431033464148641 ], [ -10786070.13788, 2130431.324831532780081 ], [ -10786070.243444306775928, 2130431.326090226881206 ], [ -10786070.244695443660021, 2130431.219888295512646 ], [ -10786070.350259749218822, 2130431.221146989613771 ], [ -10786070.351510886102915, 2130431.114945058245212 ], [ -10786070.562639497220516, 2130431.117462445516139 ], [ -10786070.557634953409433, 2130431.542270172387362 ], [ -10786070.663199262693524, 2130431.543528866022825 ], [ -10786070.660696990787983, 2130431.755932732485235 ], [ -10786070.871825609356165, 2130431.758450116962194 ], [ -10786070.868072206154466, 2130432.077055922243744 ], [ -10786070.551379274576902, 2130432.073279844131321 ], [ -10786070.552630409598351, 2130431.967077909037471 ], [ -10786070.235937479883432, 2130431.963301827199757 ], [ -10786070.234686341136694, 2130432.069503761827946 ], [ -10786069.81242910027504, 2130432.064468977507204 ], [ -10786069.811177959665656, 2130432.170670913066715 ], [ -10786068.966663477942348, 2130432.16060131508857 ] ] ] } },
{ "type": "Feature", "properties": { "DN": 3, "AREA": 0.00013700000000256115, "ID": 35 }, "geometry": { "type": "Polygon", "coordinates": [ [ [ -10786022.970664363354445, 2130429.062907996587455 ], [ -10786022.973167140036821, 2130428.850504216738045 ], [ -10786022.762038610875607, 2130428.847986322361976 ], [ -10786022.76329, 2130428.741784433834255 ], [ -10786022.657725738361478, 2130428.740525485947728 ], [ -10786022.658977124840021, 2130428.634323597420007 ], [ -10786022.553412862122059, 2130428.63306464953348 ], [ -10786022.55716703273356, 2130428.314458987209946 ], [ -10786022.451602771878242, 2130428.313200037926435 ], [ -10786022.456608332693577, 2130427.888392498251051 ], [ -10786022.351044073700905, 2130427.887133548501879 ], [ -10786022.352295463904738, 2130427.780931665096432 ], [ -10786022.246731204912066, 2130427.77967271534726 ], [ -10786022.245479814708233, 2130427.88587459968403 ], [ -10786022.034351298585534, 2130427.88335669785738 ], [ -10786022.036854082718492, 2130427.670952931512147 ], [ -10786021.931289825588465, 2130427.669693980365992 ], [ -10786021.937546787783504, 2130427.138684574048966 ], [ -10786022.043111043050885, 2130427.13994352472946 ], [ -10786022.044362435117364, 2130427.033741645049304 ], [ -10786022.1499266885221, 2130427.035000595729798 ], [ -10786022.153680862858891, 2130426.716394959948957 ], [ -10786022.364809367805719, 2130426.718912858515978 ], [ -10786022.366060758009553, 2130426.612710981629789 ], [ -10786022.471625009551644, 2130426.613969928584993 ], [ -10786022.470373621210456, 2130426.720171806868166 ], [ -10786022.575937872752547, 2130426.72143075382337 ], [ -10786022.57343509607017, 2130426.933834510855377 ], [ -10786022.467870840802789, 2130426.932575563900173 ], [ -10786022.4666194524616, 2130427.038777443114668 ], [ -10786022.677747962996364, 2130427.041295337956399 ], [ -10786022.670239631086588, 2130427.67850662721321 ], [ -10786022.775803888216615, 2130427.679765573702753 ], [ -10786022.774552498012781, 2130427.7859674571082 ], [ -10786022.880116757005453, 2130427.787226403597742 ], [ -10786022.87886537052691, 2130427.893428288400173 ], [ -10786022.984429627656937, 2130427.894687234424055 ], [ -10786022.983178243041039, 2130428.000889119226485 ], [ -10786023.08874250203371, 2130428.002148065250367 ], [ -10786023.087491113692522, 2130428.108349949587137 ], [ -10786023.298619635403156, 2130428.110867839772254 ], [ -10786023.297368250787258, 2130428.217069726902992 ], [ -10786023.402932511642575, 2130428.218328670598567 ], [ -10786023.395424198359251, 2130428.855539999436587 ], [ -10786023.289859933778644, 2130428.854281054344028 ], [ -10786023.288608549162745, 2130428.960482944268733 ], [ -10786023.183044280856848, 2130428.959223998244852 ], [ -10786023.18179289624095, 2130429.065425890032202 ], [ -10786022.970664363354445, 2130429.062907996587455 ] ] ] } },
{ "type": "Feature", "properties": { "DN": 3, "AREA": 4.0000000004656613e-06, "ID": 36 }, "geometry": { "type": "Polygon", "coordinates": [ [ [ -10786043.090440090745687, 2130423.992003160063177 ], [ -10786043.092942643910646, 2130423.779599408153445 ], [ -10786043.304071145132184, 2130423.782117079012096 ], [ -10786043.30156859010458, 2130423.994520829990506 ], [ -10786043.090440090745687, 2130423.992003160063177 ] ] ] } },
{ "type": "Feature", "properties": { "DN": 3, "AREA": 2.6999999999068679e-05, "ID": 37 }, "geometry": { "type": "Polygon", "coordinates": [ [ [ -10786007.71596703119576, 2130415.497663285583258 ], [ -10786007.718469953164458, 2130415.285259666852653 ], [ -10786007.612905770540237, 2130415.284000646788627 ], [ -10786007.61666015535593, 2130414.965395223349333 ], [ -10786007.827788518741727, 2130414.967913263477385 ], [ -10786007.825285596773028, 2130415.180316878482699 ], [ -10786007.930849779397249, 2130415.181575898081064 ], [ -10786007.933352699503303, 2130414.969172282144427 ], [ -10786008.144481062889099, 2130414.971690319012851 ], [ -10786008.141978146508336, 2130415.184093934483826 ], [ -10786008.458670696243644, 2130415.187870985362679 ], [ -10786008.456167779862881, 2130415.400274604093283 ], [ -10786008.139475228264928, 2130415.396497552283108 ], [ -10786008.138223769143224, 2130415.502699362579733 ], [ -10786007.71596703119576, 2130415.497663285583258 ] ] ] } },
{ "type": "Feature", "properties": { "DN": 3, "AREA": 2.9999999998835845e-05, "ID": 38 }, "geometry": { "type": "Polygon", "coordinates": [ [ [ -10786009.402491085231304, 2130415.730211160611361 ], [ -10786009.404993992298841, 2130415.517807537689805 ], [ -10786009.299429804086685, 2130415.516548526007682 ], [ -10786009.303184162825346, 2130415.197943096514791 ], [ -10786009.19761997833848, 2130415.196684084367007 ], [ -10786009.200122887268662, 2130414.984280467499048 ], [ -10786009.833507983013988, 2130414.991834529209882 ], [ -10786009.831005083397031, 2130415.204238147474825 ], [ -10786009.72544089704752, 2130415.202979138121009 ], [ -10786009.719183646142483, 2130415.733988191001117 ], [ -10786009.402491085231304, 2130415.730211160611361 ] ] ] } },
{ "type": "Feature", "properties": { "DN": 3, "AREA": 0.00014500000000116416, "ID": 39 }, "geometry": { "type": "Polygon", "coordinates": [ [ [ -10786090.222916755825281, 2130411.276894913520664 ], [ -10786090.22416777536273, 2130411.170693075750023 ], [ -10786090.013039350509644, 2130411.168175924569368 ], [ -10786090.014290371909738, 2130411.061974087264389 ], [ -10786089.90872616134584, 2130411.060715510509908 ], [ -10786089.912479219958186, 2130410.742110001388937 ], [ -10786089.806915011256933, 2130410.740851425100118 ], [ -10786089.813170114532113, 2130410.209842256270349 ], [ -10786090.024298526346684, 2130410.212359408382326 ], [ -10786090.029302602633834, 2130409.787552081979811 ], [ -10786090.240431010723114, 2130409.790069230366498 ], [ -10786090.237928975373507, 2130410.002472894266248 ], [ -10786090.55462159588933, 2130410.00624861381948 ], [ -10786090.552119562402368, 2130410.218652278650552 ], [ -10786090.65768376737833, 2130410.219910851214081 ], [ -10786090.656432753428817, 2130410.326112684328109 ], [ -10786090.76199696213007, 2130410.327371256891638 ], [ -10786090.760745944455266, 2130410.433573090936989 ], [ -10786090.971874361857772, 2130410.436090233270079 ], [ -10786090.973125375807285, 2130410.329888399224728 ], [ -10786091.184253791347146, 2130410.332405539229512 ], [ -10786091.185504805296659, 2130410.2262037047185 ], [ -10786091.291069012135267, 2130410.2274622740224 ], [ -10786091.292320026084781, 2130410.121260440908372 ], [ -10786091.609012646600604, 2130410.125036144629121 ], [ -10786091.607761634513736, 2130410.231237977743149 ], [ -10786091.713325843214989, 2130410.232496544253081 ], [ -10786091.712074834853411, 2130410.338698379229754 ], [ -10786091.817639043554664, 2130410.339956945274025 ], [ -10786091.815137021243572, 2130410.55236061476171 ], [ -10786091.709572812542319, 2130410.551102048717439 ], [ -10786091.707070793956518, 2130410.763505720067769 ], [ -10786091.390378160402179, 2130410.759730016812682 ], [ -10786091.387876136228442, 2130410.97213369095698 ], [ -10786090.860055079683661, 2130410.96584084071219 ], [ -10786090.86130609549582, 2130410.859639003872871 ], [ -10786090.755741883069277, 2130410.858380432240665 ], [ -10786090.754490867257118, 2130410.964582268148661 ], [ -10786090.64892665669322, 2130410.963323696050793 ], [ -10786090.646424623206258, 2130411.175727372057736 ], [ -10786090.540860410779715, 2130411.174468798097223 ], [ -10786090.539609394967556, 2130411.280670636333525 ], [ -10786090.222916755825281, 2130411.276894913520664 ] ] ] } },
{ "type": "Feature", "properties": { "DN": 3, "AREA": 0.00015299999999394644, "ID": 40 }, "geometry": { "type": "Polygon", "coordinates": [ [ [ -10786092.264916010200977, 2130408.220954623073339 ], [ -10786092.26616701669991, 2130408.114752799738199 ], [ -10786091.949474425986409, 2130408.11097711045295 ], [ -10786091.948223419487476, 2130408.21717893332243 ], [ -10786091.63153082691133, 2130408.213403238449246 ], [ -10786091.635283855721354, 2130407.894797772169113 ], [ -10786091.213027073070407, 2130407.889763506129384 ], [ -10786091.218031119555235, 2130407.464956225361675 ], [ -10786091.323595313355327, 2130407.466214793268591 ], [ -10786091.32484632357955, 2130407.360012974590063 ], [ -10786091.430410515516996, 2130407.361271541099995 ], [ -10786091.43166152574122, 2130407.255069722887129 ], [ -10786091.537225717678666, 2130407.256328288465738 ], [ -10786091.538476726040244, 2130407.150126471184194 ], [ -10786091.644040917977691, 2130407.151385036762804 ], [ -10786091.642789909616113, 2130407.257586854044348 ], [ -10786092.276175063103437, 2130407.26513823447749 ], [ -10786092.278677074238658, 2130407.052734598983079 ], [ -10786092.384241264313459, 2130407.053993158973753 ], [ -10786092.386743273586035, 2130406.841589525341988 ], [ -10786092.597871653735638, 2130406.844106646254659 ], [ -10786092.594118643552065, 2130407.162712099030614 ], [ -10786092.699682835489511, 2130407.163970657624304 ], [ -10786092.698431832715869, 2130407.270172476302832 ], [ -10786093.015124412253499, 2130407.273948152549565 ], [ -10786093.013873409479856, 2130407.380149971228093 ], [ -10786093.119437603279948, 2130407.381408528890461 ], [ -10786093.118186602368951, 2130407.487610348965973 ], [ -10786093.223750798031688, 2130407.488868905231357 ], [ -10786093.22249979712069, 2130407.595070726238191 ], [ -10786093.433628186583519, 2130407.597587838768959 ], [ -10786093.432377187535167, 2130407.703789659775794 ], [ -10786093.537941381335258, 2130407.705048215575516 ], [ -10786093.536690384149551, 2130407.811250037513673 ], [ -10786093.325561990961432, 2130407.808732925448567 ], [ -10786093.323059991002083, 2130408.021136570721865 ], [ -10786093.006367398425937, 2130408.017360898200423 ], [ -10786093.007618401199579, 2130407.911159075330943 ], [ -10786092.585361616685987, 2130407.906124838162214 ], [ -10786092.581608604639769, 2130408.224730307701975 ], [ -10786092.264916010200977, 2130408.220954623073339 ] ] ] } },
{ "type": "Feature", "properties": { "DN": 3, "AREA": 1.6000000000698493e-05, "ID": 41 }, "geometry": { "type": "Polygon", "coordinates": [ [ [ -10786090.98467655852437, 2130391.423453715164214 ], [ -10786090.98717856220901, 2130391.211050248239189 ], [ -10786091.092742670327425, 2130391.212308806367218 ], [ -10786091.093993671238422, 2130391.106107073370367 ], [ -10786091.199557777494192, 2130391.107365631498396 ], [ -10786091.200808780267835, 2130391.001163899432868 ], [ -10786091.411936990916729, 2130391.003681012894958 ], [ -10786091.410685990005732, 2130391.109882744960487 ], [ -10786091.516250096261501, 2130391.111141301225871 ], [ -10786091.514999099075794, 2130391.217343034222722 ], [ -10786091.620563203468919, 2130391.218601590488106 ], [ -10786091.619312204420567, 2130391.324803323950619 ], [ -10786091.408183990046382, 2130391.322286211885512 ], [ -10786091.406932989135385, 2130391.428487946279347 ], [ -10786090.98467655852437, 2130391.423453715164214 ] ] ] } },
{ "type": "Feature", "properties": { "DN": 3, "AREA": 0.00032099999999953428, "ID": 42 }, "geometry": { "type": "Polygon", "coordinates": [ [ [ -10786083.878877647221088, 2130385.178171039093286 ], [ -10786083.882630754262209, 2130384.859565950464457 ], [ -10786083.777066687121987, 2130384.858307357411832 ], [ -10786083.779568759724498, 2130384.645903968252242 ], [ -10786083.674004694446921, 2130384.644645373802632 ], [ -10786083.675255730748177, 2130384.53844368038699 ], [ -10786083.569691663607955, 2130384.537185086403042 ], [ -10786083.570942701771855, 2130384.430983393453062 ], [ -10786083.465378636494279, 2130384.429724798537791 ], [ -10786083.466629672795534, 2130384.323523106053472 ], [ -10786083.149937476962805, 2130384.319747318979353 ], [ -10786083.151188518851995, 2130384.213545626960695 ], [ -10786082.834496323019266, 2130384.209769834764302 ], [ -10786082.835747364908457, 2130384.103568144142628 ], [ -10786082.730183301493526, 2130384.102309545967728 ], [ -10786082.731434343382716, 2130383.996107855811715 ], [ -10786082.520306216552854, 2130383.993590657133609 ], [ -10786082.521557262167335, 2130383.887388967443258 ], [ -10786082.415993198752403, 2130383.886130367405713 ], [ -10786082.41849528439343, 2130383.673726990353316 ], [ -10786082.312931224703789, 2130383.67246838985011 ], [ -10786082.31543331220746, 2130383.460065014194697 ], [ -10786082.209869250655174, 2130383.458806414157152 ], [ -10786082.211120296269655, 2130383.352604726795107 ], [ -10786081.999992178753018, 2130383.350087524857372 ], [ -10786082.012502631172538, 2130382.288070690818131 ], [ -10786082.223630737513304, 2130382.290587892290205 ], [ -10786082.222379693761468, 2130382.396789573598653 ], [ -10786082.433507801964879, 2130382.399306773673743 ], [ -10786082.432256760075688, 2130382.50550845451653 ], [ -10786082.537820817902684, 2130382.506767053622752 ], [ -10786082.536569772288203, 2130382.612968736328185 ], [ -10786082.74769788607955, 2130382.615485932677984 ], [ -10786082.746446844190359, 2130382.721687615383416 ], [ -10786082.852010902017355, 2130382.722946212626994 ], [ -10786082.850759860128164, 2130382.829147897195071 ], [ -10786083.167452033609152, 2130382.832923686131835 ], [ -10786083.166200991719961, 2130382.939125370234251 ], [ -10786083.377329109236598, 2130382.941642560996115 ], [ -10786083.373575994744897, 2130383.260247617494315 ], [ -10786083.479140054434538, 2130383.261506212409586 ], [ -10786083.477889016270638, 2130383.367707899771631 ], [ -10786083.583453077822924, 2130383.368966492824256 ], [ -10786083.582202039659023, 2130383.475168180651963 ], [ -10786083.898894224315882, 2130383.478943959344178 ], [ -10786083.897643188014627, 2130383.585145647637546 ], [ -10786084.003207249566913, 2130383.586404239758849 ], [ -10786084.001956215128303, 2130383.692605928052217 ], [ -10786084.107520276680589, 2130383.693864519707859 ], [ -10786084.105018207803369, 2130383.9062678986229 ], [ -10786084.316146334633231, 2130383.9087850805372 ], [ -10786084.317397369071841, 2130383.802583390846848 ], [ -10786084.422961432486773, 2130383.803841980639845 ], [ -10786084.421710399910808, 2130383.910043670795858 ], [ -10786084.63283852674067, 2130383.912560848053545 ], [ -10786084.63033646158874, 2130384.124964230693877 ], [ -10786084.735900530591607, 2130384.12622281908989 ], [ -10786084.734649496152997, 2130384.232424511574209 ], [ -10786084.840213563293219, 2130384.233683099038899 ], [ -10786084.836460469290614, 2130384.552288179751486 ], [ -10786084.942024536430836, 2130384.553546767216176 ], [ -10786084.938271446153522, 2130384.872151852585375 ], [ -10786084.832707377150655, 2130384.870893264655024 ], [ -10786084.831456342712045, 2130384.977094960398972 ], [ -10786084.725892273709178, 2130384.975836372934282 ], [ -10786084.724641242995858, 2130385.082038069143891 ], [ -10786084.513513101264834, 2130385.079520890954882 ], [ -10786084.512262068688869, 2130385.185722587630153 ], [ -10786083.878877647221088, 2130385.178171039093286 ] ] ] } },
{ "type": "Feature", "properties": { "DN": 3, "AREA": 4.4000000003958116e-05, "ID": 43 }, "geometry": { "type": "Polygon", "coordinates": [ [ [ -10786066.922629533335567, 2130372.654879777692258 ], [ -10786066.92513177357614, 2130372.44247653754428 ], [ -10786067.030695764347911, 2130372.443735214415938 ], [ -10786067.031946884468198, 2130372.337533594109118 ], [ -10786067.137510877102613, 2130372.338792269583791 ], [ -10786067.13876199349761, 2130372.232590650673956 ], [ -10786067.349889976903796, 2130372.235107999760658 ], [ -10786067.353643327951431, 2130371.916503147222102 ], [ -10786067.564771305769682, 2130371.919020493514836 ], [ -10786067.56352019123733, 2130372.025222111493349 ], [ -10786067.774648172780871, 2130372.027739454526454 ], [ -10786067.77339705824852, 2130372.13394107343629 ], [ -10786067.87896104902029, 2130372.135199744720012 ], [ -10786067.872705480083823, 2130372.666207843460143 ], [ -10786066.922629533335567, 2130372.654879777692258 ] ] ] } },
{ "type": "Feature", "properties": { "DN": 3, "AREA": 1.9557844338808711e-05, "ID": 44 }, "geometry": { "type": "Polygon", "coordinates": [ [ [ -10786074.734365250915289, 2130372.748020290397108 ], [ -10786074.735616330057383, 2130372.641818664968014 ], [ -10786074.630052331835032, 2130372.64056002907455 ], [ -10786074.635056644678116, 2130372.215753533411771 ], [ -10786074.740620639175177, 2130372.217012168373913 ], [ -10786074.74187171831727, 2130372.110810545273125 ], [ -10786074.89844455383718, 2130372.112677354831249 ], [ -10786075.063940988853574, 2130372.327083637937903 ], [ -10786075.056061552837491, 2130372.326989692170173 ], [ -10786075.052308324724436, 2130372.645594565663487 ], [ -10786074.946744326502085, 2130372.64433593256399 ], [ -10786074.945493249222636, 2130372.750537557993084 ], [ -10786074.734365250915289, 2130372.748020290397108 ] ] ] } },
{ "type": "Feature", "properties": { "DN": 3, "AREA": 8.7000000002561144e-05, "ID": 45 }, "geometry": { "type": "Polygon", "coordinates": [ [ [ -10786019.25526387616992, 2130368.050240292679518 ], [ -10786019.257766617462039, 2130367.837837160099298 ], [ -10786019.152202678844333, 2130367.836578230839223 ], [ -10786019.153454050421715, 2130367.730376665014774 ], [ -10786019.047890111804008, 2130367.729117734823376 ], [ -10786019.049141483381391, 2130367.622916170861572 ], [ -10786018.943577546626329, 2130367.621657240204513 ], [ -10786018.944828920066357, 2130367.515455675777048 ], [ -10786018.83926498144865, 2130367.514196744654328 ], [ -10786018.851778704673052, 2130366.452181133907288 ], [ -10786019.062906567007303, 2130366.454698993824422 ], [ -10786019.064157938584685, 2130366.348497435916215 ], [ -10786019.275285799056292, 2130366.351015293505043 ], [ -10786019.2740344312042, 2130366.457216852344573 ], [ -10786019.379598364233971, 2130366.458475779742002 ], [ -10786019.373341515660286, 2130366.989483579527587 ], [ -10786019.478905450552702, 2130366.990742507390678 ], [ -10786019.475151341408491, 2130367.309347195550799 ], [ -10786019.580715280026197, 2130367.310606122482568 ], [ -10786019.57946391031146, 2130367.416807685513049 ], [ -10786019.685027845203876, 2130367.418066612444818 ], [ -10786019.682525109499693, 2130367.630469741299748 ], [ -10786019.788089048117399, 2130367.631728668231517 ], [ -10786019.785586312413216, 2130367.844131799414754 ], [ -10786019.680022373795509, 2130367.842872872948647 ], [ -10786019.678771004080772, 2130367.949074438307434 ], [ -10786019.573207067325711, 2130367.947815511841327 ], [ -10786019.571955697610974, 2130368.054017078131437 ], [ -10786019.25526387616992, 2130368.050240292679518 ] ] ] } },
{ "type": "Feature", "properties": { "DN": 3, "AREA": 5.9999999995343387e-06, "ID": 46 }, "geometry": { "type": "Polygon", "coordinates": [ [ [ -10786018.854281449690461, 2130366.239778019487858 ], [ -10786018.858035564422607, 2130365.921173350419849 ], [ -10786019.069163421168923, 2130365.923691209405661 ], [ -10786019.065409310162067, 2130366.242295878939331 ], [ -10786018.854281449690461, 2130366.239778019487858 ] ] ] } },
{ "type": "Feature", "properties": { "DN": 3, "AREA": 9.1999999994412076e-05, "ID": 47 }, "geometry": { "type": "Polygon", "coordinates": [ [ [ -10786020.655125081539154, 2130365.730171968694776 ], [ -10786020.652622358873487, 2130365.942575081251562 ], [ -10786020.547058427706361, 2130365.941316159907728 ], [ -10786020.540801614522934, 2130366.472323950380087 ], [ -10786020.435237681493163, 2130366.471065029036254 ], [ -10786020.43273495323956, 2130366.683468148577958 ], [ -10786020.327171020209789, 2130366.682209226302803 ], [ -10786020.325919656082988, 2130366.788410786539316 ], [ -10786020.220355723053217, 2130366.787151863798499 ], [ -10786020.222858453169465, 2130366.574748743325472 ], [ -10786020.117294520139694, 2130366.573489819653332 ], [ -10786020.123551346361637, 2130366.04248202778399 ], [ -10786020.017987415194511, 2130366.04122310411185 ], [ -10786020.019238781183958, 2130365.935021547600627 ], [ -10786019.913674851879478, 2130365.933762623462826 ], [ -10786019.916177583858371, 2130365.721359511371702 ], [ -10786019.810613656416535, 2130365.72010058676824 ], [ -10786019.811865022405982, 2130365.613899032585323 ], [ -10786019.706301094964147, 2130365.612640107516199 ], [ -10786019.71255792863667, 2130365.081632343120873 ], [ -10786020.029249703511596, 2130365.085409115534276 ], [ -10786020.027998339384794, 2130365.191610667854548 ], [ -10786020.133562263101339, 2130365.192869590595365 ], [ -10786020.134813627228141, 2130365.086668038740754 ], [ -10786020.240377550944686, 2130365.08792696101591 ], [ -10786020.241628916934133, 2130364.981725409161299 ], [ -10786020.558320688083768, 2130364.985502173192799 ], [ -10786020.553315240889788, 2130365.41030838387087 ], [ -10786020.658879168331623, 2130365.411567304749042 ], [ -10786020.657627806067467, 2130365.51776885939762 ], [ -10786020.763191733509302, 2130365.519027779344469 ], [ -10786020.76068901270628, 2130365.731430889107287 ], [ -10786020.655125081539154, 2130365.730171968694776 ] ], [ [ -10786020.656376445665956, 2130365.623970413114876 ], [ -10786020.339684659615159, 2130365.620193650014699 ], [ -10786020.338433297351003, 2130365.726395204197615 ], [ -10786020.655125081539154, 2130365.730171968694776 ], [ -10786020.656376445665956, 2130365.623970413114876 ] ] ] } },
{ "type": "Feature", "properties": { "DN": 3, "AREA": 2.1999999989755448e-05, "ID": 48 }, "geometry": { "type": "Polygon", "coordinates": [ [ [ -10786006.598411168903112, 2130358.021163199096918 ], [ -10786006.605919757857919, 2130357.383954172022641 ], [ -10786007.028175260871649, 2130357.388990129809827 ], [ -10786007.023169543594122, 2130357.813796146772802 ], [ -10786006.91760566458106, 2130357.812537157442421 ], [ -10786006.915102802217007, 2130358.024940169882029 ], [ -10786006.598411168903112, 2130358.021163199096918 ] ] ] } },
{ "type": "Feature", "properties": { "DN": 3, "AREA": 1.9869775083377208e-07, "ID": 49 }, "geometry": { "type": "Polygon", "coordinates": [ [ [ -10786060.06754239089787, 2130354.091474499087781 ], [ -10786060.068293990567327, 2130354.027676106896251 ], [ -10786060.137375170364976, 2130354.09230715688318 ], [ -10786060.06754239089787, 2130354.091474499087781 ] ] ] } },
{ "type": "Feature", "properties": { "DN": 3, "AREA": 3.9999999981373549e-06, "ID": 50 }, "geometry": { "type": "Polygon", "coordinates": [ [ [ -10785982.114669678732753, 2130348.169671119656414 ], [ -10785982.117172788828611, 2130347.957268243189901 ], [ -10785982.328300410881639, 2130347.959786474239081 ], [ -10785982.32579730078578, 2130348.172189352102578 ], [ -10785982.114669678732753, 2130348.169671119656414 ] ] ] } },
{ "type": "Feature", "properties": { "DN": 3, "AREA": 0.00010667154149332356, "ID": 51 }, "geometry": { "type": "Polygon", "coordinates": [ [ [ -10786054.937451634556055, 2130350.418946237768978 ], [ -10786054.938702804967761, 2130350.312744742725044 ], [ -10786055.044266672804952, 2130350.314003468956798 ], [ -10786055.046769009903073, 2130350.10160047840327 ], [ -10786054.730077411979437, 2130350.097824296914041 ], [ -10786054.731328584253788, 2130349.991622803267092 ], [ -10786054.625764716416597, 2130349.990364075172693 ], [ -10786054.634522914886475, 2130349.246953633148223 ], [ -10786054.740086775273085, 2130349.248212361708283 ], [ -10786054.742589114233851, 2130349.035809382796288 ], [ -10786054.637025255709887, 2130349.03455065516755 ], [ -10786054.639527596533298, 2130348.822147679049522 ], [ -10786054.322836017236114, 2130348.818371493369341 ], [ -10786054.329091876745224, 2130348.287364064250141 ], [ -10786054.434655733406544, 2130348.288622793275863 ], [ -10786054.43590690381825, 2130348.182421308476478 ], [ -10786054.577575052157044, 2130348.184110538568348 ], [ -10786054.645964529365301, 2130348.275769717525691 ], [ -10786054.645783446729183, 2130348.291140248533338 ], [ -10786054.657537484541535, 2130348.29128040233627 ], [ -10786055.16565228998661, 2130348.972282606177032 ], [ -10786055.164844559505582, 2130349.040844288188964 ], [ -10786055.217274535447359, 2130349.041469452902675 ], [ -10786055.269589845091105, 2130349.111585186328739 ], [ -10786055.269157253205776, 2130349.148304502479732 ], [ -10786055.297236973419785, 2130349.148639319464564 ], [ -10786055.373527403920889, 2130349.250887765083462 ], [ -10786055.368465280160308, 2130349.680570682045072 ], [ -10786055.262901414185762, 2130349.679311956744641 ], [ -10786055.25914791226387, 2130349.997916436754167 ], [ -10786055.364711778238416, 2130349.999175161588937 ], [ -10786055.360958276316524, 2130350.317779647186399 ], [ -10786055.149830540642142, 2130350.315262195188552 ], [ -10786055.148579372093081, 2130350.421463691629469 ], [ -10786054.937451634556055, 2130350.418946237768978 ] ] ] } },
{ "type": "Feature", "properties": { "DN": 3, "AREA": 5.1000000006519253e-05, "ID": 52 }, "geometry": { "type": "Polygon", "coordinates": [ [ [ -10786041.560870695859194, 2130347.710247799754143 ], [ -10786041.563373176380992, 2130347.497844853904098 ], [ -10786041.457809330895543, 2130347.496586056426167 ], [ -10786041.459060568362474, 2130347.390384584199637 ], [ -10786041.353496724739671, 2130347.389125786256045 ], [ -10786041.355999207124114, 2130347.17672284366563 ], [ -10786041.461563048884273, 2130347.177981641609222 ], [ -10786041.464065531268716, 2130346.965578701347113 ], [ -10786041.252937845885754, 2130346.963061104994267 ], [ -10786041.255440326407552, 2130346.750658168457448 ], [ -10786041.677695689722896, 2130346.755693356972188 ], [ -10786041.673941973596811, 2130347.074297765735537 ], [ -10786041.77950581535697, 2130347.075556561350822 ], [ -10786041.775752101093531, 2130347.394160973839462 ], [ -10786041.881315946578979, 2130347.395419769454747 ], [ -10786041.882567185908556, 2130347.28921829815954 ], [ -10786041.988131027668715, 2130347.290477092843503 ], [ -10786041.990633500739932, 2130347.07807415118441 ], [ -10786042.201761187985539, 2130347.080591740086675 ], [ -10786042.200509952381253, 2130347.186793210916221 ], [ -10786042.306073796004057, 2130347.188052003737539 ], [ -10786042.301068853586912, 2130347.612857893109322 ], [ -10786042.195505008101463, 2130347.611599099822342 ], [ -10786042.194253770634532, 2130347.717800573911518 ], [ -10786041.560870695859194, 2130347.710247799754143 ] ] ] } },
{ "type": "Feature", "properties": { "DN": 3, "AREA": 5.0000000023283059e-06, "ID": 53 }, "geometry": { "type": "Polygon", "coordinates": [ [ [ -10786039.776295317336917, 2130346.839236403349787 ], [ -10786039.778797814622521, 2130346.626833468675613 ], [ -10786039.88436165265739, 2130346.628092275001109 ], [ -10786039.885612903162837, 2130346.521890808362514 ], [ -10786039.99117673933506, 2130346.523149613756686 ], [ -10786039.987422997131944, 2130346.841754014138132 ], [ -10786039.776295317336917, 2130346.839236403349787 ] ] ] } },
{ "type": "Feature", "properties": { "DN": 3, "AREA": 8.8000000000931327e-05, "ID": 54 }, "geometry": { "type": "Polygon", "coordinates": [ [ [ -10786039.344029949977994, 2130347.683812931645662 ], [ -10786039.345281200483441, 2130347.577611460350454 ], [ -10786039.134153513237834, 2130347.575093841180205 ], [ -10786039.135404765605927, 2130347.468892369884998 ], [ -10786039.029840921983123, 2130347.467633559368551 ], [ -10786039.032343426719308, 2130347.255230619572103 ], [ -10786039.137907270342112, 2130347.256489429622889 ], [ -10786039.139158520847559, 2130347.150287960655987 ], [ -10786039.033594680950046, 2130347.14902915013954 ], [ -10786039.034845933318138, 2130347.042827682103962 ], [ -10786038.92928209155798, 2130347.041568870190531 ], [ -10786038.930533343926072, 2130346.935367403086275 ], [ -10786038.824969505891204, 2130346.934108591172844 ], [ -10786038.827472012490034, 2130346.721705656498671 ], [ -10786038.933035852387547, 2130346.722964467480779 ], [ -10786038.93428710475564, 2130346.616763001307845 ], [ -10786039.039850942790508, 2130346.618021811824292 ], [ -10786039.043604699894786, 2130346.299417415168136 ], [ -10786038.938040861859918, 2130346.298158605583012 ], [ -10786038.940543368458748, 2130346.085755677893758 ], [ -10786039.362798711284995, 2130346.090790914837271 ], [ -10786039.359044959768653, 2130346.409395308233798 ], [ -10786039.464608797803521, 2130346.410654116421938 ], [ -10786039.462106296792626, 2130346.623057047370821 ], [ -10786039.567670138552785, 2130346.624315855558962 ], [ -10786039.566418886184692, 2130346.730517323128879 ], [ -10786039.671982726082206, 2130346.731776129454374 ], [ -10786039.665726482868195, 2130347.262783472891897 ], [ -10786039.771290324628353, 2130347.264042279683053 ], [ -10786039.770039074122906, 2130347.370243749581277 ], [ -10786039.875602917745709, 2130347.371502556372434 ], [ -10786039.874351669102907, 2130347.47770402720198 ], [ -10786039.979915512725711, 2130347.478962833061814 ], [ -10786039.977413017302752, 2130347.691365777049214 ], [ -10786039.344029949977994, 2130347.683812931645662 ] ] ] } },
{ "type": "Feature", "properties": { "DN": 3, "AREA": 1.1999999999068677e-05, "ID": 55 }, "geometry": { "type": "Polygon", "coordinates": [ [ [ -10785990.389509988948703, 2130335.841056182049215 ], [ -10785990.394516009837389, 2130335.416250668466091 ], [ -10785990.711207255721092, 2130335.42002785904333 ], [ -10785990.706201242282987, 2130335.844833372626454 ], [ -10785990.389509988948703, 2130335.841056182049215 ] ] ] } },
{ "type": "Feature", "properties": { "DN": 3, "AREA": 4.0999999991385269e-05, "ID": 56 }, "geometry": { "type": "Polygon", "coordinates": [ [ [ -10785974.416412701830268, 2130329.489993409253657 ], [ -10785974.417664289474487, 2130329.383792073465884 ], [ -10785974.312100579962134, 2130329.382532927207649 ], [ -10785974.332125961780548, 2130327.683311629109085 ], [ -10785974.43768966011703, 2130327.684570774901658 ], [ -10785974.436438074335456, 2130327.790772101376206 ], [ -10785974.542001774534583, 2130327.792031246703118 ], [ -10785974.540750190615654, 2130327.898232574574649 ], [ -10785974.646313888952136, 2130327.899491718970239 ], [ -10785974.642559135332704, 2130328.218095705378801 ], [ -10785974.536995435133576, 2130328.216836560983211 ], [ -10785974.534492265433073, 2130328.429239221848547 ], [ -10785974.640055967494845, 2130328.430498365778476 ], [ -10785974.637552797794342, 2130328.642901028040797 ], [ -10785974.531989093869925, 2130328.641641884110868 ], [ -10785974.53073750808835, 2130328.747843215242028 ], [ -10785974.636301213875413, 2130328.749102360568941 ], [ -10785974.63379804417491, 2130328.96150502609089 ], [ -10785974.528234340250492, 2130328.960245882160962 ], [ -10785974.525731166824698, 2130329.172648550011218 ], [ -10785974.631294874474406, 2130329.173907694872469 ], [ -10785974.628791702911258, 2130329.38631036458537 ], [ -10785974.52322799526155, 2130329.385051219724119 ], [ -10785974.521976409479976, 2130329.491252555046231 ], [ -10785974.416412701830268, 2130329.489993409253657 ] ] ] } },
{ "type": "Feature", "properties": { "DN": 3, "AREA": 1.5999999999534338e-05, "ID": 57 }, "geometry": { "type": "Polygon", "coordinates": [ [ [ -10786009.045872237533331, 2130320.555986522696912 ], [ -10786009.048375027254224, 2130320.343583901878446 ], [ -10786008.942811347544193, 2130320.342324947472662 ], [ -10786008.94781693443656, 2130319.917519714683294 ], [ -10786009.264507969841361, 2130319.921296578366309 ], [ -10786009.256999598816037, 2130320.55850443104282 ], [ -10786009.045872237533331, 2130320.555986522696912 ] ] ] } },
{ "type": "Feature", "properties": { "DN": 3, "AREA": 3.9999999981373549e-06, "ID": 58 }, "geometry": { "type": "Polygon", "coordinates": [ [ [ -10786008.852264428511262, 2130319.066650321241468 ], [ -10786008.854767221957445, 2130318.85424771765247 ], [ -10786009.06589456833899, 2130318.856765625532717 ], [ -10786009.063391776755452, 2130319.069168230053037 ], [ -10786008.852264428511262, 2130319.066650321241468 ] ] ] } },
{ "type": "Feature", "properties": { "DN": 3, "AREA": 8.5999999999534338e-05, "ID": 59 }, "geometry": { "type": "Polygon", "coordinates": [ [ [ -10786008.7567119281739, 2130318.215780963655561 ], [ -10786008.761717515066266, 2130317.790975776501 ], [ -10786008.97284485027194, 2130317.793493684381247 ], [ -10786008.976599033921957, 2130317.474889799952507 ], [ -10786008.871035369113088, 2130317.473630846012384 ], [ -10786008.873538158833981, 2130317.261228259652853 ], [ -10786008.662410829216242, 2130317.258710349909961 ], [ -10786008.666165018454194, 2130316.940106473863125 ], [ -10786008.877292344346642, 2130316.942624382209033 ], [ -10786008.879795134067535, 2130316.730221800506115 ], [ -10786008.774231472983956, 2130316.728962847031653 ], [ -10786008.775482868775725, 2130316.622761556878686 ], [ -10786008.669919209554791, 2130316.62150260200724 ], [ -10786008.673673395067453, 2130316.302898737136275 ], [ -10786008.779237054288387, 2130316.304157691076398 ], [ -10786008.780488448217511, 2130316.197956402786076 ], [ -10786009.097179425880313, 2130316.20173326227814 ], [ -10786009.095928031951189, 2130316.307934549637139 ], [ -10786009.201491693034768, 2130316.309193501248956 ], [ -10786009.200240299105644, 2130316.4153947904706 ], [ -10786009.305803958326578, 2130316.416653742082417 ], [ -10786009.287033064290881, 2130318.00967313721776 ], [ -10786009.181469395756721, 2130318.008414184674621 ], [ -10786009.178966607898474, 2130318.220816780813038 ], [ -10786008.7567119281739, 2130318.215780963655561 ] ] ] } },
{ "type": "Feature", "properties": { "DN": 3, "AREA": 1.7999999998603016e-05, "ID": 60 }, "geometry": { "type": "Polygon", "coordinates": [ [ [ -10786025.059816287830472, 2130314.480205306317657 ], [ -10786025.061067594215274, 2130314.374004018027335 ], [ -10786024.955503936856985, 2130314.372745152097195 ], [ -10786024.960509166121483, 2130313.947940005455166 ], [ -10786025.382763793691993, 2130313.952975464519113 ], [ -10786025.37775857001543, 2130314.377780612558126 ], [ -10786025.272194912657142, 2130314.376521747559309 ], [ -10786025.27094360627234, 2130314.48272303538397 ], [ -10786025.059816287830472, 2130314.480205306317657 ] ] ] } },
{ "type": "Feature", "properties": { "DN": 3, "AREA": 9.7000000011874372e-05, "ID": 61 }, "geometry": { "type": "Polygon", "coordinates": [ [ [ -10786013.235435485839844, 2130314.445410109125078 ], [ -10786013.254206031560898, 2130312.85239095846191 ], [ -10786013.465333320200443, 2130312.854908812325448 ], [ -10786013.464081950485706, 2130312.961110086645931 ], [ -10786013.78077288530767, 2130312.964886863715947 ], [ -10786013.779521519318223, 2130313.071088137105107 ], [ -10786013.885085163637996, 2130313.07234706170857 ], [ -10786013.882582431659102, 2130313.284749611280859 ], [ -10786013.98814607784152, 2130313.286008536349982 ], [ -10786013.985643347725272, 2130313.498411087319255 ], [ -10786014.091206995770335, 2130313.499670011922717 ], [ -10786014.089955629780889, 2130313.605871287640184 ], [ -10786013.984391981735826, 2130313.604612363968045 ], [ -10786013.983140615746379, 2130313.710813641082495 ], [ -10786013.877576965838671, 2130313.709554716013372 ], [ -10786013.875074233859777, 2130313.921957273036242 ], [ -10786013.980637883767486, 2130313.923216197174042 ], [ -10786013.976883785799146, 2130314.241820035502315 ], [ -10786014.082447437569499, 2130314.243078959640115 ], [ -10786014.079944705590606, 2130314.455481521319598 ], [ -10786013.235435485839844, 2130314.445410109125078 ] ] ] } },
{ "type": "Feature", "properties": { "DN": 3, "AREA": 2.7999999999767171e-05, "ID": 62 }, "geometry": { "type": "Polygon", "coordinates": [ [ [ -10786013.361021043732762, 2130312.747448613401502 ], [ -10786013.362272413447499, 2130312.641247342340648 ], [ -10786013.256708770990372, 2130312.639988414011896 ], [ -10786013.261714246124029, 2130312.215183333028108 ], [ -10786013.472841527312994, 2130312.217701186425984 ], [ -10786013.474092895165086, 2130312.111499918159097 ], [ -10786013.368529254570603, 2130312.110240992158651 ], [ -10786013.371031992137432, 2130311.897838455624878 ], [ -10786013.582159269601107, 2130311.900356307160109 ], [ -10786013.58090790361166, 2130312.006557575892657 ], [ -10786013.792035181075335, 2130312.009075425565243 ], [ -10786013.788281083106995, 2130312.327679232228547 ], [ -10786013.682717442512512, 2130312.326420307625085 ], [ -10786013.678963340818882, 2130312.645024120807648 ], [ -10786013.573399698361754, 2130312.643765194807202 ], [ -10786013.572148330509663, 2130312.749966466799378 ], [ -10786013.361021043732762, 2130312.747448613401502 ] ] ] } },
{ "type": "Feature", "properties": { "DN": 3, "AREA": 1.3000000000931322e-05, "ID": 63 }, "geometry": { "type": "Polygon", "coordinates": [ [ [ -10785998.106854358687997, 2130308.104445738252252 ], [ -10785998.110608698800206, 2130307.78584202658385 ], [ -10785998.427299523726106, 2130307.789619041141123 ], [ -10785998.426048079505563, 2130307.895820279140025 ], [ -10785998.637175295501947, 2130307.898338285740465 ], [ -10785998.634672407060862, 2130308.110740761738271 ], [ -10785998.106854358687997, 2130308.104445738252252 ] ] ] } },
{ "type": "Feature", "properties": { "DN": 3, "AREA": 2.000000002561137e-06, "ID": 64 }, "geometry": { "type": "Polygon", "coordinates": [ [ [ -10785994.939946111291647, 2130308.066675299778581 ], [ -10785994.941197574138641, 2130307.960474064107984 ], [ -10785995.152324788272381, 2130307.962992109823972 ], [ -10785995.151073325425386, 2130308.069193344563246 ], [ -10785994.939946111291647, 2130308.066675299778581 ] ] ] } },
{ "type": "Feature", "properties": { "DN": 3, "AREA": 2.2000000000232832e-05, "ID": 65 }, "geometry": { "type": "Polygon", "coordinates": [ [ [ -10785999.795872116461396, 2130308.124589763581753 ], [ -10785999.799626432359219, 2130307.805986048653722 ], [ -10785999.905190041288733, 2130307.807245044969022 ], [ -10785999.906441479921341, 2130307.701043806970119 ], [ -10786000.012005086988211, 2130307.70230280328542 ], [ -10786000.015759395435452, 2130307.383699094410986 ], [ -10786000.121323002502322, 2130307.384958088863641 ], [ -10786000.118820130825043, 2130307.597360561601818 ], [ -10786000.224383737891912, 2130307.598619556520134 ], [ -10786000.223132302984595, 2130307.704820793122053 ], [ -10786000.32869591191411, 2130307.706079787109047 ], [ -10786000.324941607192159, 2130308.024683502502739 ], [ -10786000.219377996399999, 2130308.023424507584423 ], [ -10786000.218126559630036, 2130308.129625746980309 ], [ -10785999.795872116461396, 2130308.124589763581753 ] ] ] } },
{ "type": "Feature", "properties": { "DN": 3, "AREA": 1.7999999996274709e-05, "ID": 66 }, "geometry": { "type": "Polygon", "coordinates": [ [ [ -10785996.316027382388711, 2130307.764438843820244 ], [ -10785996.317278837785125, 2130307.65823760908097 ], [ -10785996.2117152325809, 2130307.656978592742234 ], [ -10785996.212966687977314, 2130307.550777358934283 ], [ -10785996.107403082773089, 2130307.549518343061209 ], [ -10785996.109905997291207, 2130307.337115875910968 ], [ -10785996.215469602495432, 2130307.338374891318381 ], [ -10785996.217972515150905, 2130307.125972427427769 ], [ -10785996.429099719971418, 2130307.128490457776934 ], [ -10785996.427848264575005, 2130307.234691689256579 ], [ -10785996.533411867916584, 2130307.235950703267008 ], [ -10785996.52715459279716, 2130307.766956873238087 ], [ -10785996.316027382388711, 2130307.764438843820244 ] ] ] } },
{ "type": "Feature", "properties": { "DN": 3, "AREA": 2.7999999993946401e-05, "ID": 67 }, "geometry": { "type": "Polygon", "coordinates": [ [ [ -10786003.073349758982658, 2130307.738813439384103 ], [ -10786003.074601178988814, 2130307.632612200453877 ], [ -10786002.969037570059299, 2130307.631353220902383 ], [ -10786002.979048933833838, 2130306.781743329484016 ], [ -10786003.084612539038062, 2130306.783002308569849 ], [ -10786003.085863959044218, 2130306.676801074296236 ], [ -10786003.296991169452667, 2130306.679319029673934 ], [ -10786003.284476980566978, 2130307.741331396624446 ], [ -10786003.073349758982658, 2130307.738813439384103 ] ] ] } },
{ "type": "Feature", "properties": { "DN": 3, "AREA": 3.9999999981373549e-06, "ID": 68 }, "geometry": { "type": "Polygon", "coordinates": [ [ [ -10786003.087115379050374, 2130306.570599840953946 ], [ -10786003.08836679905653, 2130306.464398608542979 ], [ -10786002.982803195714951, 2130306.463139628525823 ], [ -10786002.984054615721107, 2130306.356938397046179 ], [ -10786003.089618219062686, 2130306.358197376132011 ], [ -10786003.090869637206197, 2130306.251996143721044 ], [ -10786003.196433240547776, 2130306.253255121875554 ], [ -10786003.192678982391953, 2130306.571858818642795 ], [ -10786003.087115379050374, 2130306.570599840953946 ] ] ] } },
{ "type": "Feature", "properties": { "DN": 3, "AREA": 5.499999999301507e-05, "ID": 69 }, "geometry": { "type": "Polygon", "coordinates": [ [ [ -10786003.098378151655197, 2130305.614788765087724 ], [ -10786003.102132407948375, 2130305.296185083221644 ], [ -10786002.891005214303732, 2130305.293667127378285 ], [ -10786002.889753794297576, 2130305.399868353735656 ], [ -10786002.99531739205122, 2130305.401127332355827 ], [ -10786002.992814552038908, 2130305.613529786467552 ], [ -10786002.570560157299042, 2130305.608493868261576 ], [ -10786002.571811581030488, 2130305.502292641438544 ], [ -10786002.466247979551554, 2130305.501033660490066 ], [ -10786002.470002247020602, 2130305.182429981883615 ], [ -10786002.575565844774246, 2130305.183688963297755 ], [ -10786002.576817264780402, 2130305.077487736940384 ], [ -10786002.7879444565624, 2130305.080005696509033 ], [ -10786002.789195876568556, 2130304.973804471548647 ], [ -10786002.894759472459555, 2130304.975063450168818 ], [ -10786002.897262312471867, 2130304.762661002576351 ], [ -10786003.002825908362865, 2130304.7639199802652 ], [ -10786003.004077326506376, 2130304.657718757167459 ], [ -10786003.109640918672085, 2130304.658977734390646 ], [ -10786003.113395174965262, 2130304.340374067891389 ], [ -10786003.324522359296679, 2130304.342892020009458 ], [ -10786003.322019524872303, 2130304.555294464807957 ], [ -10786003.216455932706594, 2130304.554035488516092 ], [ -10786003.215204514563084, 2130304.660236711613834 ], [ -10786003.320768108591437, 2130304.66149568837136 ], [ -10786003.309505352750421, 2130305.617306719068438 ], [ -10786003.098378151655197, 2130305.614788765087724 ] ] ] } },
{ "type": "Feature", "properties": { "DN": 3, "AREA": 4.000000001629814e-06, "ID": 70 }, "geometry": { "type": "Polygon", "coordinates": [ [ [ -10786002.906022246927023, 2130304.019252451136708 ], [ -10786002.909776503220201, 2130303.700648795813322 ], [ -10786003.015340093523264, 2130303.70190777303651 ], [ -10786003.014088675379753, 2130303.808108991011977 ], [ -10786003.119652263820171, 2130303.809367968235165 ], [ -10786003.118400847539306, 2130303.915569186676294 ], [ -10786003.012837257236242, 2130303.914310208987445 ], [ -10786003.011585839092731, 2130304.020511429291219 ], [ -10786002.906022246927023, 2130304.019252451136708 ] ] ] } },
{ "type": "Feature", "properties": { "DN": 3, "AREA": 7.0000000002328315e-06, "ID": 71 }, "geometry": { "type": "Polygon", "coordinates": [ [ [ -10786014.316901315003633, 2130303.305608964059502 ], [ -10786014.3181526735425, 2130303.199407741427422 ], [ -10786014.212589079514146, 2130303.198148825205863 ], [ -10786014.213840438053012, 2130303.091947603039443 ], [ -10786014.31940403021872, 2130303.093206519261003 ], [ -10786014.320655386894941, 2130302.987005298491567 ], [ -10786014.531782573089004, 2130302.98952312907204 ], [ -10786014.528028503060341, 2130303.308126796036959 ], [ -10786014.316901315003633, 2130303.305608964059502 ] ] ] } },
{ "type": "Feature", "properties": { "DN": 3, "AREA": 5.5965595518327261e-05, "ID": 72 }, "geometry": { "type": "Polygon", "coordinates": [ [ [ -10786015.069611361250281, 2130302.146207940299064 ], [ -10786015.06585730239749, 2130302.464811594691128 ], [ -10786014.432475764304399, 2130302.457258114591241 ], [ -10786014.43372712098062, 2130302.351056896150112 ], [ -10786014.328163530677557, 2130302.349797980859876 ], [ -10786014.329414891079068, 2130302.24359676335007 ], [ -10786014.118287712335587, 2130302.241078930906951 ], [ -10786014.120790429413319, 2130302.028676497749984 ], [ -10786014.015226842835546, 2130302.027417581062764 ], [ -10786014.016478201374412, 2130301.921216365881264 ], [ -10786014.12204178608954, 2130301.922475282102823 ], [ -10786014.123293146491051, 2130301.816274067386985 ], [ -10786014.334420315921307, 2130301.818791898433119 ], [ -10786014.335671672597528, 2130301.712590683717281 ], [ -10786014.441235259175301, 2130301.713849599007517 ], [ -10786014.442486615851521, 2130301.607648384291679 ], [ -10786014.653613783419132, 2130301.610166212078184 ], [ -10786014.654865138232708, 2130301.503964997828007 ], [ -10786014.688367335125804, 2130301.504364533349872 ], [ -10786014.782848089933395, 2130301.61170741263777 ], [ -10786014.759177369996905, 2130301.611425125971437 ], [ -10786014.754171950742602, 2130302.036229987628758 ], [ -10786014.859735539183021, 2130302.037488899659365 ], [ -10786014.862238246947527, 2130301.825086467899382 ], [ -10786014.971809605136514, 2130301.826393174938858 ], [ -10786015.255251884460449, 2130302.14842181885615 ], [ -10786015.069611361250281, 2130302.146207940299064 ] ], [ [ -10786015.070862714201212, 2130302.040006722789258 ], [ -10786014.965299125760794, 2130302.038747812155634 ], [ -10786014.964047772809863, 2130302.144949028268456 ], [ -10786015.069611361250281, 2130302.146207940299064 ], [ -10786015.070862714201212, 2130302.040006722789258 ] ] ] } },
{ "type": "Feature", "properties": { "DN": 3, "AREA": 4.5000000012805684e-05, "ID": 73 }, "geometry": { "type": "Polygon", "coordinates": [ [ [ -10785994.093304466456175, 2130290.318486534524709 ], [ -10785994.108321951702237, 2130289.044072869699448 ], [ -10785994.213885460048914, 2130289.045331885572523 ], [ -10785994.215136913582683, 2130288.939130750484765 ], [ -10785994.426263926550746, 2130288.941648780368268 ], [ -10785994.425012471154332, 2130289.047849915456027 ], [ -10785994.741702988743782, 2130289.051626956090331 ], [ -10785994.739200081676245, 2130289.264029228594154 ], [ -10785994.633636575192213, 2130289.262770215980709 ], [ -10785994.632385119795799, 2130289.368971352931112 ], [ -10785994.526821613311768, 2130289.367712339386344 ], [ -10785994.525570157915354, 2130289.473913476802409 ], [ -10785994.420006649568677, 2130289.472654462326318 ], [ -10785994.417503738775849, 2130289.685056738555431 ], [ -10785994.311940230429173, 2130289.683797724079341 ], [ -10785994.309437315911055, 2130289.89620000263676 ], [ -10785994.415000829845667, 2130289.897459017112851 ], [ -10785994.409995004534721, 2130290.322263582609594 ], [ -10785994.093304466456175, 2130290.318486534524709 ] ] ] } },
{ "type": "Feature", "properties": { "DN": 3, "AREA": 4.4999999996507537e-05, "ID": 74 }, "geometry": { "type": "Polygon", "coordinates": [ [ [ -10785976.752921840175986, 2130283.5262720733881 ], [ -10785976.754173386842012, 2130283.420070977881551 ], [ -10785976.648609923198819, 2130283.418811871670187 ], [ -10785976.6498614680022, 2130283.31261077709496 ], [ -10785976.438734538853168, 2130283.310092563740909 ], [ -10785976.441237634047866, 2130283.097690377384424 ], [ -10785976.335674172267318, 2130283.096431269310415 ], [ -10785976.336925718933344, 2130282.990230176597834 ], [ -10785976.231362255290151, 2130282.988971068523824 ], [ -10785976.233865352347493, 2130282.776568884961307 ], [ -10785976.339428814128041, 2130282.777827992569655 ], [ -10785976.340680360794067, 2130282.671626900788397 ], [ -10785976.446243822574615, 2130282.672886008862406 ], [ -10785976.448746917769313, 2130282.460483828093857 ], [ -10785976.765437299385667, 2130282.464261145330966 ], [ -10785976.760431116446853, 2130282.889065509662032 ], [ -10785976.865994578227401, 2130282.890324614942074 ], [ -10785976.86474303342402, 2130282.996525707188994 ], [ -10785976.970306498929858, 2130282.997784811072052 ], [ -10785976.967803409323096, 2130283.210186998359859 ], [ -10785977.07336687296629, 2130283.211446102708578 ], [ -10785977.069612238556147, 2130283.53004938736558 ], [ -10785976.752921840175986, 2130283.5262720733881 ] ] ] } },
{ "type": "Feature", "properties": { "DN": 3, "AREA": 9.0000000005820748e-05, "ID": 75 }, "geometry": { "type": "Polygon", "coordinates": [ [ [ -10785976.087818903848529, 2130277.251594683621079 ], [ -10785976.094076627865434, 2130276.720589379779994 ], [ -10785976.199640059843659, 2130276.721848484128714 ], [ -10785976.203394692391157, 2130276.403245308436453 ], [ -10785976.308958120644093, 2130276.404504412319511 ], [ -10785976.312712751328945, 2130276.085901241749525 ], [ -10785976.418276177719235, 2130276.08716034470126 ], [ -10785976.422030808404088, 2130275.768557178787887 ], [ -10785976.527594231069088, 2130275.769816281739622 ], [ -10785976.530097318813205, 2130275.557414173614234 ], [ -10785976.635660741478205, 2130275.558673274237663 ], [ -10785976.638163823634386, 2130275.34627116844058 ], [ -10785976.743727246299386, 2130275.347530269995332 ], [ -10785976.744978787377477, 2130275.241329217795283 ], [ -10785976.956105632707477, 2130275.243847417179495 ], [ -10785976.95235101133585, 2130275.562450575642288 ], [ -10785977.05791443772614, 2130275.563709676731378 ], [ -10785977.051656737923622, 2130276.094714951235801 ], [ -10785976.946093311533332, 2130276.093455852009356 ], [ -10785976.941087149083614, 2130276.518260083161294 ], [ -10785976.835523718968034, 2130276.517000982537866 ], [ -10785976.834272177889943, 2130276.623202040791512 ], [ -10785976.728708749637008, 2130276.621942940168083 ], [ -10785976.727457206696272, 2130276.728144000284374 ], [ -10785976.516330346465111, 2130276.725625795312226 ], [ -10785976.512575717642903, 2130277.04422897612676 ], [ -10785976.407012285664678, 2130277.042969873175025 ], [ -10785976.404509197920561, 2130277.255371996667236 ], [ -10785976.087818903848529, 2130277.251594683621079 ] ] ] } },
{ "type": "Feature", "properties": { "DN": 3, "AREA": 2.0000000013969838e-06, "ID": 76 }, "geometry": { "type": "Polygon", "coordinates": [ [ [ -10785972.737323487177491, 2130274.874879842158407 ], [ -10785972.738575048744678, 2130274.768678794614971 ], [ -10785972.949701882898808, 2130274.771197037305683 ], [ -10785972.948450323194265, 2130274.877398084849119 ], [ -10785972.737323487177491, 2130274.874879842158407 ] ] ] } },
{ "type": "Feature", "properties": { "DN": 3, "AREA": 2.0000000013969838e-06, "ID": 77 }, "geometry": { "type": "Polygon", "coordinates": [ [ [ -10785946.701529826968908, 2130235.476881399285048 ], [ -10785946.704033181071281, 2130235.264479751698673 ], [ -10785946.809596372768283, 2130235.265738988760859 ], [ -10785946.807093020528555, 2130235.478140636347234 ], [ -10785946.701529826968908, 2130235.476881399285048 ] ] ] } },
{ "type": "Feature", "properties": { "DN": 3, "AREA": 0.00016092769012258267, "ID": 78 }, "geometry": { "type": "Polygon", "coordinates": [ [ [ -10785952.313477091491222, 2130225.13468254590407 ], [ -10785952.20791395008564, 2130225.133423344697803 ], [ -10785952.204159025102854, 2130225.452025665901601 ], [ -10785952.098595881834626, 2130225.450766463764012 ], [ -10785952.09484095685184, 2130225.769368789158762 ], [ -10785952.200404100120068, 2130225.770627991762012 ], [ -10785952.19790081679821, 2130225.983029545284808 ], [ -10785952.092337671667337, 2130225.98177034361288 ], [ -10785952.087331101298332, 2130226.406573457177728 ], [ -10785951.770641656592488, 2130226.402795845642686 ], [ -10785951.769390013068914, 2130226.508996624499559 ], [ -10785951.030447974801064, 2130226.500182177871466 ], [ -10785951.029196325689554, 2130226.606382958125323 ], [ -10785950.818070027977228, 2130226.603864538948983 ], [ -10785950.816818378865719, 2130226.710065319668502 ], [ -10785950.50012893229723, 2130226.706287686247379 ], [ -10785950.501380583271384, 2130226.600086907390505 ], [ -10785950.290254287421703, 2130226.59756848262623 ], [ -10785950.291505940258503, 2130226.491367703303695 ], [ -10785950.191278932616115, 2130226.490172143094242 ], [ -10785950.25742806866765, 2130226.351361892651767 ], [ -10785952.318152463063598, 2130224.737980723381042 ], [ -10785952.313477091491222, 2130225.13468254590407 ] ] ] } },
{ "type": "Feature", "properties": { "DN": 3, "AREA": 1.7801250450497777e-07, "ID": 79 }, "geometry": { "type": "Polygon", "coordinates": [ [ [ -10785952.424046792089939, 2130224.711138658691198 ], [ -10785952.353511698544025, 2130224.71029728744179 ], [ -10785952.424713702872396, 2130224.654551848303527 ], [ -10785952.424046792089939, 2130224.711138658691198 ] ] ] } },
{ "type": "Feature", "properties": { "DN": 3, "AREA": 1.0224226131080385e-08, "ID": 80 }, "geometry": { "type": "Polygon", "coordinates": [ [ [ -10785952.637676348909736, 2130224.501255517359823 ], [ -10785952.620772125199437, 2130224.501053877174854 ], [ -10785952.637836180627346, 2130224.487694096751511 ], [ -10785952.637676348909736, 2130224.501255517359823 ] ] ] } },
{ "type": "Feature", "properties": { "DN": 3, "AREA": 4.6039237282385463e-06, "ID": 81 }, "geometry": { "type": "Polygon", "coordinates": [ [ [ -10785953.380373224616051, 2130224.191467586439103 ], [ -10785953.021662756800652, 2130224.187188757117838 ], [ -10785953.383764818310738, 2130223.903691957704723 ], [ -10785953.380373224616051, 2130224.191467586439103 ] ] ] } },
{ "type": "Feature", "properties": { "DN": 1, "AREA": 2.9000000000465665e-05, "ID": 6 }, "geometry": { "type": "Polygon", "coordinates": [ [ [ -10786067.484128823503852, 2130430.838184870313853 ], [ -10786067.485379977151752, 2130430.731982943136245 ], [ -10786067.37981578335166, 2130430.73072422714904 ], [ -10786067.384820412844419, 2130430.305916524492204 ], [ -10786067.912641381844878, 2130430.312210096977651 ], [ -10786067.911390224471688, 2130430.418412022758275 ], [ -10786068.122518613934517, 2130430.420929447747767 ], [ -10786068.121267460286617, 2130430.527131373528391 ], [ -10786068.01570326462388, 2130430.525872660335153 ], [ -10786068.011949801817536, 2130430.844478441402316 ], [ -10786067.484128823503852, 2130430.838184870313853 ] ] ] } }
]
}
