{
"type": "FeatureCollection",
"name": "MATOLOGIA_DN2",
"crs": { "type": "name", "properties": { "name": "urn:ogc:def:crs:OGC:1.3:CRS84" } },
"features": [
{ "type": "Feature", "properties": { "DN": 2, "AREA": 8.0000000020954761e-06, "ID": 19 }, "geometry": { "type": "Polygon", "coordinates": [ [ [ -96.891931941426122, 18.78992146477114 ], [ -96.89193197515587, 18.789918755249087 ], [ -96.891933871734921, 18.789918776665758 ], [ -96.89193386049169, 18.789919679839777 ], [ -96.89193480878123, 18.789919690548107 ], [ -96.891934786294769, 18.789921496896142 ], [ -96.891931941426122, 18.78992146477114 ] ] ] } }
]
}
