{
"type": "FeatureCollection",
"name": "MATOLOGIA_Orthomosaico_testegrid",
"crs": { "type": "name", "properties": { "name": "urn:ogc:def:crs:OGC:1.3:CRS84" } },
"features": [
{ "type": "Feature", "properties": { "DN": 1, "AREA": 1.0000000000000001e-05, "ID": 1 }, "geometry": { "type": "Polygon", "coordinates": [ [ [ -96.892590809139762, 18.791773444784507 ], [ -96.892590865344374, 18.791768928913392 ], [ -96.892591813644671, 18.791768939619402 ], [ -96.892591791162829, 18.791770745967845 ], [ -96.89259273946314, 18.791770756673849 ], [ -96.892592728222212, 18.79177165984807 ], [ -96.892593676522537, 18.79177167055407 ], [ -96.892593654040709, 18.79177347690252 ], [ -96.892590809139762, 18.791773444784507 ] ] ] } },
{ "type": "Feature", "properties": { "DN": 1, "AREA": 2.5000000001164157e-05, "ID": 2 }, "geometry": { "type": "Polygon", "coordinates": [ [ [ -96.892588923780053, 18.791772520198251 ], [ -96.892588946261938, 18.791770713849807 ], [ -96.892587997961627, 18.791770703143783 ], [ -96.892587986720685, 18.791771606318008 ], [ -96.892586090120076, 18.791771584905945 ], [ -96.892586101361033, 18.791770681731723 ], [ -96.892585153060736, 18.791770671025688 ], [ -96.892585186783592, 18.791767961503034 ], [ -96.892584238483309, 18.791767950796988 ], [ -96.892584260965222, 18.791766144448552 ], [ -96.892586157565773, 18.791766165860626 ], [ -96.892586146324831, 18.791767069034847 ], [ -96.892588991225665, 18.791767101152924 ], [ -96.892588968743794, 18.791768907501364 ], [ -96.892589917044091, 18.791768918207381 ], [ -96.892589872080364, 18.791772530904268 ], [ -96.892588923780053, 18.791772520198251 ] ] ] } },
{ "type": "Feature", "properties": { "DN": 1, "AREA": 4.9999999988358468e-06, "ID": 3 }, "geometry": { "type": "Polygon", "coordinates": [ [ [ -96.892670495989975, 18.791695757205257 ], [ -96.892670529711324, 18.791693047682429 ], [ -96.892671478011238, 18.791693058387992 ], [ -96.892671466770793, 18.791693961562267 ], [ -96.89267241507072, 18.791693972267829 ], [ -96.892672392589844, 18.791695778616379 ], [ -96.892670495989975, 18.791695757205257 ] ] ] } },
{ "type": "Feature", "properties": { "DN": 1, "AREA": 4.5481081782723775e-05, "ID": 4 }, "geometry": { "type": "Polygon", "coordinates": [ [ [ -96.892848659810028, 18.791630924157495 ], [ -96.892848671049492, 18.791630020983106 ], [ -96.892847722749821, 18.791630010278482 ], [ -96.892847767707678, 18.791626397580934 ], [ -96.892847032160816, 18.791626389277909 ], [ -96.892847997648076, 18.791621883670253 ], [ -96.892850668803845, 18.791621913822855 ], [ -96.892850657564395, 18.79162281699724 ], [ -96.892852554163667, 18.79162283840645 ], [ -96.892852542924246, 18.791623741580839 ], [ -96.892853491223889, 18.791623752285439 ], [ -96.892853446266159, 18.791627364982993 ], [ -96.892852497966487, 18.791627354278397 ], [ -96.892852486727065, 18.791628257452786 ], [ -96.892850590127736, 18.791628236043568 ], [ -96.892850567648836, 18.791630042392349 ], [ -96.89284961934915, 18.791630031687728 ], [ -96.892849608109714, 18.791630934862113 ], [ -96.892848659810028, 18.791630924157495 ] ] ] } },
{ "type": "Feature", "properties": { "DN": 1, "AREA": 4.3026014017193416e-07, "ID": 5 }, "geometry": { "type": "Polygon", "coordinates": [ [ [ -96.892871100105012, 18.79158059259608 ], [ -96.89287108718996, 18.791581630431399 ], [ -96.892870389955561, 18.791580584579847 ], [ -96.892871100105012, 18.79158059259608 ] ] ] } },
{ "type": "Feature", "properties": { "DN": 1, "AREA": 2.9000000000465665e-05, "ID": 6 }, "geometry": { "type": "Polygon", "coordinates": [ [ [ -96.892863727257279, 18.791563346646438 ], [ -96.892863738496601, 18.791562443472035 ], [ -96.892862790197313, 18.79156243276752 ], [ -96.892862835154659, 18.791558820069909 ], [ -96.892867576651085, 18.791558873592422 ], [ -96.892867565411763, 18.791559776766828 ], [ -96.892869462010353, 18.791559798175797 ], [ -96.892869450771045, 18.791560701350203 ], [ -96.892868502471742, 18.791560690645717 ], [ -96.892868468753818, 18.791563400168936 ], [ -96.892863727257279, 18.791563346646438 ] ] ] } },
{ "type": "Feature", "properties": { "DN": 1, "AREA": 8.1999999999068685e-05, "ID": 7 }, "geometry": { "type": "Polygon", "coordinates": [ [ [ -96.892879079874291, 18.791549067127413 ], [ -96.892879113592016, 18.791546357604183 ], [ -96.8928781652928, 18.79154634689975 ], [ -96.892878187771288, 18.791544540550934 ], [ -96.892877239472085, 18.791544529846501 ], [ -96.89287728442909, 18.791540917148854 ], [ -96.892878232728265, 18.791540927853276 ], [ -96.892878243967516, 18.791540024678866 ], [ -96.892880140565893, 18.791540046087704 ], [ -96.892880151805116, 18.791539142913287 ], [ -96.892881100104304, 18.791539153617705 ], [ -96.892881111343527, 18.791538250443292 ], [ -96.892882059642716, 18.7915382611477 ], [ -96.892882048403493, 18.79153916432211 ], [ -96.892883945001856, 18.791539185730912 ], [ -96.892883933762647, 18.791540088905329 ], [ -96.892884882061836, 18.791540099609719 ], [ -96.892884870822627, 18.791541002784136 ], [ -96.892886767421018, 18.79154102419292 ], [ -96.892886722464226, 18.791544636890581 ], [ -96.892885774164995, 18.791544626186198 ], [ -96.8928857629258, 18.791545529360608 ], [ -96.892884814626569, 18.791545518656221 ], [ -96.892884803387361, 18.791546421830635 ], [ -96.89288385508813, 18.791546411126244 ], [ -96.892883821370475, 18.791549120649488 ], [ -96.892879079874291, 18.791549067127413 ] ] ] } },
{ "type": "Feature", "properties": { "DN": 1, "AREA": 1.1999999999068677e-05, "ID": 8 }, "geometry": { "type": "Polygon", "coordinates": [ [ [ -96.892876459761652, 18.791530971525887 ], [ -96.89287648224014, 18.791529165177057 ], [ -96.89287837883839, 18.791529186585908 ], [ -96.892878390077641, 18.791528283411495 ], [ -96.892881234974993, 18.791528315524722 ], [ -96.892881212496562, 18.791530121873556 ], [ -96.89288026419743, 18.791530111169145 ], [ -96.892880252958193, 18.791531014343565 ], [ -96.892876459761652, 18.791530971525887 ] ] ] } },
{ "type": "Feature", "properties": { "DN": 1, "AREA": 3.700000000372529e-05, "ID": 9 }, "geometry": { "type": "Polygon", "coordinates": [ [ [ -96.892875556419526, 18.791527348123807 ], [ -96.892875578898028, 18.791525541774984 ], [ -96.892874630598911, 18.791525531070548 ], [ -96.89287467555593, 18.791521918372901 ], [ -96.892875623855005, 18.79152192907733 ], [ -96.892875657572745, 18.79151921955409 ], [ -96.89287660587182, 18.791519230258519 ], [ -96.892876628350294, 18.791517423909685 ], [ -96.892877576649354, 18.791517434614111 ], [ -96.892877542931657, 18.791520144137351 ], [ -96.892878491230732, 18.79152015484177 ], [ -96.892878468752272, 18.791521961190593 ], [ -96.892879417051347, 18.791521971895005 ], [ -96.892879360855218, 18.791526487767083 ], [ -96.892878412556101, 18.791526477062664 ], [ -96.892878401316864, 18.791527380237078 ], [ -96.892875556419526, 18.791527348123807 ] ] ] } },
{ "type": "Feature", "properties": { "DN": 1, "AREA": 4.9999999988358468e-06, "ID": 10 }, "geometry": { "type": "Polygon", "coordinates": [ [ [ -96.892568222796186, 18.790997254101661 ], [ -96.892568278998908, 18.790992738230237 ], [ -96.892569227294857, 18.790992748935935 ], [ -96.892569171092148, 18.790997264807359 ], [ -96.892568222796186, 18.790997254101661 ] ] ] } },
{ "type": "Feature", "properties": { "DN": 1, "AREA": 1.9999999998835846e-05, "ID": 11 }, "geometry": { "type": "Polygon", "coordinates": [ [ [ -96.892271521933637, 18.790832213399757 ], [ -96.892271544417667, 18.790830407051505 ], [ -96.892270596122842, 18.790830396344383 ], [ -96.892270629848909, 18.790827686822002 ], [ -96.892273474733386, 18.790827718943341 ], [ -96.892273463491378, 18.790828622117473 ], [ -96.892274411786218, 18.790828632824574 ], [ -96.89227440054421, 18.7908295359987 ], [ -96.89227534883905, 18.790829546705805 ], [ -96.892275315113039, 18.790832256228189 ], [ -96.892271521933637, 18.790832213399757 ] ] ] } },
{ "type": "Feature", "properties": { "DN": 1, "AREA": 1.6000000000698493e-05, "ID": 12 }, "geometry": { "type": "Polygon", "coordinates": [ [ [ -96.892491960682236, 18.790723596181618 ], [ -96.892491983163794, 18.790721789833086 ], [ -96.892491034869423, 18.790721779127143 ], [ -96.892491057350995, 18.790719972778607 ], [ -96.892492005645337, 18.79071998348455 ], [ -96.892492016886123, 18.790719080310286 ], [ -96.89249486176918, 18.790719112428071 ], [ -96.892494816806135, 18.790722725125146 ], [ -96.892493868511764, 18.790722714419214 ], [ -96.892493857270992, 18.790723617593486 ], [ -96.892491960682236, 18.790723596181618 ] ] ] } },
{ "type": "Feature", "properties": { "DN": 1, "AREA": 1.0999999993713574e-05, "ID": 13 }, "geometry": { "type": "Polygon", "coordinates": [ [ [ -96.892492039367667, 18.790717273961747 ], [ -96.892492061849211, 18.790715467613214 ], [ -96.892493010143554, 18.790715478319143 ], [ -96.892493021384325, 18.790714575144882 ], [ -96.892495866267311, 18.790714607262643 ], [ -96.892495832545052, 18.790717316785454 ], [ -96.892492039367667, 18.790717273961747 ] ] ] } },
{ "type": "Feature", "properties": { "DN": 1, "AREA": 1.2872039344394396e-06, "ID": 14 }, "geometry": { "type": "Polygon", "coordinates": [ [ [ -96.892496803320896, 18.790715521142825 ], [ -96.892496814561639, 18.790714617968558 ], [ -96.892495866267311, 18.790714607262643 ], [ -96.89249587937087, 18.790713554415397 ], [ -96.892497858003594, 18.790715533049816 ], [ -96.892496803320896, 18.790715521142825 ] ] ] } },
{ "type": "Feature", "properties": { "DN": 1, "AREA": 5.7000000001396998e-05, "ID": 15 }, "geometry": { "type": "Polygon", "coordinates": [ [ [ -96.892239050479745, 18.790545500329433 ], [ -96.892239061721753, 18.790544597155293 ], [ -96.892237165135313, 18.790544575741038 ], [ -96.892237153893291, 18.79054547891517 ], [ -96.892235257306837, 18.79054545750089 ], [ -96.892235302274969, 18.790541844804348 ], [ -96.892236250568175, 18.790541855511492 ], [ -96.892236261810197, 18.790540952337356 ], [ -96.892237210103389, 18.790540963044489 ], [ -96.892237266313487, 18.790536447173817 ], [ -96.892240111193018, 18.790536479295181 ], [ -96.892240088709016, 18.790538285643457 ], [ -96.892241037002208, 18.790538296350569 ], [ -96.892241014518206, 18.790540102698849 ], [ -96.892243859397794, 18.790540134820162 ], [ -96.892243814429861, 18.790543747516722 ], [ -96.892241917843421, 18.790543726102509 ], [ -96.892241906601427, 18.790544629276646 ], [ -96.892240958308207, 18.790544618569534 ], [ -96.892240947066199, 18.790545521743674 ], [ -96.892239050479745, 18.790545500329433 ] ], [ [ -96.892241003276212, 18.790541005872985 ], [ -96.892240054983006, 18.790540995165866 ], [ -96.892240043740998, 18.790541898340006 ], [ -96.892240992034203, 18.790541909047125 ], [ -96.892241003276212, 18.790541005872985 ] ] ] } },
{ "type": "Feature", "properties": { "DN": 1, "AREA": 9.0000000027939672e-06, "ID": 16 }, "geometry": { "type": "Polygon", "coordinates": [ [ [ -96.89201660984709, 18.790357811932605 ], [ -96.892016643576326, 18.790355102410526 ], [ -96.892019488452391, 18.790355134534959 ], [ -96.892019454723211, 18.790357844057038 ], [ -96.89201660984709, 18.790357811932605 ] ] ] } },
{ "type": "Feature", "properties": { "DN": 1, "AREA": 8.0000000009313225e-06, "ID": 17 }, "geometry": { "type": "Polygon", "coordinates": [ [ [ -96.891807734339807, 18.790070913402541 ], [ -96.891807779315826, 18.790067300706816 ], [ -96.891809675896411, 18.790067322124912 ], [ -96.891809630920434, 18.790070934820641 ], [ -96.891807734339807, 18.790070913402541 ] ] ] } },
{ "type": "Feature", "properties": { "DN": 1, "AREA": 2.9999999997671694e-06, "ID": 18 }, "geometry": { "type": "Polygon", "coordinates": [ [ [ -96.891821460161083, 18.790034936371253 ], [ -96.891821471404995, 18.790034033197305 ], [ -96.891822419695117, 18.790034043906271 ], [ -96.891822430939015, 18.79003314073233 ], [ -96.891823379229123, 18.790033151441289 ], [ -96.891823356741313, 18.790034957789178 ], [ -96.891821460161083, 18.790034936371253 ] ] ] } },
{ "type": "Feature", "properties": { "DN": 2, "AREA": 8.0000000020954761e-06, "ID": 19 }, "geometry": { "type": "Polygon", "coordinates": [ [ [ -96.891931941426122, 18.78992146477114 ], [ -96.89193197515587, 18.789918755249087 ], [ -96.891933871734921, 18.789918776665758 ], [ -96.89193386049169, 18.789919679839777 ], [ -96.89193480878123, 18.789919690548107 ], [ -96.891934786294769, 18.789921496896142 ], [ -96.891931941426122, 18.78992146477114 ] ] ] } },
{ "type": "Feature", "properties": { "DN": 3, "AREA": 2.2999999999767168e-05, "ID": 20 }, "geometry": { "type": "Polygon", "coordinates": [ [ [ -96.892849119037308, 18.791975087116128 ], [ -96.892849186475374, 18.79196966807001 ], [ -96.892851083078526, 18.791969689479622 ], [ -96.892851094318189, 18.791968786305258 ], [ -96.892853939222903, 18.79196881841963 ], [ -96.892853916743604, 18.791970624768346 ], [ -96.892852968442014, 18.791970614063558 ], [ -96.892852957202365, 18.791971517237922 ], [ -96.892852008900775, 18.791971506533127 ], [ -96.892851975181784, 18.79197421605619 ], [ -96.89285102688018, 18.791974205351391 ], [ -96.892851015640517, 18.791975108525747 ], [ -96.892849119037308, 18.791975087116128 ] ] ] } },
{ "type": "Feature", "properties": { "DN": 3, "AREA": 3.2999999996274711e-05, "ID": 21 }, "geometry": { "type": "Polygon", "coordinates": [ [ [ -96.892503528586857, 18.791927827180263 ], [ -96.892503573552816, 18.79192421448364 ], [ -96.892505470155029, 18.791924235896708 ], [ -96.892505481396512, 18.791923332722547 ], [ -96.892508326299819, 18.791923364842109 ], [ -96.892508337541287, 18.791922461667955 ], [ -96.892511182444593, 18.791922493787467 ], [ -96.8925111599617, 18.791924300135793 ], [ -96.892509263359472, 18.791924278722778 ], [ -96.892509218393641, 18.791927891419419 ], [ -96.892503528586857, 18.791927827180263 ] ] ] } },
{ "type": "Feature", "properties": { "DN": 3, "AREA": 8.0000000009313225e-06, "ID": 22 }, "geometry": { "type": "Polygon", "coordinates": [ [ [ -96.892565490108211, 18.791826453704683 ], [ -96.892565512590409, 18.791824647356275 ], [ -96.89256646089099, 18.791824658062438 ], [ -96.892566472132074, 18.791823754888235 ], [ -96.892568368733251, 18.791823776300557 ], [ -96.892568335010012, 18.791826485823172 ], [ -96.892565490108211, 18.791826453704683 ] ] ] } },
{ "type": "Feature", "properties": { "DN": 3, "AREA": 4.0000000004656613e-06, "ID": 23 }, "geometry": { "type": "Polygon", "coordinates": [ [ [ -96.892984841334624, 18.791814928221946 ], [ -96.89298486381233, 18.791813121873052 ], [ -96.892986760413891, 18.791813143281107 ], [ -96.892986737936212, 18.791814949630005 ], [ -96.892984841334624, 18.791814928221946 ] ] ] } },
{ "type": "Feature", "properties": { "DN": 3, "AREA": 9.9999999837018553e-07, "ID": 24 }, "geometry": { "type": "Polygon", "coordinates": [ [ [ -96.892987697475846, 18.791814057159574 ], [ -96.892987708714671, 18.791813153985128 ], [ -96.892988657015465, 18.791813164689149 ], [ -96.892988645776626, 18.791814067863594 ], [ -96.892987697475846, 18.791814057159574 ] ] ] } },
{ "type": "Feature", "properties": { "DN": 3, "AREA": 9.4999999998835843e-05, "ID": 25 }, "geometry": { "type": "Polygon", "coordinates": [ [ [ -96.892563750882431, 18.791813787853499 ], [ -96.89256376212353, 18.791812884679302 ], [ -96.892562813823005, 18.791812873973125 ], [ -96.892562825064104, 18.791811970798921 ], [ -96.892561876763608, 18.791811960092748 ], [ -96.892561888004693, 18.79181105691854 ], [ -96.892560939704197, 18.791811046212363 ], [ -96.892560973427521, 18.791808336689758 ], [ -96.892560025127025, 18.791808325983574 ], [ -96.892560036368138, 18.791807422809367 ], [ -96.892559088067642, 18.791807412103182 ], [ -96.89255909930877, 18.791806508928975 ], [ -96.892558151008288, 18.79180649822278 ], [ -96.892558184731641, 18.791803788700186 ], [ -96.892559133032108, 18.791803799406377 ], [ -96.892559144273221, 18.791802896232173 ], [ -96.892560092573689, 18.791802906938361 ], [ -96.892560137538126, 18.791799294241553 ], [ -96.892558240937234, 18.791799272829184 ], [ -96.892558297142813, 18.791794756958172 ], [ -96.892561142044059, 18.791794789076722 ], [ -96.892561119561861, 18.791796595425122 ], [ -96.892562067862301, 18.7917966061313 ], [ -96.892562056621202, 18.7917975093055 ], [ -96.892563004921641, 18.79179752001167 ], [ -96.892562937475077, 18.791802939056893 ], [ -96.892563885775544, 18.791802949763063 ], [ -96.892563863293361, 18.791804756111461 ], [ -96.892564811593843, 18.791804766817634 ], [ -96.892564800352758, 18.791805669991835 ], [ -96.89256574865324, 18.791805680697994 ], [ -96.89256564748348, 18.791813809265829 ], [ -96.892563750882431, 18.791813787853499 ] ] ] } },
{ "type": "Feature", "properties": { "DN": 3, "AREA": 5.0000000034924596e-06, "ID": 26 }, "geometry": { "type": "Polygon", "coordinates": [ [ [ -96.892572510408101, 18.791795820724676 ], [ -96.892572544131198, 18.79179311120205 ], [ -96.892574440732034, 18.791793132614266 ], [ -96.892574418249978, 18.791794938962695 ], [ -96.892573469949568, 18.791794928256582 ], [ -96.892573458708526, 18.791795831430793 ], [ -96.892572510408101, 18.791795820724676 ] ] ] } },
{ "type": "Feature", "properties": { "DN": 3, "AREA": 4.9999999996507536e-05, "ID": 27 }, "geometry": { "type": "Polygon", "coordinates": [ [ [ -96.89259239099448, 18.791798755074748 ], [ -96.892592402235408, 18.791797851900522 ], [ -96.892589557334048, 18.791797819782449 ], [ -96.892589591056904, 18.791795110259795 ], [ -96.892588642756465, 18.791795099553763 ], [ -96.892588665238364, 18.791793293205323 ], [ -96.892587716937939, 18.791793282499285 ], [ -96.892587761901751, 18.791789669802409 ], [ -96.892590606802983, 18.791789701920496 ], [ -96.892590595562041, 18.791790605094718 ], [ -96.892591543862451, 18.791790615800736 ], [ -96.892591521380595, 18.791792422149186 ], [ -96.892593417981431, 18.791792443561214 ], [ -96.892593395499588, 18.791794249909653 ], [ -96.892595292100452, 18.791794271321667 ], [ -96.892595235895854, 18.791798787192782 ], [ -96.89259239099448, 18.791798755074748 ] ] ] } },
{ "type": "Feature", "properties": { "DN": 3, "AREA": 0.00027599999999487773, "ID": 28 }, "geometry": { "type": "Polygon", "coordinates": [ [ [ -96.893351256304896, 18.791789254856972 ], [ -96.893351278778653, 18.791787448507645 ], [ -96.893348433876071, 18.791787416401146 ], [ -96.893348445112977, 18.791786513226484 ], [ -96.893346548511275, 18.791786491822133 ], [ -96.893346559748181, 18.791785588647471 ], [ -96.89334561144733, 18.791785577945284 ], [ -96.893345622684237, 18.791784674770629 ], [ -96.8933446743834, 18.791784664068434 ], [ -96.893344640672652, 18.791787373592417 ], [ -96.893342744070949, 18.791787352188024 ], [ -96.89334275530787, 18.791786449013365 ], [ -96.893339910405317, 18.791786416906739 ], [ -96.893339887931432, 18.791788223256049 ], [ -96.893337043028865, 18.791788191149379 ], [ -96.893337076739726, 18.791785481625414 ], [ -96.893332335235542, 18.79178542811421 ], [ -96.89333232399855, 18.791786331288861 ], [ -96.893328530795188, 18.791786288479805 ], [ -96.893328564506191, 18.791783578955847 ], [ -96.893327616205369, 18.791783568253578 ], [ -96.893327661153378, 18.791779955554968 ], [ -96.893329557754981, 18.791779976959511 ], [ -96.893329580228965, 18.791778170610204 ], [ -96.893330528529759, 18.79177818131247 ], [ -96.893330573477698, 18.79177456861385 ], [ -96.893332470079244, 18.791774590018353 ], [ -96.893332458842281, 18.791775493193011 ], [ -96.893333407143061, 18.791775503895256 ], [ -96.893333418380038, 18.791774600720597 ], [ -96.893336263282379, 18.791774632827302 ], [ -96.893336252045415, 18.79177553600196 ], [ -96.893340045248564, 18.791775578810835 ], [ -96.893340011537759, 18.791778288334815 ], [ -96.893340959838554, 18.791778299037023 ], [ -96.893340914890828, 18.791781911735654 ], [ -96.893341863191665, 18.79178192243786 ], [ -96.893341874428586, 18.791781019263205 ], [ -96.893342822729409, 18.791781029965403 ], [ -96.893342856440171, 18.79177832044142 ], [ -96.893344753041788, 18.791778341845806 ], [ -96.893344741804867, 18.791779245020468 ], [ -96.89334569010569, 18.791779255722648 ], [ -96.893345667631877, 18.79178106207198 ], [ -96.893349460835168, 18.79178110488067 ], [ -96.893349483308938, 18.791779298531342 ], [ -96.893352328211378, 18.791779330637805 ], [ -96.893352305737636, 18.79178113698714 ], [ -96.893355150640119, 18.791781169093568 ], [ -96.893355105692692, 18.791784781792241 ], [ -96.893356053993529, 18.791784792494376 ], [ -96.89335600904613, 18.791788405193039 ], [ -96.89335506074525, 18.791788394490908 ], [ -96.893355049508386, 18.791789297665574 ], [ -96.893351256304896, 18.791789254856972 ] ] ] } },
{ "type": "Feature", "properties": { "DN": 3, "AREA": 4.0000000003492462e-05, "ID": 29 }, "geometry": { "type": "Polygon", "coordinates": [ [ [ -96.892589815875709, 18.791777046775383 ], [ -96.892589827116637, 18.791776143601158 ], [ -96.892588878816312, 18.791776132895141 ], [ -96.892588946261938, 18.791770713849807 ], [ -96.892587997961627, 18.791770703143783 ], [ -96.892588009202555, 18.791769799969565 ], [ -96.892588957502866, 18.791769810675586 ], [ -96.892588968743794, 18.791768907501364 ], [ -96.892591813644671, 18.791768939619402 ], [ -96.892591791162829, 18.791770745967845 ], [ -96.89259273946314, 18.791770756673849 ], [ -96.892592728222212, 18.79177165984807 ], [ -96.892593676522537, 18.79177167055407 ], [ -96.892593609077068, 18.791777089599421 ], [ -96.892589815875709, 18.791777046775383 ] ] ] } },
{ "type": "Feature", "properties": { "DN": 3, "AREA": 1.199999999674037e-05, "ID": 30 }, "geometry": { "type": "Polygon", "coordinates": [ [ [ -96.893072579498494, 18.791776173294686 ], [ -96.893072635690274, 18.791771657422171 ], [ -96.893074532291479, 18.791771678829289 ], [ -96.893074521053151, 18.791772582003798 ], [ -96.893075469353761, 18.791772592707353 ], [ -96.893075446877063, 18.791774399056358 ], [ -96.893074498576439, 18.791774388352803 ], [ -96.893074476099741, 18.791776194701814 ], [ -96.893072579498494, 18.791776173294686 ] ] ] } },
{ "type": "Feature", "properties": { "DN": 3, "AREA": 2.0000000013969838e-06, "ID": 31 }, "geometry": { "type": "Polygon", "coordinates": [ [ [ -96.892588020443512, 18.79176889679534 ], [ -96.892588042925382, 18.791767090446903 ], [ -96.892588991225665, 18.791767101152924 ], [ -96.892588968743794, 18.791768907501364 ], [ -96.892588020443512, 18.79176889679534 ] ] ] } },
{ "type": "Feature", "properties": { "DN": 3, "AREA": 0.00018900000000279406, "ID": 32 }, "geometry": { "type": "Polygon", "coordinates": [ [ [ -96.893100001549442, 18.791782805917759 ], [ -96.893100012787656, 18.791781902743235 ], [ -96.893099064486989, 18.791781892039804 ], [ -96.893099086963431, 18.791780085690768 ], [ -96.893100035264098, 18.791780096394202 ], [ -96.893100057740526, 18.791778290045155 ], [ -96.893101006041178, 18.791778300748586 ], [ -96.893101017279392, 18.791777397574066 ], [ -96.89310006897874, 18.791777386870638 ], [ -96.893100080216939, 18.791776483696122 ], [ -96.893098183615663, 18.791776462289253 ], [ -96.893098172377435, 18.791777365463773 ], [ -96.89309248257355, 18.791777301243059 ], [ -96.893092471335294, 18.791778204417568 ], [ -96.893090574734003, 18.791778183010628 ], [ -96.89309058597226, 18.791777279836115 ], [ -96.893089637671608, 18.791777269132638 ], [ -96.893089648909893, 18.791776365958118 ], [ -96.893085855707341, 18.791776323144159 ], [ -96.893085911898766, 18.791771807271601 ], [ -96.893086860199375, 18.7917718179751 ], [ -96.893086882675931, 18.791770011626074 ], [ -96.89308498607474, 18.791769990219084 ], [ -96.893085019789609, 18.791767280695549 ], [ -96.893086916390786, 18.791767302102539 ], [ -96.893086905152501, 18.791768205277052 ], [ -96.893087853453096, 18.791768215980543 ], [ -96.89308783097654, 18.791770022329565 ], [ -96.893088779277136, 18.791770033033046 ], [ -96.893088790515421, 18.791769129858537 ], [ -96.893091635417207, 18.791769161968958 ], [ -96.893091624178965, 18.791770065143467 ], [ -96.893094469080779, 18.791770097253849 ], [ -96.893094480319007, 18.791769194079336 ], [ -96.893097325220822, 18.791769226189675 ], [ -96.89309730274438, 18.791771032538708 ], [ -96.893098251044989, 18.791771043242147 ], [ -96.893098239806761, 18.791771946416667 ], [ -96.893099188107385, 18.791771957120094 ], [ -96.893099199345599, 18.791771053945581 ], [ -96.893102044247442, 18.791771086055849 ], [ -96.893102021771057, 18.791772892404886 ], [ -96.893103918372304, 18.791772913811705 ], [ -96.893103907134119, 18.791773816986229 ], [ -96.893104855434743, 18.791773827689639 ], [ -96.893104844196557, 18.791774730864159 ], [ -96.893105792497195, 18.791774741567558 ], [ -96.89310578125901, 18.791775644742078 ], [ -96.893106729559662, 18.791775655445477 ], [ -96.893106695845134, 18.791778364969048 ], [ -96.893104799243815, 18.791778343562243 ], [ -96.893104754291045, 18.79178195626033 ], [ -96.893103805990378, 18.791781945556924 ], [ -96.893103794752179, 18.791782848731447 ], [ -96.893100001549442, 18.791782805917759 ] ] ] } },
{ "type": "Feature", "properties": { "DN": 3, "AREA": 4.3000000004423777e-05, "ID": 33 }, "geometry": { "type": "Polygon", "coordinates": [ [ [ -96.893077354716638, 18.791773517288945 ], [ -96.893077365954966, 18.791772614114439 ], [ -96.89307641765437, 18.791772603410895 ], [ -96.893076428892684, 18.791771700236392 ], [ -96.893074532291479, 18.791771678829289 ], [ -96.893074543529835, 18.79177077565479 ], [ -96.893072646928644, 18.791770754247672 ], [ -96.893072680643698, 18.791768044724154 ], [ -96.893077422146618, 18.79176809824191 ], [ -96.893077399669963, 18.791769904590918 ], [ -96.893080244571749, 18.791769936701517 ], [ -96.893080233333436, 18.79177083987603 ], [ -96.893084026535846, 18.791770882690091 ], [ -96.893083992820962, 18.791773592213623 ], [ -96.893077354716638, 18.791773517288945 ] ] ] } },
{ "type": "Feature", "properties": { "DN": 3, "AREA": 0.0002230000000102446, "ID": 34 }, "geometry": { "type": "Polygon", "coordinates": [ [ [ -96.892906083210548, 18.791741775113643 ], [ -96.892906094449771, 18.791740871939236 ], [ -96.892905146149445, 18.791740861234839 ], [ -96.892905134910208, 18.791741764409249 ], [ -96.892903238309557, 18.79174174300044 ], [ -96.892903249548795, 18.791740839826033 ], [ -96.892898508047168, 18.791740786303933 ], [ -96.892898519286433, 18.791739883129527 ], [ -96.892896622685797, 18.79173986172065 ], [ -96.892896678882167, 18.791735345848632 ], [ -96.89289573058187, 18.791735335144196 ], [ -96.892895764299695, 18.791732625620977 ], [ -96.892896712599978, 18.791732636325424 ], [ -96.892896723839243, 18.791731733151014 ], [ -96.89289862043978, 18.791731754559876 ], [ -96.892898597961263, 18.791733560908693 ], [ -96.89289954626156, 18.791733571613115 ], [ -96.892899535022295, 18.791734474787525 ], [ -96.892902379923157, 18.791734506900774 ], [ -96.892902391162409, 18.791733603726367 ], [ -96.892903339462677, 18.791733614430768 ], [ -96.892903350701928, 18.791732711256358 ], [ -96.892906195602762, 18.79173274336954 ], [ -96.89290618436354, 18.791733646543957 ], [ -96.892908080964119, 18.79173366795273 ], [ -96.892908092203328, 18.791732764778313 ], [ -96.89291093710419, 18.791732796891427 ], [ -96.892910925864982, 18.791733700065841 ], [ -96.892911874165279, 18.791733710770206 ], [ -96.892911862926084, 18.79173461394462 ], [ -96.892913759526678, 18.791734635353333 ], [ -96.892913770765858, 18.791733732178916 ], [ -96.892915667366452, 18.791733753587607 ], [ -96.892915644888106, 18.791735559936441 ], [ -96.892916593188417, 18.791735570640778 ], [ -96.892916604427583, 18.791734667466365 ], [ -96.89291755272788, 18.791734678170698 ], [ -96.892917563967032, 18.791733774996281 ], [ -96.892918512267329, 18.791733785700607 ], [ -96.892918523506495, 18.791732882526187 ], [ -96.892920420107075, 18.791732903934832 ], [ -96.892920375150496, 18.791736516632508 ], [ -96.892921323450807, 18.791736527336827 ], [ -96.892921300972517, 18.791738333685661 ], [ -96.892923197573168, 18.791738355094285 ], [ -96.89292316385577, 18.79174106461754 ], [ -96.892920318954765, 18.791741032504593 ], [ -96.892920330193903, 18.791740129330179 ], [ -96.892917485292912, 18.7917400972172 ], [ -96.892917474053746, 18.79174100039161 ], [ -96.892913680852402, 18.791740957574234 ], [ -96.892913669613222, 18.791741860748647 ], [ -96.892906083210548, 18.791741775113643 ] ] ] } },
{ "type": "Feature", "properties": { "DN": 3, "AREA": 0.00013700000000256115, "ID": 35 }, "geometry": { "type": "Polygon", "coordinates": [ [ [ -96.892492894120423, 18.791715431360622 ], [ -96.892492916603246, 18.791713625012278 ], [ -96.892491020003405, 18.791713603599316 ], [ -96.892491031244816, 18.791712700425148 ], [ -96.892490082944917, 18.791712689718661 ], [ -96.892490094186329, 18.791711786544489 ], [ -96.892489145886415, 18.791711775837999 ], [ -96.892489179610706, 18.791709066315487 ], [ -96.892488231310807, 18.79170905560899 ], [ -96.892488276276538, 18.79170544291232 ], [ -96.892487327976667, 18.791705432205816 ], [ -96.892487339218093, 18.791704529031652 ], [ -96.892486390918222, 18.791704518325147 ], [ -96.892486379676797, 18.791705421499319 ], [ -96.892484483077055, 18.791705400086297 ], [ -96.892484505559949, 18.79170359373796 ], [ -96.892483557260093, 18.791703583031445 ], [ -96.892483613467348, 18.791699067160607 ], [ -96.892484561767176, 18.791699077867122 ], [ -96.892484573008616, 18.791698174692954 ], [ -96.892485521308458, 18.791698185399461 ], [ -96.892485555032764, 18.791695475876956 ], [ -96.892487451632391, 18.791695497289957 ], [ -96.892487462873817, 18.791694594115789 ], [ -96.892488411173645, 18.791694604822279 ], [ -96.892488399932219, 18.791695507996451 ], [ -96.892489348232033, 18.791695518702934 ], [ -96.892489325749196, 18.791697325051274 ], [ -96.892488377449368, 18.791697314344791 ], [ -96.892488366207957, 18.79169821751896 ], [ -96.892490262807627, 18.791698238931929 ], [ -96.89249019535913, 18.79170365797696 ], [ -96.892491143658987, 18.791703668683439 ], [ -96.892491132417561, 18.791704571857611 ], [ -96.892492080717432, 18.791704582564087 ], [ -96.892492069476035, 18.791705485738262 ], [ -96.892493017775905, 18.791705496444738 ], [ -96.892493006534508, 18.791706399618906 ], [ -96.892493954834379, 18.791706410325379 ], [ -96.892493943592982, 18.791707313499547 ], [ -96.892495840192765, 18.791707334912473 ], [ -96.892495828951368, 18.791708238086652 ], [ -96.892496777251267, 18.791708248793107 ], [ -96.892496709802941, 18.791713667838149 ], [ -96.892495761503014, 18.791713657131687 ], [ -96.892495750261631, 18.791714560305863 ], [ -96.892494801961689, 18.791714549599391 ], [ -96.892494790720292, 18.791715452773573 ], [ -96.892492894120423, 18.791715431360622 ] ] ] } },
{ "type": "Feature", "properties": { "DN": 3, "AREA": 4.0000000004656613e-06, "ID": 36 }, "geometry": { "type": "Polygon", "coordinates": [ [ [ -96.892673633140902, 18.791672306790673 ], [ -96.892673655621735, 18.791670500442109 ], [ -96.89267555222132, 18.79167052185317 ], [ -96.892675529740501, 18.791672328201734 ], [ -96.892673633140902, 18.791672306790673 ] ] ] } },
{ "type": "Feature", "properties": { "DN": 3, "AREA": 2.6999999999068679e-05, "ID": 37 }, "geometry": { "type": "Polygon", "coordinates": [ [ [ -96.892355858842734, 18.791600068227471 ], [ -96.892355881326878, 18.791598261879262 ], [ -96.89235493302769, 18.79159825117215 ], [ -96.892354966753899, 18.791595541649844 ], [ -96.892356863352248, 18.79159556306406 ], [ -96.892356840868132, 18.791597369412269 ], [ -96.89235778916732, 18.79159738011937 ], [ -96.892357811651436, 18.791595573771158 ], [ -96.892359708249785, 18.791595595185346 ], [ -96.892359685765697, 18.791597401533554 ], [ -96.892362530663277, 18.791597433654804 ], [ -96.892362508179204, 18.79159924000302 ], [ -96.89235966328161, 18.791599207881763 ], [ -96.892359652039559, 18.791600111055875 ], [ -96.892355858842734, 18.791600068227471 ] ] ] } },
{ "type": "Feature", "properties": { "DN": 3, "AREA": 2.9999999998835845e-05, "ID": 38 }, "geometry": { "type": "Polygon", "coordinates": [ [ [ -96.892371009146089, 18.791602045888844 ], [ -96.892371031630077, 18.791600239540617 ], [ -96.892370083330846, 18.791600228833584 ], [ -96.892370117056828, 18.791597519311253 ], [ -96.892369168757625, 18.791597508604212 ], [ -96.892369191241627, 18.791595702255993 ], [ -96.892374881036758, 18.791595766498148 ], [ -96.892374858552827, 18.791597572846378 ], [ -96.89237391025361, 18.791597562139362 ], [ -96.892373854043768, 18.79160207800992 ], [ -96.892371009146089, 18.791602045888844 ] ] ] } },
{ "type": "Feature", "properties": { "DN": 3, "AREA": 0.00014500000000116416, "ID": 39 }, "geometry": { "type": "Polygon", "coordinates": [ [ [ -96.893097031382581, 18.791564173461634 ], [ -96.893097042620681, 18.791563270287096 ], [ -96.893095146021778, 18.791563248880436 ], [ -96.893095157259879, 18.791562345705898 ], [ -96.893094208960449, 18.791562335002556 ], [ -96.893094242674749, 18.791559625478946 ], [ -96.893093294375333, 18.791559614775604 ], [ -96.893093350565877, 18.791555098902926 ], [ -96.893095247164666, 18.791555120309596 ], [ -96.893095292117053, 18.791551507611445 ], [ -96.893097188715814, 18.791551529018086 ], [ -96.893097166239656, 18.791553335367173 ], [ -96.893100011137847, 18.79155336747711 ], [ -96.893099988661703, 18.791555173826193 ], [ -96.893100936961105, 18.791555184529496 ], [ -96.893100925723047, 18.791556087704038 ], [ -96.893101874022463, 18.791556098407341 ], [ -96.893101862784391, 18.791557001581882 ], [ -96.893103759383223, 18.791557022988471 ], [ -96.893103770621281, 18.791556119813929 ], [ -96.893105667220112, 18.791556141220497 ], [ -96.893105678458156, 18.791555238045948 ], [ -96.893106626757557, 18.791555248749223 ], [ -96.893106637995601, 18.791554345574681 ], [ -96.89310948289382, 18.791554377684477 ], [ -96.893109471655791, 18.791555280859022 ], [ -96.893110419955207, 18.791555291562275 ], [ -96.893110408717206, 18.791556194736831 ], [ -96.893111357016622, 18.791556205440081 ], [ -96.893111334540592, 18.791558011789171 ], [ -96.893110386241162, 18.791558001085917 ], [ -96.893110363765132, 18.791559807435007 ], [ -96.893107518866813, 18.791559775325215 ], [ -96.893107496390741, 18.791561581674308 ], [ -96.893102754893519, 18.791561528157889 ], [ -96.893102766131577, 18.791560624983344 ], [ -96.893101817832132, 18.791560614280048 ], [ -96.893101806594075, 18.791561517454586 ], [ -96.89310085829463, 18.791561506751279 ], [ -96.893100835818487, 18.791563313100365 ], [ -96.893099887519028, 18.791563302397055 ], [ -96.893099876280957, 18.791564205571593 ], [ -96.893097031382581, 18.791564173461634 ] ] ] } },
{ "type": "Feature", "properties": { "DN": 3, "AREA": 0.00015299999999394644, "ID": 40 }, "geometry": { "type": "Polygon", "coordinates": [ [ [ -96.893115374973988, 18.791538184762036 ], [ -96.893115386211974, 18.791537281587484 ], [ -96.893112541314025, 18.791537249477805 ], [ -96.893112530076039, 18.791538152652357 ], [ -96.893109685178075, 18.791538120542629 ], [ -96.893109718892106, 18.791535411018987 ], [ -96.893105925694897, 18.791535368205963 ], [ -96.893105970646999, 18.791531755507776 ], [ -96.893106918946287, 18.791531766211037 ], [ -96.893106930184302, 18.791530863036492 ], [ -96.893107878483576, 18.791530873739749 ], [ -96.893107889721591, 18.7915299705652 ], [ -96.893108838020865, 18.79152998126845 ], [ -96.893108849258866, 18.791529078093902 ], [ -96.893109797558139, 18.791529088797152 ], [ -96.893109786320124, 18.791529991971696 ], [ -96.893115476115767, 18.791530056191075 ], [ -96.893115498591726, 18.791528249841971 ], [ -96.893116446890986, 18.791528260545174 ], [ -96.893116469366916, 18.79152645419607 ], [ -96.893118365965421, 18.791526475602478 ], [ -96.893118332251561, 18.791529185126144 ], [ -96.893119280550835, 18.791529195829337 ], [ -96.893119269312876, 18.791530099003893 ], [ -96.893122114210726, 18.791530131113461 ], [ -96.893122102972782, 18.79153103428801 ], [ -96.89312305127207, 18.791531044991196 ], [ -96.893123040034141, 18.791531948165751 ], [ -96.893123988333429, 18.791531958868919 ], [ -96.893123977095499, 18.791532862043479 ], [ -96.893125873694089, 18.791532883449818 ], [ -96.893125862456174, 18.791533786624374 ], [ -96.893126810755476, 18.791533797327538 ], [ -96.89312679951756, 18.791534700502098 ], [ -96.893124902918942, 18.791534679095765 ], [ -96.893124880443096, 18.79153648544488 ], [ -96.893122035545133, 18.791536453335347 ], [ -96.893122046783077, 18.791535550160788 ], [ -96.89311825358584, 18.791535507348012 ], [ -96.893118219871965, 18.791538216871675 ], [ -96.893115374973988, 18.791538184762036 ] ] ] } },
{ "type": "Feature", "properties": { "DN": 3, "AREA": 1.6000000000698493e-05, "ID": 41 }, "geometry": { "type": "Polygon", "coordinates": [ [ [ -96.893103874387307, 18.791395333337455 ], [ -96.893103896863195, 18.79139352698834 ], [ -96.893104845161716, 18.791393537691533 ], [ -96.893104856399646, 18.791392634516974 ], [ -96.893105804698152, 18.791392645220167 ], [ -96.893105815936096, 18.791391742045612 ], [ -96.89310771253308, 18.791391763451973 ], [ -96.89310770129515, 18.791392666626532 ], [ -96.893108649593657, 18.791392677329711 ], [ -96.893108638355741, 18.79139358050427 ], [ -96.893109586654248, 18.791393591207445 ], [ -96.893109575416332, 18.791394494382004 ], [ -96.893107678819291, 18.791394472975654 ], [ -96.893107667581376, 18.791395376150216 ], [ -96.893103874387307, 18.791395333337455 ] ] ] } },
{ "type": "Feature", "properties": { "DN": 3, "AREA": 0.00032099999999953428, "ID": 42 }, "geometry": { "type": "Polygon", "coordinates": [ [ [ -96.893040041909629, 18.791342221386383 ], [ -96.893040075624384, 18.791339511862805 ], [ -96.893039127326219, 18.791339501159314 ], [ -96.893039149802718, 18.791337694810256 ], [ -96.893038201504581, 18.791337684106754 ], [ -96.893038212742837, 18.791336780932234 ], [ -96.893037264444686, 18.791336770228728 ], [ -96.893037275682957, 18.791335867054205 ], [ -96.89303632738482, 18.791335856350695 ], [ -96.893036338623077, 18.791334953176172 ], [ -96.89303349372868, 18.791334921065619 ], [ -96.893033504966965, 18.791334017891096 ], [ -96.893030660072583, 18.791333985780504 ], [ -96.893030671310882, 18.791333082605981 ], [ -96.893029723012774, 18.791333071902447 ], [ -96.893029734251073, 18.791332168727923 ], [ -96.893027837654842, 18.79133214732083 ], [ -96.893027848893155, 18.79133124414631 ], [ -96.893026900595046, 18.791331233442754 ], [ -96.893026923071673, 18.791329427093721 ], [ -96.893025974773579, 18.791329416390166 ], [ -96.89302599725022, 18.791327610041119 ], [ -96.893025048952126, 18.791327599337563 ], [ -96.893025060190453, 18.791326696163043 ], [ -96.893023163594293, 18.791326674755911 ], [ -96.893023275977598, 18.791317643010728 ], [ -96.893025172573658, 18.791317664417853 ], [ -96.893025161335345, 18.79131856759237 ], [ -96.893027057931405, 18.791318588999477 ], [ -96.893027046693106, 18.791319492173994 ], [ -96.893027994991158, 18.791319502877538 ], [ -96.893027983752845, 18.791320406052062 ], [ -96.893029880348948, 18.791320427459144 ], [ -96.893029869110649, 18.791321330633661 ], [ -96.893030817408714, 18.791321341337195 ], [ -96.893030806170415, 18.791322244511722 ], [ -96.893033651064613, 18.791322276622289 ], [ -96.893033639826314, 18.791323179796816 ], [ -96.89303553642246, 18.791323201203841 ], [ -96.893035502707662, 18.791325910727412 ], [ -96.893036451005742, 18.791325921430921 ], [ -96.893036439767485, 18.791326824605449 ], [ -96.893037388065579, 18.791326835308947 ], [ -96.893037376827309, 18.791327738483474 ], [ -96.893040221721606, 18.791327770593956 ], [ -96.893040210483363, 18.791328673768483 ], [ -96.893041158781458, 18.791328684471967 ], [ -96.893041147543229, 18.791329587646491 ], [ -96.893042095841324, 18.791329598349975 ], [ -96.893042073364853, 18.791331404699029 ], [ -96.893043969961084, 18.791331426105977 ], [ -96.893043981199327, 18.79133052293145 ], [ -96.893044929497435, 18.79133053363492 ], [ -96.893044918259221, 18.791331436809447 ], [ -96.893046814855467, 18.791331458216366 ], [ -96.893046792379025, 18.791333264565424 ], [ -96.893047740677176, 18.79133327526888 ], [ -96.893047729438962, 18.79133417844341 ], [ -96.893048677737099, 18.791334189146863 ], [ -96.893048644022485, 18.791336898670458 ], [ -96.893049592320637, 18.791336909373904 ], [ -96.893049558606052, 18.791339618897499 ], [ -96.893048610307872, 18.79133960819405 ], [ -96.893048599069658, 18.791340511368578 ], [ -96.893047650771493, 18.791340500665129 ], [ -96.893047639533279, 18.79134140383966 ], [ -96.89304574293692, 18.791341382432737 ], [ -96.893045731698706, 18.791342285607264 ], [ -96.893040041909629, 18.791342221386383 ] ] ] } },
{ "type": "Feature", "properties": { "DN": 3, "AREA": 4.4000000003958116e-05, "ID": 43 }, "geometry": { "type": "Polygon", "coordinates": [ [ [ -96.892887721341225, 18.791235719121804 ], [ -96.892887743819216, 18.79123391277291 ], [ -96.892888692116685, 18.791233923477119 ], [ -96.89288870335568, 18.791233020302666 ], [ -96.892889651653164, 18.791233031006865 ], [ -96.892889662892131, 18.791232127832419 ], [ -96.892891559487083, 18.791232149240805 ], [ -96.892891593203998, 18.791229439717455 ], [ -96.892893489798908, 18.791229461125823 ], [ -96.892893478559955, 18.791230364300272 ], [ -96.892895375154879, 18.791230385708616 ], [ -96.892895363915926, 18.791231288883072 ], [ -96.892896312213395, 18.791231299587238 ], [ -96.892896256018645, 18.791235815459501 ], [ -96.892887721341225, 18.791235719121804 ] ] ] } },
{ "type": "Feature", "properties": { "DN": 3, "AREA": 1.9557844338808711e-05, "ID": 44 }, "geometry": { "type": "Polygon", "coordinates": [ [ [ -96.892957895357128, 18.791236511220177 ], [ -96.892957906595754, 18.791235608045689 ], [ -96.892956958298228, 18.791235597341828 ], [ -96.892957003252732, 18.791231984643883 ], [ -96.89295795155023, 18.791231995347736 ], [ -96.89295796278887, 18.791231092173248 ], [ -96.892959369306581, 18.791231108049224 ], [ -96.892960855986345, 18.791232931432706 ], [ -96.892960785204167, 18.791232930633758 ], [ -96.892960751488346, 18.791235640157229 ], [ -96.89295980319082, 18.791235629453386 ], [ -96.892959791952194, 18.791236532627874 ], [ -96.892957895357128, 18.791236511220177 ] ] ] } },
{ "type": "Feature", "properties": { "DN": 3, "AREA": 8.7000000002561144e-05, "ID": 45 }, "geometry": { "type": "Polygon", "coordinates": [ [ [ -96.892459518109987, 18.791196559707991 ], [ -96.892459540592483, 18.791194753359587 ], [ -96.892458592295498, 18.791194742653225 ], [ -96.892458603536753, 18.791193839479021 ], [ -96.892457655239753, 18.791193828772652 ], [ -96.892457666481022, 18.791192925598455 ], [ -96.892456718184036, 18.791192914892083 ], [ -96.892456729425319, 18.791192011717879 ], [ -96.892455781128334, 18.791192001011503 ], [ -96.892455893541012, 18.791182969269499 ], [ -96.892457790134884, 18.791182990682238 ], [ -96.892457801376125, 18.791182087508034 ], [ -96.892459697969983, 18.791182108920754 ], [ -96.892459686728742, 18.791183012094958 ], [ -96.892460635025685, 18.791183022801306 ], [ -96.892460578819467, 18.791187538672322 ], [ -96.892461527116424, 18.791187549378673 ], [ -96.892461493392688, 18.791190258901292 ], [ -96.892462441689673, 18.791190269607633 ], [ -96.892462430448433, 18.791191172781836 ], [ -96.892463378745404, 18.791191183488177 ], [ -96.892463356262951, 18.791192989836588 ], [ -96.892464304559937, 18.791193000542929 ], [ -96.892464282077484, 18.791194806891337 ], [ -96.892463333780483, 18.791194796185 ], [ -96.892463322539243, 18.7911956993592 ], [ -96.892462374242257, 18.791195688652856 ], [ -96.892462363001016, 18.791196591827056 ], [ -96.892459518109987, 18.791196559707991 ] ] ] } },
{ "type": "Feature", "properties": { "DN": 3, "AREA": 5.9999999995343387e-06, "ID": 46 }, "geometry": { "type": "Polygon", "coordinates": [ [ [ -96.89245591602355, 18.791181162921102 ], [ -96.892455949747344, 18.791178453398494 ], [ -96.892457846341145, 18.791178474811225 ], [ -96.892457812617394, 18.791181184333837 ], [ -96.89245591602355, 18.791181162921102 ] ] ] } },
{ "type": "Feature", "properties": { "DN": 3, "AREA": 9.1999999994412076e-05, "ID": 47 }, "geometry": { "type": "Polygon", "coordinates": [ [ [ -96.892472093277149, 18.791176829057683 ], [ -96.892472070794796, 18.791178635406109 ], [ -96.892471122497881, 18.791178624699814 ], [ -96.892471066291961, 18.791183140570869 ], [ -96.892470117995032, 18.791183129864567 ], [ -96.892470095512635, 18.791184936212986 ], [ -96.892469147215692, 18.791184925506681 ], [ -96.892469135974494, 18.791185828680884 ], [ -96.892468187677551, 18.791185817974579 ], [ -96.892468210159947, 18.791184011626164 ], [ -96.892467261863004, 18.791184000919849 ], [ -96.892467318069023, 18.791179485048811 ], [ -96.892466369772109, 18.791179474342492 ], [ -96.892466381013321, 18.791178571168285 ], [ -96.892465432716421, 18.791178560461965 ], [ -96.892465455198831, 18.791176754113547 ], [ -96.892464506901931, 18.791176743407224 ], [ -96.892464518143143, 18.791175840233016 ], [ -96.892463569846257, 18.79117582952669 ], [ -96.892463626052347, 18.791171313655656 ], [ -96.892466470942963, 18.791171345774622 ], [ -96.892466459701765, 18.791172248948833 ], [ -96.892467407998623, 18.791172259655145 ], [ -96.892467419239821, 18.791171356480934 ], [ -96.892468367536694, 18.791171367187239 ], [ -96.892468378777892, 18.791170464013028 ], [ -96.892471223668494, 18.791170496131919 ], [ -96.892471178703786, 18.791174108828763 ], [ -96.892472127000673, 18.791174119535054 ], [ -96.892472115759503, 18.791175022709265 ], [ -96.892473064056389, 18.791175033415552 ], [ -96.892473041574064, 18.791176839763974 ], [ -96.892472093277149, 18.791176829057683 ] ], [ [ -96.892472104518333, 18.791175925883472 ], [ -96.892469259627632, 18.791175893764589 ], [ -96.892469248386448, 18.791176796938796 ], [ -96.892472093277149, 18.791176829057683 ], [ -96.892472104518333, 18.791175925883472 ] ] ] } },
{ "type": "Feature", "properties": { "DN": 3, "AREA": 2.1999999989755448e-05, "ID": 48 }, "geometry": { "type": "Polygon", "coordinates": [ [ [ -96.892345819667611, 18.791111269007928 ], [ -96.892345887118424, 18.791105849963067 ], [ -96.89234968030415, 18.791105892790586 ], [ -96.892349635337027, 18.791109505487167 ], [ -96.892348687040567, 18.79110949478029 ], [ -96.892348664556977, 18.791111301128584 ], [ -96.892345819667611, 18.791111269007928 ] ] ] } },
{ "type": "Feature", "properties": { "DN": 3, "AREA": 1.9869775083377208e-07, "ID": 49 }, "geometry": { "type": "Polygon", "coordinates": [ [ [ -96.892826141045674, 18.791077849580066 ], [ -96.892826147797408, 18.791077307016486 ], [ -96.892826768364202, 18.791077856661275 ], [ -96.892826141045674, 18.791077849580066 ] ] ] } },
{ "type": "Feature", "properties": { "DN": 3, "AREA": 3.9999999981373549e-06, "ID": 50 }, "geometry": { "type": "Polygon", "coordinates": [ [ [ -96.892125878475682, 18.791027488509471 ], [ -96.892125900961517, 18.791025682161429 ], [ -96.892127797553215, 18.791025703577343 ], [ -96.892127775067394, 18.791027509925392 ], [ -96.892125878475682, 18.791027488509471 ] ] ] } },
{ "type": "Feature", "properties": { "DN": 3, "AREA": 0.00010667154149332356, "ID": 51 }, "geometry": { "type": "Polygon", "coordinates": [ [ [ -96.892780056656335, 18.791046617127272 ], [ -96.892780067895771, 18.791045713952869 ], [ -96.892781016192131, 18.791045724657518 ], [ -96.892781038671018, 18.791043918308706 ], [ -96.892778193781979, 18.791043886194746 ], [ -96.892778205021443, 18.791042983020347 ], [ -96.892777256725097, 18.791042972315683 ], [ -96.89277733540132, 18.791036650094863 ], [ -96.892778283697623, 18.791036660799531 ], [ -96.892778306176524, 18.791034854450718 ], [ -96.892777357880234, 18.791034843746061 ], [ -96.892777380359149, 18.791033037397256 ], [ -96.892774535470295, 18.791033005283257 ], [ -96.892774591667632, 18.791028489411254 ], [ -96.892775539963893, 18.791028500115921 ], [ -96.892775551203357, 18.791027596941511 ], [ -96.892776823829976, 18.791027611307317 ], [ -96.892777438183103, 18.791028390808894 ], [ -96.892777436556415, 18.791028521525245 ], [ -96.892777542144728, 18.791028522717156 ], [ -96.892782106617688, 18.79103431419691 ], [ -96.892782099361725, 18.791034897269306 ], [ -96.892782570348203, 18.791034902585928 ], [ -96.892783040304636, 18.791035498874511 ], [ -96.892783036418592, 18.791035811148348 ], [ -96.892783288663011, 18.791035813995748 ], [ -96.892783973991612, 18.791036683552093 ], [ -96.892783928517773, 18.791040337725004 ], [ -96.89278298022144, 18.791040327020372 ], [ -96.892782946503146, 18.791043036543588 ], [ -96.892783894799493, 18.791043047248223 ], [ -96.892783861081213, 18.791045756771442 ], [ -96.892781964488492, 18.791045735362164 ], [ -96.892781953249056, 18.791046638536571 ], [ -96.892780056656335, 18.791046617127272 ] ] ] } },
{ "type": "Feature", "properties": { "DN": 3, "AREA": 5.1000000006519253e-05, "ID": 52 }, "geometry": { "type": "Polygon", "coordinates": [ [ [ -96.892659892785261, 18.791023581413526 ], [ -96.892659915265412, 18.791021775064852 ], [ -96.892658966969265, 18.791021764359598 ], [ -96.892658978209326, 18.791020861185267 ], [ -96.892658029913179, 18.79102085048001 ], [ -96.892658052393358, 18.791019044131339 ], [ -96.892659000689491, 18.791019054836593 ], [ -96.892659023169657, 18.791017248487922 ], [ -96.892657126577404, 18.791017227077404 ], [ -96.89265714905757, 18.791015420728744 ], [ -96.892660942242031, 18.791015463549744 ], [ -96.892660908521833, 18.791018173072757 ], [ -96.892661856817966, 18.791018183777997 ], [ -96.892661823097768, 18.791020893301003 ], [ -96.89266277139393, 18.791020904006238 ], [ -96.892662782633991, 18.791020000831903 ], [ -96.892663730930124, 18.791020011537132 ], [ -96.892663753410218, 18.791018205188461 ], [ -96.892665650002499, 18.791018226598911 ], [ -96.892665638762452, 18.791019129773247 ], [ -96.892666587058599, 18.791019140478465 ], [ -96.892666542098439, 18.79102275317582 ], [ -96.892665593802292, 18.791022742470602 ], [ -96.89266558256223, 18.791023645644941 ], [ -96.892659892785261, 18.791023581413526 ] ] ] } },
{ "type": "Feature", "properties": { "DN": 3, "AREA": 5.0000000023283059e-06, "ID": 53 }, "geometry": { "type": "Polygon", "coordinates": [ [ [ -96.892643861671871, 18.791016174028954 ], [ -96.892643884152193, 18.791014367680301 ], [ -96.892644832448283, 18.791014378385629 ], [ -96.892644843688444, 18.791013475211301 ], [ -96.892645791984535, 18.791013485916622 ], [ -96.892645758264095, 18.791016195439596 ], [ -96.892643861671871, 18.791016174028954 ] ] ] } },
{ "type": "Feature", "properties": { "DN": 3, "AREA": 8.8000000000931327e-05, "ID": 54 }, "geometry": { "type": "Polygon", "coordinates": [ [ [ -96.89263997856601, 18.791023356602196 ], [ -96.892639989806185, 18.791022453427875 ], [ -96.892638093213904, 18.791022432017161 ], [ -96.892638104454093, 18.79102152884284 ], [ -96.89263715615796, 18.791021518137473 ], [ -96.892637178638338, 18.791019711788834 ], [ -96.892638126934472, 18.791019722494191 ], [ -96.892638138174661, 18.791018819319874 ], [ -96.892637189878542, 18.791018808614513 ], [ -96.892637201118731, 18.791017905440196 ], [ -96.892636252822612, 18.791017894734821 ], [ -96.892636264062816, 18.791016991560504 ], [ -96.892635315766711, 18.79101698085513 ], [ -96.892635338247104, 18.791015174506487 ], [ -96.892636286543208, 18.791015185211855 ], [ -96.892636297783412, 18.79101428203753 ], [ -96.892637246079502, 18.791014292742897 ], [ -96.89263727980007, 18.791011583219927 ], [ -96.892636331503994, 18.791011572514567 ], [ -96.892636353984386, 18.791009766165924 ], [ -96.892640147168663, 18.791009808987333 ], [ -96.892640113448138, 18.791012518510311 ], [ -96.892641061744229, 18.791012529215653 ], [ -96.892641039263879, 18.791014335564299 ], [ -96.892641987559998, 18.791014346269638 ], [ -96.892641976319823, 18.791015249443969 ], [ -96.892642924615927, 18.791015260149297 ], [ -96.892642868415123, 18.791019776020931 ], [ -96.892643816711256, 18.791019786726267 ], [ -96.892643805471081, 18.791020689900588 ], [ -96.892644753767229, 18.791020700605916 ], [ -96.892644742527068, 18.791021603780244 ], [ -96.892645690823215, 18.791021614485565 ], [ -96.892645668342908, 18.791023420834222 ], [ -96.89263997856601, 18.791023356602196 ] ] ] } },
{ "type": "Feature", "properties": { "DN": 3, "AREA": 1.1999999999068677e-05, "ID": 55 }, "geometry": { "type": "Polygon", "coordinates": [ [ [ -96.892200212630939, 18.790922641642119 ], [ -96.892200257600777, 18.790919028945812 ], [ -96.892203102486661, 18.790919061068372 ], [ -96.892203057516866, 18.790922673764683 ], [ -96.892200212630939, 18.790922641642119 ] ] ] } },
{ "type": "Feature", "properties": { "DN": 3, "AREA": 4.0999999991385269e-05, "ID": 56 }, "geometry": { "type": "Polygon", "coordinates": [ [ [ -96.892056723856655, 18.790868629950335 ], [ -96.892056735099857, 18.790867726776337 ], [ -96.892055786804931, 18.790867716068107 ], [ -96.892055966695992, 18.790853265284124 ], [ -96.892056914990832, 18.790853275992347 ], [ -96.892056903747644, 18.790854179166349 ], [ -96.892057852042484, 18.790854189874565 ], [ -96.892057840799325, 18.790855093048574 ], [ -96.892058789094165, 18.790855103756783 ], [ -96.89205875536463, 18.790857813278784 ], [ -96.892057807069776, 18.790857802570571 ], [ -96.892057784583429, 18.790859608918574 ], [ -96.892058732878297, 18.790859619626783 ], [ -96.892058710391936, 18.790861425974782 ], [ -96.892057762097053, 18.790861415266569 ], [ -96.892057750853866, 18.790862318440563 ], [ -96.892058699148762, 18.790862329148784 ], [ -96.892058676662415, 18.790864135496783 ], [ -96.892057728367519, 18.790864124788573 ], [ -96.892057705881143, 18.790865931136569 ], [ -96.892058654176054, 18.790865941844785 ], [ -96.892058631689679, 18.790867748192781 ], [ -96.892057683394768, 18.790867737484565 ], [ -96.89205767215158, 18.790868640658559 ], [ -96.892056723856655, 18.790868629950335 ] ] ] } },
{ "type": "Feature", "properties": { "DN": 3, "AREA": 1.5999999999534338e-05, "ID": 57 }, "geometry": { "type": "Polygon", "coordinates": [ [ [ -96.89236780558447, 18.790792651955801 ], [ -96.892367828067421, 18.790790845607422 ], [ -96.892366879772752, 18.790790834900815 ], [ -96.892366924738695, 18.790787222204067 ], [ -96.892369769622675, 18.790787254323874 ], [ -96.892369702173838, 18.790792673369001 ], [ -96.89236780558447, 18.790792651955801 ] ] ] } },
{ "type": "Feature", "properties": { "DN": 3, "AREA": 3.9999999981373549e-06, "ID": 58 }, "geometry": { "type": "Polygon", "coordinates": [ [ [ -96.892366066375942, 18.79077998610396 ], [ -96.892366088858921, 18.790778179755588 ], [ -96.892367985448132, 18.790778201168791 ], [ -96.892367962965182, 18.790780007517171 ], [ -96.892366066375942, 18.79077998610396 ] ] ] } },
{ "type": "Feature", "properties": { "DN": 3, "AREA": 8.5999999999534338e-05, "ID": 59 }, "geometry": { "type": "Polygon", "coordinates": [ [ [ -96.892365208013231, 18.790772750003853 ], [ -96.892365252979175, 18.790769137307105 ], [ -96.892367149568287, 18.790769158720302 ], [ -96.892367183292706, 18.79076644919774 ], [ -96.892366234998164, 18.79076643849114 ], [ -96.892366257481115, 18.790764632142768 ], [ -96.892364360892046, 18.790764610729553 ], [ -96.892364394616493, 18.790761901206992 ], [ -96.892366291205533, 18.790761922620192 ], [ -96.89236631368847, 18.790760116271816 ], [ -96.892365365393971, 18.790760105565219 ], [ -96.892365376635453, 18.79075920239103 ], [ -96.892364428340954, 18.790759191684419 ], [ -96.892364462065387, 18.790756482161861 ], [ -96.892365410359872, 18.790756492868461 ], [ -96.89236542160134, 18.790755589694275 ], [ -96.89236826648478, 18.790755621814046 ], [ -96.892368255243326, 18.790756524988236 ], [ -96.892369203537825, 18.790756535694815 ], [ -96.892369192296371, 18.790757438869012 ], [ -96.892370140590856, 18.79075744957559 ], [ -96.892369971969046, 18.79077099718846 ], [ -96.892369023674476, 18.790770986481871 ], [ -96.89236900119154, 18.790772792830257 ], [ -96.892365208013231, 18.790772750003853 ] ] ] } },
{ "type": "Feature", "properties": { "DN": 3, "AREA": 1.7999999998603016e-05, "ID": 60 }, "geometry": { "type": "Polygon", "coordinates": [ [ [ -96.892511661291465, 18.790740981316535 ], [ -96.892511672532152, 18.790740078142257 ], [ -96.892510724237667, 18.79074006743641 ], [ -96.892510769200413, 18.790736454739303 ], [ -96.892514562378267, 18.790736497562673 ], [ -96.892514517415592, 18.790740110259787 ], [ -96.892513569121121, 18.790740099553947 ], [ -96.892513557880434, 18.790741002728222 ], [ -96.892511661291465, 18.790740981316535 ] ] ] } },
{ "type": "Feature", "properties": { "DN": 3, "AREA": 9.7000000011874372e-05, "ID": 61 }, "geometry": { "type": "Polygon", "coordinates": [ [ [ -96.892405441071475, 18.790740685405559 ], [ -96.892405609690158, 18.790727137792334 ], [ -96.892407506278857, 18.790727159205083 ], [ -96.892407495037617, 18.790728062379308 ], [ -96.892410339920673, 18.790728094498395 ], [ -96.89241032867946, 18.790728997672613 ], [ -96.892411276973831, 18.790729008378964 ], [ -96.892411254491407, 18.7907308147274 ], [ -96.892412202785763, 18.790730825433752 ], [ -96.892412180303353, 18.790732631782191 ], [ -96.892413128597738, 18.790732642488539 ], [ -96.892413117356526, 18.790733545662754 ], [ -96.89241216906214, 18.790733534956409 ], [ -96.892412157820928, 18.790734438130627 ], [ -96.892411209526543, 18.790734427424272 ], [ -96.892411187044118, 18.790736233772712 ], [ -96.892412135338517, 18.790736244479064 ], [ -96.89241210161488, 18.790738954001718 ], [ -96.892413049909294, 18.790738964708066 ], [ -96.892413027426869, 18.790740771056505 ], [ -96.892405441071475, 18.790740685405559 ] ] ] } },
{ "type": "Feature", "properties": { "DN": 3, "AREA": 2.7999999999767171e-05, "ID": 62 }, "geometry": { "type": "Polygon", "coordinates": [ [ [ -96.892406569225741, 18.7907262453245 ], [ -96.892406580466982, 18.790725342150285 ], [ -96.89240563217264, 18.790725331443905 ], [ -96.892405677137589, 18.79072171874704 ], [ -96.892407573726231, 18.790721740159782 ], [ -96.892407584967458, 18.790720836985567 ], [ -96.892406636673144, 18.790720826279202 ], [ -96.892406659155611, 18.790719019930766 ], [ -96.892408555744211, 18.790719041343493 ], [ -96.892408544502999, 18.790719944517715 ], [ -96.892410441091599, 18.790719965930425 ], [ -96.892410407367962, 18.790722675453079 ], [ -96.892409459073647, 18.790722664746724 ], [ -96.892409425349996, 18.790725374269378 ], [ -96.892408477055653, 18.79072536356302 ], [ -96.892408465814427, 18.790726266737234 ], [ -96.892406569225741, 18.7907262453245 ] ] ] } },
{ "type": "Feature", "properties": { "DN": 3, "AREA": 1.3000000000931322e-05, "ID": 63 }, "geometry": { "type": "Polygon", "coordinates": [ [ [ -96.892269538714942, 18.790686759535912 ], [ -96.892269572440753, 18.790684050013496 ], [ -96.892272417322829, 18.790684082134607 ], [ -96.892272406080906, 18.790684985308754 ], [ -96.892274302668966, 18.790685006722807 ], [ -96.892274280185134, 18.790686813071094 ], [ -96.892269538714942, 18.790686759535912 ] ] ] } },
{ "type": "Feature", "properties": { "DN": 3, "AREA": 2.000000002561137e-06, "ID": 64 }, "geometry": { "type": "Polygon", "coordinates": [ [ [ -96.892241089894114, 18.7906864383223 ], [ -96.892241101136207, 18.790685535148182 ], [ -96.892242997724239, 18.790685556562558 ], [ -96.892242986482145, 18.790686459736673 ], [ -96.892241089894114, 18.7906864383223 ] ] ] } },
{ "type": "Feature", "properties": { "DN": 3, "AREA": 2.2000000000232832e-05, "ID": 65 }, "geometry": { "type": "Polygon", "coordinates": [ [ [ -96.89228471141962, 18.790686930848068 ], [ -96.892284745145204, 18.79068422132562 ], [ -96.892285693439234, 18.790684232032589 ], [ -96.892285704681086, 18.790683328858435 ], [ -96.892286652975116, 18.790683339565398 ], [ -96.892286686700643, 18.790680630042946 ], [ -96.892287634994659, 18.790680640749898 ], [ -96.892287612510984, 18.790682447098202 ], [ -96.892288560805, 18.790682457805154 ], [ -96.892288549563162, 18.790683360979305 ], [ -96.892289497857192, 18.790683371686249 ], [ -96.892289464131693, 18.790686081208708 ], [ -96.892288515837649, 18.79068607050176 ], [ -96.892288504595811, 18.790686973675911 ], [ -96.89228471141962, 18.790686930848068 ] ] ] } },
{ "type": "Feature", "properties": { "DN": 3, "AREA": 1.7999999996274709e-05, "ID": 66 }, "geometry": { "type": "Polygon", "coordinates": [ [ [ -96.892253451442485, 18.790683867993003 ], [ -96.892253462684508, 18.790682964818874 ], [ -96.892252514390506, 18.790682954111741 ], [ -96.892252525632529, 18.790682050937612 ], [ -96.892251577338527, 18.790682040230482 ], [ -96.892251599822586, 18.79068023388222 ], [ -96.892252548116588, 18.790680244589353 ], [ -96.892252570600633, 18.790678438241091 ], [ -96.892254467188593, 18.790678459655343 ], [ -96.892254455946585, 18.790679362829472 ], [ -96.892255404240558, 18.790679373536587 ], [ -96.892255348030503, 18.790683889407251 ], [ -96.892253451442485, 18.790683867993003 ] ] ] } },
{ "type": "Feature", "properties": { "DN": 3, "AREA": 2.7999999993946401e-05, "ID": 67 }, "geometry": { "type": "Polygon", "coordinates": [ [ [ -96.892314153502198, 18.790683650065194 ], [ -96.892314164743894, 18.790682746891029 ], [ -96.892313216449864, 18.790682736184209 ], [ -96.892313306383485, 18.79067551079088 ], [ -96.892314254677473, 18.790675521497697 ], [ -96.892314265919168, 18.790674618323525 ], [ -96.892316162507171, 18.790674639737141 ], [ -96.892316050090301, 18.790683671478824 ], [ -96.892314153502198, 18.790683650065194 ] ] ] } },
{ "type": "Feature", "properties": { "DN": 3, "AREA": 3.9999999981373549e-06, "ID": 68 }, "geometry": { "type": "Polygon", "coordinates": [ [ [ -96.892314277160864, 18.79067371514936 ], [ -96.892314288402559, 18.790672811975195 ], [ -96.892313340108586, 18.790672801268375 ], [ -96.892313351350282, 18.790671898094214 ], [ -96.892314299644255, 18.790671908801031 ], [ -96.892314310885951, 18.790671005626859 ], [ -96.892315259179924, 18.790671016333668 ], [ -96.892315225454865, 18.79067372585617 ], [ -96.892314277160864, 18.79067371514936 ] ] ] } },
{ "type": "Feature", "properties": { "DN": 3, "AREA": 5.499999999301507e-05, "ID": 69 }, "geometry": { "type": "Polygon", "coordinates": [ [ [ -96.892314378336081, 18.790665586581852 ], [ -96.89231441206114, 18.790662877059344 ], [ -96.892312515473279, 18.790662855645721 ], [ -96.892312504231583, 18.790663758819889 ], [ -96.892313452525528, 18.790663769526706 ], [ -96.892313430042137, 18.790665575875035 ], [ -96.892309636866372, 18.790665533047743 ], [ -96.892309648108082, 18.790664629873579 ], [ -96.892308699814137, 18.790664619166748 ], [ -96.892308733539281, 18.79066190964425 ], [ -96.892309681833211, 18.790661920351088 ], [ -96.892309693074921, 18.790661017176916 ], [ -96.892311589662754, 18.790661038590567 ], [ -96.892311600904449, 18.790660135416399 ], [ -96.892312549198365, 18.790660146123219 ], [ -96.892312571681757, 18.790658339774886 ], [ -96.892313519975673, 18.790658350481696 ], [ -96.892313531217354, 18.790657447307527 ], [ -96.892314479511242, 18.790657458014334 ], [ -96.892314513236286, 18.790654748491825 ], [ -96.892316409824062, 18.790654769905416 ], [ -96.892316387340728, 18.79065657625376 ], [ -96.892315439046826, 18.790656565546964 ], [ -96.892315427805144, 18.790657468721136 ], [ -96.892316376099046, 18.790657479427935 ], [ -96.892316274923985, 18.790665607995454 ], [ -96.892314378336081, 18.790665586581852 ] ] ] } },
{ "type": "Feature", "properties": { "DN": 3, "AREA": 4.000000001629814e-06, "ID": 70 }, "geometry": { "type": "Polygon", "coordinates": [ [ [ -96.892312650373583, 18.790652017555704 ], [ -96.892312684098641, 18.790649308033203 ], [ -96.892313632392515, 18.790649318740009 ], [ -96.892313621150834, 18.790650221914174 ], [ -96.892314569444679, 18.79065023262098 ], [ -96.892314558203012, 18.790651135795144 ], [ -96.892313609909152, 18.790651125088338 ], [ -96.892313598667471, 18.790652028262514 ], [ -96.892312650373583, 18.790652017555704 ] ] ] } },
{ "type": "Feature", "properties": { "DN": 3, "AREA": 7.0000000002328315e-06, "ID": 71 }, "geometry": { "type": "Polygon", "coordinates": [ [ [ -96.892415156044308, 18.790645948469333 ], [ -96.892415167285449, 18.790645045295101 ], [ -96.892414218991547, 18.790645034588813 ], [ -96.892414230232703, 18.790644131414584 ], [ -96.892415178526576, 18.790644142120868 ], [ -96.892415189767718, 18.790643238946643 ], [ -96.892417086355493, 18.790643260359204 ], [ -96.892417052632098, 18.790645969881897 ], [ -96.892415156044308, 18.790645948469333 ] ] ] } },
{ "type": "Feature", "properties": { "DN": 3, "AREA": 5.5965595518327261e-05, "ID": 72 }, "geometry": { "type": "Polygon", "coordinates": [ [ [ -96.892421917753694, 18.790636088496651 ], [ -96.892421884030412, 18.790638798019351 ], [ -96.892416194267255, 18.790638733781776 ], [ -96.892416205508368, 18.790637830607547 ], [ -96.892415257214523, 18.790637819901267 ], [ -96.892415268455665, 18.790636916727038 ], [ -96.89241337186796, 18.790636895314464 ], [ -96.892413394350243, 18.790635088966006 ], [ -96.892412446056412, 18.790635078259715 ], [ -96.892412457297553, 18.79063417508549 ], [ -96.892413405591384, 18.790634185791781 ], [ -96.892413416832525, 18.790633282617552 ], [ -96.892415313420173, 18.790633304030116 ], [ -96.8924153246613, 18.790632400855888 ], [ -96.892416272955131, 18.790632411562168 ], [ -96.892416284196258, 18.790631508387932 ], [ -96.892418180783878, 18.790631529800464 ], [ -96.892418192024991, 18.790630626626232 ], [ -96.89241849298034, 18.790630630024026 ], [ -96.892419341715396, 18.790631542907406 ], [ -96.892419129077709, 18.79063154050673 ], [ -96.892419084113271, 18.79063515320366 ], [ -96.892420032407102, 18.790635163909915 ], [ -96.892420054889314, 18.79063335756145 ], [ -96.892421039185578, 18.790633368674168 ], [ -96.892423585390901, 18.790636107324289 ], [ -96.892421917753694, 18.790636088496651 ] ], [ [ -96.892421928994793, 18.790635185322412 ], [ -96.892420980700948, 18.79063517461617 ], [ -96.892420969459849, 18.790636077790399 ], [ -96.892421917753694, 18.790636088496651 ], [ -96.892421928994793, 18.790635185322412 ] ] ] } },
{ "type": "Feature", "properties": { "DN": 3, "AREA": 4.5000000012805684e-05, "ID": 73 }, "geometry": { "type": "Polygon", "coordinates": [ [ [ -96.892233484382814, 18.790535501171124 ], [ -96.892233619287197, 18.790524663081513 ], [ -96.892234567580303, 18.790524673788649 ], [ -96.892234578822325, 18.79052377061452 ], [ -96.892236475408538, 18.790523792028779 ], [ -96.89223646416653, 18.790524695202915 ], [ -96.892239309045848, 18.790524727324279 ], [ -96.89223928656186, 18.790526533672555 ], [ -96.89223833826874, 18.79052652296544 ], [ -96.892238327026732, 18.79052742613958 ], [ -96.892237378733611, 18.790527415432457 ], [ -96.892237367491603, 18.79052831860659 ], [ -96.892236419198468, 18.790528307899464 ], [ -96.892236396714438, 18.790530114247733 ], [ -96.892235448421303, 18.7905301035406 ], [ -96.892235425937244, 18.79053190988887 ], [ -96.892236374230407, 18.790531920596003 ], [ -96.892236329262317, 18.790535533292552 ], [ -96.892233484382814, 18.790535501171124 ] ] ] } },
{ "type": "Feature", "properties": { "DN": 3, "AREA": 4.4999999996507537e-05, "ID": 74 }, "geometry": { "type": "Polygon", "coordinates": [ [ [ -96.892077713075366, 18.790477737635374 ], [ -96.892077724318199, 18.790476834461323 ], [ -96.892076776025462, 18.790476823753412 ], [ -96.892076787268294, 18.790475920579365 ], [ -96.892074890682807, 18.790475899163532 ], [ -96.8920749131685, 18.790474092815444 ], [ -96.892073964875777, 18.790474082107515 ], [ -96.892073976118624, 18.790473178933471 ], [ -96.892073027825887, 18.790473168225539 ], [ -96.892073050311595, 18.790471361877451 ], [ -96.892073998604303, 18.790471372585376 ], [ -96.89207400984715, 18.790470469411328 ], [ -96.892074958139858, 18.79047048011925 ], [ -96.892074980625537, 18.790468673771159 ], [ -96.892077825503634, 18.790468705894884 ], [ -96.892077780532333, 18.790472318591082 ], [ -96.892078728825055, 18.790472329298986 ], [ -96.892078717582237, 18.79047323247303 ], [ -96.892079665874974, 18.790473243180926 ], [ -96.892079643389337, 18.790475049529029 ], [ -96.892080591682074, 18.790475060236922 ], [ -96.892080557953619, 18.790477769759072 ], [ -96.892077713075366, 18.790477737635374 ] ] ] } },
{ "type": "Feature", "properties": { "DN": 3, "AREA": 9.0000000005820748e-05, "ID": 75 }, "geometry": { "type": "Polygon", "coordinates": [ [ [ -96.892071738354019, 18.790424375411114 ], [ -96.892071794568125, 18.790419859540862 ], [ -96.892072742860563, 18.790419870248765 ], [ -96.892072776589004, 18.790417160726605 ], [ -96.892073724881413, 18.790417171434502 ], [ -96.89207375860984, 18.790414461912349 ], [ -96.892074706902235, 18.790414472620238 ], [ -96.892074740630648, 18.790411763098081 ], [ -96.892075688923015, 18.790411773805971 ], [ -96.892075711408623, 18.790409967457858 ], [ -96.89207665970099, 18.790409978165734 ], [ -96.89207668218657, 18.790408171817624 ], [ -96.892077630478923, 18.790408182525503 ], [ -96.892077641721713, 18.790407279351445 ], [ -96.892079538306433, 18.790407300767171 ], [ -96.892079504578092, 18.790410010289339 ], [ -96.892080452870474, 18.790410020997204 ], [ -96.89208039665661, 18.79041453686748 ], [ -96.892079448364214, 18.790414526159619 ], [ -96.892079403393083, 18.790418138855845 ], [ -96.892078455100673, 18.790418128147973 ], [ -96.892078443857883, 18.790419031322024 ], [ -96.892077495565474, 18.790419020614156 ], [ -96.89207748432267, 18.790419923788214 ], [ -96.892075587737821, 18.790419902372445 ], [ -96.892075554009409, 18.790422611894602 ], [ -96.892074605716971, 18.790422601186716 ], [ -96.892074583231349, 18.790424407534815 ], [ -96.892071738354019, 18.790424375411114 ] ] ] } },
{ "type": "Feature", "properties": { "DN": 3, "AREA": 2.0000000013969838e-06, "ID": 76 }, "geometry": { "type": "Polygon", "coordinates": [ [ [ -96.892041640341603, 18.790404162926837 ], [ -96.892041651584577, 18.7904032597528 ], [ -96.892043548169198, 18.790403281168892 ], [ -96.892043536926238, 18.790404184342929 ], [ -96.892041640341603, 18.790404162926837 ] ] ] } },
{ "type": "Feature", "properties": { "DN": 3, "AREA": 2.0000000013969838e-06, "ID": 77 }, "geometry": { "type": "Polygon", "coordinates": [ [ [ -96.891807756827816, 18.790069107054681 ], [ -96.891807779315826, 18.790067300706816 ], [ -96.891808727606119, 18.790067311415864 ], [ -96.891808705118123, 18.790069117763732 ], [ -96.891807756827816, 18.790069107054681 ] ] ] } },
{ "type": "Feature", "properties": { "DN": 3, "AREA": 0.00016092769012258267, "ID": 78 }, "geometry": { "type": "Polygon", "coordinates": [ [ [ -96.891858169807833, 18.78998115287056 ], [ -96.891857221517995, 18.78998114216181 ], [ -96.89185718778694, 18.789983851683715 ], [ -96.891856239497073, 18.789983840974955 ], [ -96.891856205766018, 18.789986550496852 ], [ -96.89185715405587, 18.789986561205613 ], [ -96.8918571315685, 18.789988367553548 ], [ -96.89185618327862, 18.789988356844791 ], [ -96.891856138303837, 18.789991969540655 ], [ -96.891853293434153, 18.789991937414332 ], [ -96.891853282190439, 18.789992840588294 ], [ -96.891846644161177, 18.789992765626707 ], [ -96.891846632917421, 18.789993668800669 ], [ -96.891844736337617, 18.789993647383028 ], [ -96.891844725093861, 18.78999455055699 ], [ -96.891841880224163, 18.78999451843049 ], [ -96.891841891467934, 18.789993615256535 ], [ -96.891839994888144, 18.78999359383884 ], [ -96.891840006131929, 18.789992690664885 ], [ -96.891839105777407, 18.78999268049736 ], [ -96.891839700005207, 18.789991499999395 ], [ -96.891858211807403, 18.78997777915912 ], [ -96.891858169807833, 18.78998115287056 ] ] ] } },
{ "type": "Feature", "properties": { "DN": 3, "AREA": 1.7801250450497777e-07, "ID": 79 }, "geometry": { "type": "Polygon", "coordinates": [ [ [ -96.891859163072354, 18.789977550883435 ], [ -96.891858529444818, 18.789977543728078 ], [ -96.891859169063309, 18.78997706964649 ], [ -96.891859163072354, 18.789977550883435 ] ] ] } },
{ "type": "Feature", "properties": { "DN": 3, "AREA": 1.0224226131080385e-08, "ID": 80 }, "geometry": { "type": "Polygon", "coordinates": [ [ [ -96.891861082139314, 18.789975765952974 ], [ -96.891860930286086, 18.789975764238147 ], [ -96.891861083575094, 18.789975650621209 ], [ -96.891861082139314, 18.789975765952974 ] ] ] } },
{ "type": "Feature", "properties": { "DN": 3, "AREA": 4.6039237282385463e-06, "ID": 81 }, "geometry": { "type": "Polygon", "coordinates": [ [ [ -96.89186775389885, 18.789973131392053 ], [ -96.89186453154791, 18.789973095003173 ], [ -96.891867784366056, 18.78997068403255 ], [ -96.89186775389885, 18.789973131392053 ] ] ] } },
{ "type": "Feature", "properties": { "DN": 1, "AREA": 2.9000000000465665e-05, "ID": 6 }, "geometry": { "type": "Polygon", "coordinates": [ [ [ -96.892892765375151, 18.79173052887101 ], [ -96.892892776614474, 18.791729625696608 ], [ -96.892891828315186, 18.791729614992093 ], [ -96.892891873272532, 18.791726002294482 ], [ -96.892896614768958, 18.791726055816994 ], [ -96.892896603529636, 18.791726958991401 ], [ -96.892898500128226, 18.791726980400369 ], [ -96.892898488888918, 18.791727883574776 ], [ -96.892897540589615, 18.79172787287029 ], [ -96.892897506871691, 18.791730582393509 ], [ -96.892892765375151, 18.79173052887101 ] ] ] } }
]
}
