{
"type": "FeatureCollection",
"name": "shape (21)",
"crs": { "type": "name", "properties": { "name": "urn:ogc:def:crs:OGC:1.3:CRS84" } },
"features": [
{ "type": "Feature", "properties": { "id": null, "layer": null, "LAYER": null, "BALAYER": null, "stroke": null, "fill-opacity": null, "stroke-opacity": null }, "geometry": { "type": "Polygon", "coordinates": [ [ [ -96.893521946373426, 18.791786441937042 ], [ -96.893504871811103, 18.791815048129724 ], [ -96.893487319260544, 18.791843363547919 ], [ -96.893469293672268, 18.79187138020556 ], [ -96.893450800130182, 18.791899090200864 ], [ -96.893431843850195, 18.791926485718516 ], [ -96.893412430178728, 18.791953559031917 ], [ -96.893392564591196, 18.791980302505326 ], [ -96.893372252690455, 18.792006708596041 ], [ -96.89335150020527, 18.792032769856505 ], [ -96.893330312988653, 18.792058478936426 ], [ -96.893308697016224, 18.792083828584836 ], [ -96.89328665838454, 18.792108811652138 ], [ -96.893264203309357, 18.792133421092135 ], [ -96.893241338123886, 18.792157649963997 ], [ -96.893218069276998, 18.792181491434231 ], [ -96.893194403331421, 18.792204938778617 ], [ -96.893170346961895, 18.792227985384077 ], [ -96.893163671213728, 18.792228748419944 ], [ -96.893156983201294, 18.792229395201915 ], [ -96.893150284948902, 18.792229925534219 ], [ -96.893143578484015, 18.792230339256331 ], [ -96.893136865836539, 18.792230636243033 ], [ -96.893130149038257, 18.792230816404427 ], [ -96.893123430122216, 18.792230879685981 ], [ -96.893116711122104, 18.792230826068547 ], [ -96.893109994071636, 18.792230655568346 ], [ -96.893103281003931, 18.792230368236993 ], [ -96.893096573950899, 18.79222996416145 ], [ -96.89308987494266, 18.792229443464031 ], [ -96.893083186006848, 18.792228806302333 ], [ -96.893076509168083, 18.792228052869216 ], [ -96.893069846447318, 18.792227183392733 ], [ -96.893063199861231, 18.792226198136053 ], [ -96.893056571421624, 18.792225097397399 ], [ -96.893049963134771, 18.792223881509937 ], [ -96.893043377000907, 18.792222550841696 ], [ -96.893036815013502, 18.792221105795445 ], [ -96.893030279158765, 18.792219546808571 ], [ -96.893023771414946, 18.79221787435295 ], [ -96.893017293751839, 18.792216088934801 ], [ -96.893010848130103, 18.792214191094534 ], [ -96.893004436500689, 18.79221218140659 ], [ -96.892998060804288, 18.792210060479263 ], [ -96.892991722970706, 18.79220782895452 ], [ -96.892985424918265, 18.792205487507797 ], [ -96.892979168553268, 18.792203036847802 ], [ -96.892972955769409, 18.79220047771631 ], [ -96.892966788447168, 18.792197810887917 ], [ -96.89296066845327, 18.792195037169819 ], [ -96.892954597640127, 18.792192157401573 ], [ -96.892948577845274, 18.792189172454819 ], [ -96.892942610890756, 18.792186083233052 ], [ -96.892936698582673, 18.79218289067132 ], [ -96.892930842710555, 18.792179595735941 ], [ -96.89292504504688, 18.79217619942424 ], [ -96.892915094377656, 18.792171112140554 ], [ -96.892905056711555, 18.792166198737217 ], [ -96.892894935086701, 18.792161460701379 ], [ -96.892884732566642, 18.792156899467123 ], [ -96.89287445223944, 18.792152516415019 ], [ -96.892864097216659, 18.792148312871699 ], [ -96.892853670632491, 18.792144290109462 ], [ -96.89284317564281, 18.792140449345897 ], [ -96.892832615424155, 18.792136791743506 ], [ -96.892821993172831, 18.792133318409341 ], [ -96.89281131210393, 18.792130030394695 ], [ -96.892800575450323, 18.792126928694763 ], [ -96.892789786461705, 18.792124014248348 ], [ -96.892778948403631, 18.792121287937576 ], [ -96.892768064556492, 18.79211875058763 ], [ -96.892757138214535, 18.792116402966499 ], [ -96.892746172684909, 18.792114245784749 ], [ -96.89273517128656, 18.792112279695299 ], [ -96.892724137349333, 18.792110505293238 ], [ -96.892713074212921, 18.792108923115624 ], [ -96.892701985225841, 18.792107533641346 ], [ -96.892690873744442, 18.79210633729096 ], [ -96.892679743131865, 18.792105334426569 ], [ -96.892671852611002, 18.792105890057638 ], [ -96.892663953604711, 18.792106308082932 ], [ -96.892656048512578, 18.792106588375454 ], [ -96.892648139736039, 18.792106730850058 ], [ -96.89264022967761, 18.792106735463467 ], [ -96.892632320740262, 18.792106602214275 ], [ -96.892624415326551, 18.792106331142964 ], [ -96.892616515838029, 18.792105922331878 ], [ -96.892608624674409, 18.792105375905205 ], [ -96.89260074423288, 18.792104692028946 ], [ -96.892592876907372, 18.792103870910843 ], [ -96.892585025087854, 18.792102912800342 ], [ -96.89257719115956, 18.792101817988499 ], [ -96.892569377502298, 18.792100586807898 ], [ -96.89256158648972, 18.792099219632544 ], [ -96.892553820488587, 18.79209771687777 ], [ -96.892546081858086, 18.792096079000078 ], [ -96.892538372949062, 18.792094306497031 ], [ -96.892530696103336, 18.79209239990708 ], [ -96.892523053653008, 18.792090359809414 ], [ -96.89251544791972, 18.792088186823779 ], [ -96.892507881213945, 18.792085881610291 ], [ -96.892500355834329, 18.792083444869228 ], [ -96.892492874066932, 18.79208087734083 ], [ -96.892485438184579, 18.792078179805063 ], [ -96.892478050446172, 18.792075353081398 ], [ -96.892458504654428, 18.792061367036702 ], [ -96.892439191940227, 18.792047060867016 ], [ -96.892420117546081, 18.79203243845582 ], [ -96.892401286649829, 18.792017503772435 ], [ -96.892382704363229, 18.792002260870952 ], [ -96.892364375730509, 18.791986713889127 ], [ -96.892346305727074, 18.791970867047269 ], [ -96.892328499258113, 18.79195472464707 ], [ -96.892310961157264, 18.791938291070469 ], [ -96.892293696185348, 18.791921570778438 ], [ -96.892276709029005, 18.791904568309775 ], [ -96.892260004299487, 18.791887288279884 ], [ -96.892221142401326, 18.791838099053329 ], [ -96.892183098566818, 18.791788274422938 ], [ -96.892145883183133, 18.791737827992403 ], [ -96.892109506411217, 18.791686773535176 ], [ -96.892073978183078, 18.791635124990734 ], [ -96.892039308199045, 18.791582896460749 ], [ -96.892005505925098, 18.791530102205247 ], [ -96.891972580590334, 18.791476756638719 ], [ -96.891940541184397, 18.791422874326177 ], [ -96.891909396455048, 18.791368469979187 ], [ -96.891879154905794, 18.791313558451836 ], [ -96.891849824793496, 18.791258154736706 ], [ -96.891821414126213, 18.791202273960742 ], [ -96.891793930660953, 18.791145931381156 ], [ -96.891784178831315, 18.790791519395121 ], [ -96.891769400469471, 18.790437281404429 ], [ -96.891767374666699, 18.790413546322959 ], [ -96.891765753319106, 18.790389780187361 ], [ -96.891764536896858, 18.79036598988921 ], [ -96.891763725752668, 18.790342182327084 ], [ -96.891763320121768, 18.790318364404573 ], [ -96.891763320121768, 18.790294543028264 ], [ -96.891763725752668, 18.790270725105753 ], [ -96.891764536896858, 18.790246917543627 ], [ -96.891765753319106, 18.790223127245476 ], [ -96.891767374666699, 18.790199361109877 ], [ -96.891769400469471, 18.790175626028407 ], [ -96.891775024689778, 18.790157071049546 ], [ -96.891780932220641, 18.79013860431801 ], [ -96.891787121678348, 18.790120230159307 ], [ -96.891793591613123, 18.790101952877269 ], [ -96.891800340509477, 18.790083776753026 ], [ -96.891807366786622, 18.790065706044011 ], [ -96.891814668798759, 18.790047744982981 ], [ -96.891822244835524, 18.790029897776996 ], [ -96.89182369486501, 18.790025705345482 ], [ -96.891825217619072, 18.790021538777637 ], [ -96.89182681263668, 18.790017399334879 ], [ -96.891828479434949, 18.790013288270412 ], [ -96.891830217509266, 18.790009206828856 ], [ -96.891832026333432, 18.790005156245851 ], [ -96.891833905359817, 18.790001137747709 ], [ -96.891835854019575, 18.789997152551013 ], [ -96.891837871722728, 18.789993201862277 ], [ -96.891839957858437, 18.78998928687756 ], [ -96.891842111795128, 18.789985408782119 ], [ -96.891844332880694, 18.789981568750033 ], [ -96.891846620442706, 18.789977767943864 ], [ -96.891848973788626, 18.789974007514299 ], [ -96.891851392205965, 18.7899702885998 ], [ -96.891853874962578, 18.789966612326253 ], [ -96.891856421306784, 18.789962979806649 ], [ -96.8918590304677, 18.78995939214072 ], [ -96.891861701655415, 18.789955850414625 ], [ -96.891864434061219, 18.789952355700613 ], [ -96.891867226857897, 18.789948909056701 ], [ -96.891870079199919, 18.789945511526351 ], [ -96.89187299022376, 18.789942164138157 ], [ -96.891875959048107, 18.789938867905533 ], [ -96.891878984774166, 18.789935623826409 ], [ -96.891882066485891, 18.789932432882921 ], [ -96.891885203250311, 18.789929296041116 ], [ -96.891888394117771, 18.789926214250666 ], [ -96.891891638122246, 18.789923188444583 ], [ -96.891894934281623, 18.789920219538914 ], [ -96.891898281598003, 18.789917308432489 ], [ -96.89190167905798, 18.789914456006645 ], [ -96.891905125632988, 18.78991166312494 ], [ -96.891908620279594, 18.789908930632919 ], [ -96.891912161939786, 18.789906259357831 ], [ -96.89191574954134, 18.789903650108403 ], [ -96.891919381998122, 18.789901103674577 ], [ -96.891923058210423, 18.78989862082728 ], [ -96.891926777065251, 18.789896202318189 ], [ -96.891930537436764, 18.789893848879501 ], [ -96.891934338186488, 18.789891561223712 ], [ -96.891938178163784, 18.789889340043409 ], [ -96.891942056206091, 18.789887186011047 ], [ -96.891945971139336, 18.789885099778754 ], [ -96.891949921778291, 18.789883081978132 ], [ -96.891953906926901, 18.789881133220064 ], [ -96.891957925378691, 18.789879254094533 ], [ -96.89196197591707, 18.78987744517044 ], [ -96.891966057315756, 18.789875706995435 ], [ -96.891970168339085, 18.789874040095739 ], [ -96.891974307742501, 18.789872444976012 ], [ -96.891978474272776, 18.789870922119164 ], [ -96.892005297291121, 18.789963343131561 ], [ -96.892030865400571, 18.790056119150147 ], [ -96.892055173905504, 18.79014923313639 ], [ -96.892060324869917, 18.790159630156591 ], [ -96.892065653693166, 18.790169937149667 ], [ -96.892071158802338, 18.790180151073322 ], [ -96.892076838572507, 18.790190268912728 ], [ -96.892082691327175, 18.790200287681419 ], [ -96.892088715338815, 18.790210204422173 ], [ -96.892094908829321, 18.790220016207883 ], [ -96.892101269970567, 18.79022972014242 ], [ -96.892107796884943, 18.790239313361489 ], [ -96.892114487645927, 18.790248793033481 ], [ -96.892121340278592, 18.790258156360288 ], [ -96.892128352760281, 18.790267400578159 ], [ -96.892135523021111, 18.790276522958493 ], [ -96.892142848944673, 18.790285520808652 ], [ -96.892150328368558, 18.790294391472756 ], [ -96.892157959085111, 18.790303132332465 ], [ -96.892165738841953, 18.790311740807752 ], [ -96.892173665342767, 18.790320214357674 ], [ -96.892181736247892, 18.790328550481103 ], [ -96.892189949175062, 18.790336746717482 ], [ -96.892198301700077, 18.790344800647539 ], [ -96.892206791357523, 18.790352709894012 ], [ -96.892215415641544, 18.790360472122341 ], [ -96.892224172006507, 18.790368085041361 ], [ -96.892233057867827, 18.790375546403983 ], [ -96.892242070602663, 18.790382854007841 ], [ -96.893521946373426, 18.791786441937042 ] ] ] } }
]
}
